"facilityid","facilityname","siteaddress","streetnumber","streetdirection","streetname","streettype","streetunit","city","state","zip","typeoffacility","categoryoffacility","inspectiontype","inspectiondate","violationcode","violation","violationpoints","violationtype","violationstatus","inspectionscore","location"
"FA0003604","SNOOZE","1617 PEARL ST UNIT 100","1617",NULL,"PEARL","ST","100","BOULDER","CO","80302","RESTAURANT 101 TO 200 SEATS","FULL SERVICE FULL MENU","ACTIVE MANAGEMENT CONTROL (AMC)","2017-10-03","AM24","Document Food Temperatures Frequently Cooling Initial Cook Receiving & Reheating",5,"Non-Critical","Full",90,"1617 PEARL ST UNIT 100
BOULDER, CO 80302
(40.019091, -105.274184)"
"FA0003604","SNOOZE","1617 PEARL ST UNIT 100","1617",NULL,"PEARL","ST","100","BOULDER","CO","80302","RESTAURANT 101 TO 200 SEATS","FULL SERVICE FULL MENU","ACTIVE MANAGEMENT CONTROL (AMC)","2016-05-18","AM5","Conduct Daily Food Safety Inspections",10,"Non-Critical","Full",70,"1617 PEARL ST UNIT 100
BOULDER, CO 80302
(40.019091, -105.274184)"
"FA0003604","SNOOZE","1617 PEARL ST UNIT 100","1617",NULL,"PEARL","ST","100","BOULDER","CO","80302","RESTAURANT 101 TO 200 SEATS","FULL SERVICE FULL MENU","ACTIVE MANAGEMENT CONTROL (AMC)","2016-05-18","AM18","Document Sanitizer Concentrations and Usage",10,"Non-Critical","Full",70,"1617 PEARL ST UNIT 100
BOULDER, CO 80302
(40.019091, -105.274184)"
"FA0003604","SNOOZE","1617 PEARL ST UNIT 100","1617",NULL,"PEARL","ST","100","BOULDER","CO","80302","RESTAURANT 101 TO 200 SEATS","FULL SERVICE FULL MENU","ACTIVE MANAGEMENT CONTROL (AMC)","2016-05-18","AM21","Do Your Have a Thermocouple or Digital Thermometer",5,"Non-Critical","Full",70,"1617 PEARL ST UNIT 100
BOULDER, CO 80302
(40.019091, -105.274184)"
"FA0003604","SNOOZE","1617 PEARL ST UNIT 100","1617",NULL,"PEARL","ST","100","BOULDER","CO","80302","RESTAURANT 101 TO 200 SEATS","FULL SERVICE FULL MENU","ACTIVE MANAGEMENT CONTROL (AMC)","2016-05-18","AM26","Contracts for Preventative Maintenance Full For All 3 Half For 1 OR 2 NO For None",10,"Non-Critical","Full",70,"1617 PEARL ST UNIT 100
BOULDER, CO 80302
(40.019091, -105.274184)"
"FA0003604","SNOOZE","1617 PEARL ST UNIT 100","1617",NULL,"PEARL","ST","100","BOULDER","CO","80302","RESTAURANT 101 TO 200 SEATS","FULL SERVICE FULL MENU","ACTIVE MANAGEMENT CONTROL (AMC)","2016-05-18","AM7","Private Corporate Food Safety Inspections",10,"Non-Critical","In",70,"1617 PEARL ST UNIT 100
BOULDER, CO 80302
(40.019091, -105.274184)"
"FA0003604","SNOOZE","1617 PEARL ST UNIT 100","1617",NULL,"PEARL","ST","100","BOULDER","CO","80302","RESTAURANT 101 TO 200 SEATS","FULL SERVICE FULL MENU","ACTIVE MANAGEMENT CONTROL (AMC)","2014-08-12","AM26","Contracts for Preventative Maintenance Full For All 3 Half For 1 OR 2 NO For None",10,"Non-Critical","Full",80,"1617 PEARL ST UNIT 100
BOULDER, CO 80302
(40.019091, -105.274184)"
"FA0003604","SNOOZE","1617 PEARL ST UNIT 100","1617",NULL,"PEARL","ST","100","BOULDER","CO","80302","RESTAURANT 101 TO 200 SEATS","FULL SERVICE FULL MENU","ACTIVE MANAGEMENT CONTROL (AMC)","2014-08-12","AM20","Paid Sick Leave",5,"Non-Critical","In",80,"1617 PEARL ST UNIT 100
BOULDER, CO 80302
(40.019091, -105.274184)"
"FA0003604","SNOOZE","1617 PEARL ST UNIT 100","1617",NULL,"PEARL","ST","100","BOULDER","CO","80302","RESTAURANT 101 TO 200 SEATS","FULL SERVICE FULL MENU","ACTIVE MANAGEMENT CONTROL (AMC)","2016-05-18","AM20","Paid Sick Leave",5,"Non-Critical","Full",70,"1617 PEARL ST UNIT 100
BOULDER, CO 80302
(40.019091, -105.274184)"
"FA0003604","SNOOZE","1617 PEARL ST UNIT 100","1617",NULL,"PEARL","ST","100","BOULDER","CO","80302","RESTAURANT 101 TO 200 SEATS","FULL SERVICE FULL MENU","ACTIVE MANAGEMENT CONTROL (AMC)","2017-10-03","AM1","Certified Food Safety Manager",10,"Non-Critical","Full",90,"1617 PEARL ST UNIT 100
BOULDER, CO 80302
(40.019091, -105.274184)"
"FA0003604","SNOOZE","1617 PEARL ST UNIT 100","1617",NULL,"PEARL","ST","100","BOULDER","CO","80302","RESTAURANT 101 TO 200 SEATS","FULL SERVICE FULL MENU","ACTIVE MANAGEMENT CONTROL (AMC)","2017-10-03","AM5","Conduct Daily Food Safety Inspections",10,"Non-Critical","Full",90,"1617 PEARL ST UNIT 100
BOULDER, CO 80302
(40.019091, -105.274184)"
"FA0003604","SNOOZE","1617 PEARL ST UNIT 100","1617",NULL,"PEARL","ST","100","BOULDER","CO","80302","RESTAURANT 101 TO 200 SEATS","FULL SERVICE FULL MENU","ACTIVE MANAGEMENT CONTROL (AMC)","2016-05-18","AM10","Document Handwashing Glove Use",10,"Non-Critical","In",70,"1617 PEARL ST UNIT 100
BOULDER, CO 80302
(40.019091, -105.274184)"
"FA0003604","SNOOZE","1617 PEARL ST UNIT 100","1617",NULL,"PEARL","ST","100","BOULDER","CO","80302","RESTAURANT 101 TO 200 SEATS","FULL SERVICE FULL MENU","ACTIVE MANAGEMENT CONTROL (AMC)","2017-10-03","AM22","Do You Have a Dial Thermometer",0,"Non-Critical","Full",90,"1617 PEARL ST UNIT 100
BOULDER, CO 80302
(40.019091, -105.274184)"
"FA0003604","SNOOZE","1617 PEARL ST UNIT 100","1617",NULL,"PEARL","ST","100","BOULDER","CO","80302","RESTAURANT 101 TO 200 SEATS","FULL SERVICE FULL MENU","ACTIVE MANAGEMENT CONTROL (AMC)","2014-08-12","AM21","Do Your Have a Thermocouple or Digital Thermometer",5,"Non-Critical","Full",80,"1617 PEARL ST UNIT 100
BOULDER, CO 80302
(40.019091, -105.274184)"
"FA0003604","SNOOZE","1617 PEARL ST UNIT 100","1617",NULL,"PEARL","ST","100","BOULDER","CO","80302","RESTAURANT 101 TO 200 SEATS","FULL SERVICE FULL MENU","ACTIVE MANAGEMENT CONTROL (AMC)","2017-10-03","AM20","Paid Sick Leave",5,"Non-Critical","Full",90,"1617 PEARL ST UNIT 100
BOULDER, CO 80302
(40.019091, -105.274184)"
"FA0003604","SNOOZE","1617 PEARL ST UNIT 100","1617",NULL,"PEARL","ST","100","BOULDER","CO","80302","RESTAURANT 101 TO 200 SEATS","FULL SERVICE FULL MENU","ACTIVE MANAGEMENT CONTROL (AMC)","2017-10-03","AM25","Document Thermometer Calibration",5,"Non-Critical","In",90,"1617 PEARL ST UNIT 100
BOULDER, CO 80302
(40.019091, -105.274184)"
"FA0003604","SNOOZE","1617 PEARL ST UNIT 100","1617",NULL,"PEARL","ST","100","BOULDER","CO","80302","RESTAURANT 101 TO 200 SEATS","FULL SERVICE FULL MENU","ACTIVE MANAGEMENT CONTROL (AMC)","2014-08-12","AM22","Do You Have a Dial Thermometer",0,"Non-Critical","In",80,"1617 PEARL ST UNIT 100
BOULDER, CO 80302
(40.019091, -105.274184)"
"FA0003604","SNOOZE","1617 PEARL ST UNIT 100","1617",NULL,"PEARL","ST","100","BOULDER","CO","80302","RESTAURANT 101 TO 200 SEATS","FULL SERVICE FULL MENU","ACTIVE MANAGEMENT CONTROL (AMC)","2017-10-03","AM21","Do Your Have a Thermocouple or Digital Thermometer",5,"Non-Critical","Full",90,"1617 PEARL ST UNIT 100
BOULDER, CO 80302
(40.019091, -105.274184)"
"FA0003604","SNOOZE","1617 PEARL ST UNIT 100","1617",NULL,"PEARL","ST","100","BOULDER","CO","80302","RESTAURANT 101 TO 200 SEATS","FULL SERVICE FULL MENU","ACTIVE MANAGEMENT CONTROL (AMC)","2016-05-18","AM19","Written Employee Illness Policy",5,"Non-Critical","Full",70,"1617 PEARL ST UNIT 100
BOULDER, CO 80302
(40.019091, -105.274184)"
"FA0003604","SNOOZE","1617 PEARL ST UNIT 100","1617",NULL,"PEARL","ST","100","BOULDER","CO","80302","RESTAURANT 101 TO 200 SEATS","FULL SERVICE FULL MENU","ACTIVE MANAGEMENT CONTROL (AMC)","2017-10-03","AM7","Private Corporate Food Safety Inspections",10,"Non-Critical","Full",90,"1617 PEARL ST UNIT 100
BOULDER, CO 80302
(40.019091, -105.274184)"
"FA0003604","SNOOZE","1617 PEARL ST UNIT 100","1617",NULL,"PEARL","ST","100","BOULDER","CO","80302","RESTAURANT 101 TO 200 SEATS","FULL SERVICE FULL MENU","ACTIVE MANAGEMENT CONTROL (AMC)","2016-05-18","AM3","All Staff Receive Formal Food Safety Training",10,"Non-Critical","Full",70,"1617 PEARL ST UNIT 100
BOULDER, CO 80302
(40.019091, -105.274184)"
"FA0003604","SNOOZE","1617 PEARL ST UNIT 100","1617",NULL,"PEARL","ST","100","BOULDER","CO","80302","RESTAURANT 101 TO 200 SEATS","FULL SERVICE FULL MENU","ACTIVE MANAGEMENT CONTROL (AMC)","2014-08-12","AM25","Document Thermometer Calibration",5,"Non-Critical","In",80,"1617 PEARL ST UNIT 100
BOULDER, CO 80302
(40.019091, -105.274184)"
"FA0003604","SNOOZE","1617 PEARL ST UNIT 100","1617",NULL,"PEARL","ST","100","BOULDER","CO","80302","RESTAURANT 101 TO 200 SEATS","FULL SERVICE FULL MENU","ACTIVE MANAGEMENT CONTROL (AMC)","2017-10-03","AM26","Contracts for Preventative Maintenance Full For All 3 Half For 1 OR 2 NO For None",10,"Non-Critical","Full",90,"1617 PEARL ST UNIT 100
BOULDER, CO 80302
(40.019091, -105.274184)"
"FA0003604","SNOOZE","1617 PEARL ST UNIT 100","1617",NULL,"PEARL","ST","100","BOULDER","CO","80302","RESTAURANT 101 TO 200 SEATS","FULL SERVICE FULL MENU","ACTIVE MANAGEMENT CONTROL (AMC)","2017-10-03","AM3","All Staff Receive Formal Food Safety Training",10,"Non-Critical","Full",90,"1617 PEARL ST UNIT 100
BOULDER, CO 80302
(40.019091, -105.274184)"
"FA0003604","SNOOZE","1617 PEARL ST UNIT 100","1617",NULL,"PEARL","ST","100","BOULDER","CO","80302","RESTAURANT 101 TO 200 SEATS","FULL SERVICE FULL MENU","ACTIVE MANAGEMENT CONTROL (AMC)","2016-05-18","AM22","Do You Have a Dial Thermometer",0,"Non-Critical","Full",70,"1617 PEARL ST UNIT 100
BOULDER, CO 80302
(40.019091, -105.274184)"
"FA0003604","SNOOZE","1617 PEARL ST UNIT 100","1617",NULL,"PEARL","ST","100","BOULDER","CO","80302","RESTAURANT 101 TO 200 SEATS","FULL SERVICE FULL MENU","ACTIVE MANAGEMENT CONTROL (AMC)","2016-05-18","AM23","Thin Probe Available",5,"Non-Critical","In",70,"1617 PEARL ST UNIT 100
BOULDER, CO 80302
(40.019091, -105.274184)"
"FA0003604","SNOOZE","1617 PEARL ST UNIT 100","1617",NULL,"PEARL","ST","100","BOULDER","CO","80302","RESTAURANT 101 TO 200 SEATS","FULL SERVICE FULL MENU","ACTIVE MANAGEMENT CONTROL (AMC)","2014-08-12","AM19","Written Employee Illness Policy",5,"Non-Critical","In",80,"1617 PEARL ST UNIT 100
BOULDER, CO 80302
(40.019091, -105.274184)"
"FA0003604","SNOOZE","1617 PEARL ST UNIT 100","1617",NULL,"PEARL","ST","100","BOULDER","CO","80302","RESTAURANT 101 TO 200 SEATS","FULL SERVICE FULL MENU","ACTIVE MANAGEMENT CONTROL (AMC)","2017-10-03","AM18","Document Sanitizer Concentrations and Usage",10,"Non-Critical","Full",90,"1617 PEARL ST UNIT 100
BOULDER, CO 80302
(40.019091, -105.274184)"
"FA0003604","SNOOZE","1617 PEARL ST UNIT 100","1617",NULL,"PEARL","ST","100","BOULDER","CO","80302","RESTAURANT 101 TO 200 SEATS","FULL SERVICE FULL MENU","ACTIVE MANAGEMENT CONTROL (AMC)","2014-08-12","AM24","Document Food Temperatures Frequently Cooling Initial Cook Receiving & Reheating",5,"Non-Critical","Full",80,"1617 PEARL ST UNIT 100
BOULDER, CO 80302
(40.019091, -105.274184)"
"FA0003604","SNOOZE","1617 PEARL ST UNIT 100","1617",NULL,"PEARL","ST","100","BOULDER","CO","80302","RESTAURANT 101 TO 200 SEATS","FULL SERVICE FULL MENU","ACTIVE MANAGEMENT CONTROL (AMC)","2014-08-12","AM3","All Staff Receive Formal Food Safety Training",10,"Non-Critical","Full",80,"1617 PEARL ST UNIT 100
BOULDER, CO 80302
(40.019091, -105.274184)"
"FA0003604","SNOOZE","1617 PEARL ST UNIT 100","1617",NULL,"PEARL","ST","100","BOULDER","CO","80302","RESTAURANT 101 TO 200 SEATS","FULL SERVICE FULL MENU","ACTIVE MANAGEMENT CONTROL (AMC)","2014-08-12","AM23","Thin Probe Available",5,"Non-Critical","Full",80,"1617 PEARL ST UNIT 100
BOULDER, CO 80302
(40.019091, -105.274184)"
"FA0003604","SNOOZE","1617 PEARL ST UNIT 100","1617",NULL,"PEARL","ST","100","BOULDER","CO","80302","RESTAURANT 101 TO 200 SEATS","FULL SERVICE FULL MENU","ACTIVE MANAGEMENT CONTROL (AMC)","2014-08-12","AM1","Certified Food Safety Manager",10,"Non-Critical","Full",80,"1617 PEARL ST UNIT 100
BOULDER, CO 80302
(40.019091, -105.274184)"
"FA0003604","SNOOZE","1617 PEARL ST UNIT 100","1617",NULL,"PEARL","ST","100","BOULDER","CO","80302","RESTAURANT 101 TO 200 SEATS","FULL SERVICE FULL MENU","ACTIVE MANAGEMENT CONTROL (AMC)","2014-08-12","AM10","Document Handwashing Glove Use",10,"Non-Critical","Half",80,"1617 PEARL ST UNIT 100
BOULDER, CO 80302
(40.019091, -105.274184)"
"FA0003604","SNOOZE","1617 PEARL ST UNIT 100","1617",NULL,"PEARL","ST","100","BOULDER","CO","80302","RESTAURANT 101 TO 200 SEATS","FULL SERVICE FULL MENU","ACTIVE MANAGEMENT CONTROL (AMC)","2014-08-12","AM7","Private Corporate Food Safety Inspections",10,"Non-Critical","Full",80,"1617 PEARL ST UNIT 100
BOULDER, CO 80302
(40.019091, -105.274184)"
"FA0003604","SNOOZE","1617 PEARL ST UNIT 100","1617",NULL,"PEARL","ST","100","BOULDER","CO","80302","RESTAURANT 101 TO 200 SEATS","FULL SERVICE FULL MENU","ROUTINE INSPECTION","2017-10-03","05B","Hot and Cold Water Under Pressure",0,"Critical","In",0,"1617 PEARL ST UNIT 100
BOULDER, CO 80302
(40.019091, -105.274184)"
"FA0003604","SNOOZE","1617 PEARL ST UNIT 100","1617",NULL,"PEARL","ST","100","BOULDER","CO","80302","RESTAURANT 101 TO 200 SEATS","FULL SERVICE FULL MENU","ROUTINE INSPECTION","2014-08-12","06B","Accessible",0,"Critical","In",25,"1617 PEARL ST UNIT 100
BOULDER, CO 80302
(40.019091, -105.274184)"
"FA0003604","SNOOZE","1617 PEARL ST UNIT 100","1617",NULL,"PEARL","ST","100","BOULDER","CO","80302","RESTAURANT 101 TO 200 SEATS","FULL SERVICE FULL MENU","ACTIVE MANAGEMENT CONTROL (AMC)","2016-05-18","AM1","Certified Food Safety Manager",10,"Non-Critical","Full",70,"1617 PEARL ST UNIT 100
BOULDER, CO 80302
(40.019091, -105.274184)"
"FA0003604","SNOOZE","1617 PEARL ST UNIT 100","1617",NULL,"PEARL","ST","100","BOULDER","CO","80302","RESTAURANT 101 TO 200 SEATS","FULL SERVICE FULL MENU","ACTIVE MANAGEMENT CONTROL (AMC)","2016-05-18","AM25","Document Thermometer Calibration",5,"Non-Critical","In",70,"1617 PEARL ST UNIT 100
BOULDER, CO 80302
(40.019091, -105.274184)"
"FA0003604","SNOOZE","1617 PEARL ST UNIT 100","1617",NULL,"PEARL","ST","100","BOULDER","CO","80302","RESTAURANT 101 TO 200 SEATS","FULL SERVICE FULL MENU","ROUTINE INSPECTION","2016-05-18","03D","Required Cooking Temperature",0,"Critical","In",10,"1617 PEARL ST UNIT 100
BOULDER, CO 80302
(40.019091, -105.274184)"
"FA0003604","SNOOZE","1617 PEARL ST UNIT 100","1617",NULL,"PEARL","ST","100","BOULDER","CO","80302","RESTAURANT 101 TO 200 SEATS","FULL SERVICE FULL MENU","ACTIVE MANAGEMENT CONTROL (AMC)","2017-10-03","AM10","Document Handwashing Glove Use",10,"Non-Critical","Half",90,"1617 PEARL ST UNIT 100
BOULDER, CO 80302
(40.019091, -105.274184)"
"FA0003604","SNOOZE","1617 PEARL ST UNIT 100","1617",NULL,"PEARL","ST","100","BOULDER","CO","80302","RESTAURANT 101 TO 200 SEATS","FULL SERVICE FULL MENU","ROUTINE INSPECTION","2016-05-18","04C","In Place",10,"Critical","Out",10,"1617 PEARL ST UNIT 100
BOULDER, CO 80302
(40.019091, -105.274184)"
"FA0003604","SNOOZE","1617 PEARL ST UNIT 100","1617",NULL,"PEARL","ST","100","BOULDER","CO","80302","RESTAURANT 101 TO 200 SEATS","FULL SERVICE FULL MENU","ACTIVE MANAGEMENT CONTROL (AMC)","2017-10-03","AM19","Written Employee Illness Policy",5,"Non-Critical","Full",90,"1617 PEARL ST UNIT 100
BOULDER, CO 80302
(40.019091, -105.274184)"
"FA0003604","SNOOZE","1617 PEARL ST UNIT 100","1617",NULL,"PEARL","ST","100","BOULDER","CO","80302","RESTAURANT 101 TO 200 SEATS","FULL SERVICE FULL MENU","ACTIVE MANAGEMENT CONTROL (AMC)","2014-08-12","AM18","Document Sanitizer Concentrations and Usage",10,"Non-Critical","Full",80,"1617 PEARL ST UNIT 100
BOULDER, CO 80302
(40.019091, -105.274184)"
"FA0003604","SNOOZE","1617 PEARL ST UNIT 100","1617",NULL,"PEARL","ST","100","BOULDER","CO","80302","RESTAURANT 101 TO 200 SEATS","FULL SERVICE FULL MENU","ROUTINE INSPECTION","2016-05-18","10B","Non-Food Contact Surfaces Construction",0,"Non-Critical","Not Observed",10,"1617 PEARL ST UNIT 100
BOULDER, CO 80302
(40.019091, -105.274184)"
"FA0003604","SNOOZE","1617 PEARL ST UNIT 100","1617",NULL,"PEARL","ST","100","BOULDER","CO","80302","RESTAURANT 101 TO 200 SEATS","FULL SERVICE FULL MENU","ACTIVE MANAGEMENT CONTROL (AMC)","2017-10-03","AM23","Thin Probe Available",5,"Non-Critical","Full",90,"1617 PEARL ST UNIT 100
BOULDER, CO 80302
(40.019091, -105.274184)"
"FA0003604","SNOOZE","1617 PEARL ST UNIT 100","1617",NULL,"PEARL","ST","100","BOULDER","CO","80302","RESTAURANT 101 TO 200 SEATS","FULL SERVICE FULL MENU","ACTIVE MANAGEMENT CONTROL (AMC)","2014-08-12","AM5","Conduct Daily Food Safety Inspections",10,"Non-Critical","Full",80,"1617 PEARL ST UNIT 100
BOULDER, CO 80302
(40.019091, -105.274184)"
"FA0003604","SNOOZE","1617 PEARL ST UNIT 100","1617",NULL,"PEARL","ST","100","BOULDER","CO","80302","RESTAURANT 101 TO 200 SEATS","FULL SERVICE FULL MENU","ACTIVE MANAGEMENT CONTROL (AMC)","2016-05-18","AM24","Document Food Temperatures Frequently Cooling Initial Cook Receiving & Reheating",5,"Non-Critical","Full",70,"1617 PEARL ST UNIT 100
BOULDER, CO 80302
(40.019091, -105.274184)"
"FA0003604","SNOOZE","1617 PEARL ST UNIT 100","1617",NULL,"PEARL","ST","100","BOULDER","CO","80302","RESTAURANT 101 TO 200 SEATS","FULL SERVICE FULL MENU","ROUTINE INSPECTION","2014-08-12","07B","Pesticide Application",0,"Critical","In",25,"1617 PEARL ST UNIT 100
BOULDER, CO 80302
(40.019091, -105.274184)"
"FA0003604","SNOOZE","1617 PEARL ST UNIT 100","1617",NULL,"PEARL","ST","100","BOULDER","CO","80302","RESTAURANT 101 TO 200 SEATS","FULL SERVICE FULL MENU","ROUTINE INSPECTION","2016-05-18","02A","Personnel With Infections Restricted",0,"Critical","In",10,"1617 PEARL ST UNIT 100
BOULDER, CO 80302
(40.019091, -105.274184)"
"FA0003604","SNOOZE","1617 PEARL ST UNIT 100","1617",NULL,"PEARL","ST","100","BOULDER","CO","80302","RESTAURANT 101 TO 200 SEATS","FULL SERVICE FULL MENU","ROUTINE INSPECTION","2017-10-03","08B","Properly Labeled",0,"Critical","In",0,"1617 PEARL ST UNIT 100
BOULDER, CO 80302
(40.019091, -105.274184)"
"FA0003604","SNOOZE","1617 PEARL ST UNIT 100","1617",NULL,"PEARL","ST","100","BOULDER","CO","80302","RESTAURANT 101 TO 200 SEATS","FULL SERVICE FULL MENU","ROUTINE INSPECTION","2017-10-03","14E","Ventilation",0,"Non-Critical","Not Observed",0,"1617 PEARL ST UNIT 100
BOULDER, CO 80302
(40.019091, -105.274184)"
"FA0003604","SNOOZE","1617 PEARL ST UNIT 100","1617",NULL,"PEARL","ST","100","BOULDER","CO","80302","RESTAURANT 101 TO 200 SEATS","FULL SERVICE FULL MENU","ROUTINE INSPECTION","2017-10-03","06B","Accessible",0,"Critical","In",0,"1617 PEARL ST UNIT 100
BOULDER, CO 80302
(40.019091, -105.274184)"
"FA0003604","SNOOZE","1617 PEARL ST UNIT 100","1617",NULL,"PEARL","ST","100","BOULDER","CO","80302","RESTAURANT 101 TO 200 SEATS","FULL SERVICE FULL MENU","ROUTINE INSPECTION","2014-08-12","14H","Separation of Living Laundry",0,"Non-Critical","Not Observed",25,"1617 PEARL ST UNIT 100
BOULDER, CO 80302
(40.019091, -105.274184)"
"FA0003604","SNOOZE","1617 PEARL ST UNIT 100","1617",NULL,"PEARL","ST","100","BOULDER","CO","80302","RESTAURANT 101 TO 200 SEATS","FULL SERVICE FULL MENU","ROUTINE INSPECTION","2016-05-18","13A","Equipment Utensils Provided Used, Stored",0,"Non-Critical","Not Observed",10,"1617 PEARL ST UNIT 100
BOULDER, CO 80302
(40.019091, -105.274184)"
"FA0003604","SNOOZE","1617 PEARL ST UNIT 100","1617",NULL,"PEARL","ST","100","BOULDER","CO","80302","RESTAURANT 101 TO 200 SEATS","FULL SERVICE FULL MENU","ROUTINE INSPECTION","2016-05-18","15B","Linen Properly Stored",0,"Non-Critical","Not Observed",10,"1617 PEARL ST UNIT 100
BOULDER, CO 80302
(40.019091, -105.274184)"
"FA0003604","SNOOZE","1617 PEARL ST UNIT 100","1617",NULL,"PEARL","ST","100","BOULDER","CO","80302","RESTAURANT 101 TO 200 SEATS","FULL SERVICE FULL MENU","ROUTINE INSPECTION","2014-08-12","01F","Consumer Advisory",0,"Critical","In",25,"1617 PEARL ST UNIT 100
BOULDER, CO 80302
(40.019091, -105.274184)"
"FA0003604","SNOOZE","1617 PEARL ST UNIT 100","1617",NULL,"PEARL","ST","100","BOULDER","CO","80302","RESTAURANT 101 TO 200 SEATS","FULL SERVICE FULL MENU","ROUTINE INSPECTION","2017-10-03","06C","Soap and Drying Devices",0,"Critical","In",0,"1617 PEARL ST UNIT 100
BOULDER, CO 80302
(40.019091, -105.274184)"
"FA0003604","SNOOZE","1617 PEARL ST UNIT 100","1617",NULL,"PEARL","ST","100","BOULDER","CO","80302","RESTAURANT 101 TO 200 SEATS","FULL SERVICE FULL MENU","ROUTINE INSPECTION","2017-10-03","11C","Chemical Test Kits Provided Accessible",0,"Non-Critical","Not Observed",0,"1617 PEARL ST UNIT 100
BOULDER, CO 80302
(40.019091, -105.274184)"
"FA0003604","SNOOZE","1617 PEARL ST UNIT 100","1617",NULL,"PEARL","ST","100","BOULDER","CO","80302","RESTAURANT 101 TO 200 SEATS","FULL SERVICE FULL MENU","ROUTINE INSPECTION","2016-05-18","06B","Accessible",0,"Critical","In",10,"1617 PEARL ST UNIT 100
BOULDER, CO 80302
(40.019091, -105.274184)"
"FA0003604","SNOOZE","1617 PEARL ST UNIT 100","1617",NULL,"PEARL","ST","100","BOULDER","CO","80302","RESTAURANT 101 TO 200 SEATS","FULL SERVICE FULL MENU","ROUTINE INSPECTION","2017-10-03","12C","Dishwashing Operations",0,"Non-Critical","Not Observed",0,"1617 PEARL ST UNIT 100
BOULDER, CO 80302
(40.019091, -105.274184)"
"FA0003604","SNOOZE","1617 PEARL ST UNIT 100","1617",NULL,"PEARL","ST","100","BOULDER","CO","80302","RESTAURANT 101 TO 200 SEATS","FULL SERVICE FULL MENU","ROUTINE INSPECTION","2016-05-18","14G","Premises Maintained",0,"Non-Critical","Not Observed",10,"1617 PEARL ST UNIT 100
BOULDER, CO 80302
(40.019091, -105.274184)"
"FA0003604","SNOOZE","1617 PEARL ST UNIT 100","1617",NULL,"PEARL","ST","100","BOULDER","CO","80302","RESTAURANT 101 TO 200 SEATS","FULL SERVICE FULL MENU","ROUTINE INSPECTION","2014-08-12","05B","Hot and Cold Water Under Pressure",0,"Critical","In",25,"1617 PEARL ST UNIT 100
BOULDER, CO 80302
(40.019091, -105.274184)"
"FA0003604","SNOOZE","1617 PEARL ST UNIT 100","1617",NULL,"PEARL","ST","100","BOULDER","CO","80302","RESTAURANT 101 TO 200 SEATS","FULL SERVICE FULL MENU","ROUTINE INSPECTION","2017-10-03","14B","Garbage and Refuse",0,"Non-Critical","Not Observed",0,"1617 PEARL ST UNIT 100
BOULDER, CO 80302
(40.019091, -105.274184)"
"FA0003604","SNOOZE","1617 PEARL ST UNIT 100","1617",NULL,"PEARL","ST","100","BOULDER","CO","80302","RESTAURANT 101 TO 200 SEATS","FULL SERVICE FULL MENU","ROUTINE INSPECTION","2014-08-12","14I","Physical Facilities Adequate Toilet Facilities",0,"Non-Critical","Not Observed",25,"1617 PEARL ST UNIT 100
BOULDER, CO 80302
(40.019091, -105.274184)"
"FA0003604","SNOOZE","1617 PEARL ST UNIT 100","1617",NULL,"PEARL","ST","100","BOULDER","CO","80302","RESTAURANT 101 TO 200 SEATS","FULL SERVICE FULL MENU","ROUTINE INSPECTION","2014-08-12","11C","Chemical Test Kits Provided Accessible",0,"Non-Critical","Not Observed",25,"1617 PEARL ST UNIT 100
BOULDER, CO 80302
(40.019091, -105.274184)"
"FA0003604","SNOOZE","1617 PEARL ST UNIT 100","1617",NULL,"PEARL","ST","100","BOULDER","CO","80302","RESTAURANT 101 TO 200 SEATS","FULL SERVICE FULL MENU","ROUTINE INSPECTION","2017-10-03","03B","Rapidly Reheat to 165 Degrees or Greater",0,"Critical","Not Observed",0,"1617 PEARL ST UNIT 100
BOULDER, CO 80302
(40.019091, -105.274184)"
"FA0003604","SNOOZE","1617 PEARL ST UNIT 100","1617",NULL,"PEARL","ST","100","BOULDER","CO","80302","RESTAURANT 101 TO 200 SEATS","FULL SERVICE FULL MENU","ROUTINE INSPECTION","2014-08-12","09A","Original Container Properly Labeled",0,"Non-Critical","Not Observed",25,"1617 PEARL ST UNIT 100
BOULDER, CO 80302
(40.019091, -105.274184)"
"FA0003604","SNOOZE","1617 PEARL ST UNIT 100","1617",NULL,"PEARL","ST","100","BOULDER","CO","80302","RESTAURANT 101 TO 200 SEATS","FULL SERVICE FULL MENU","ROUTINE INSPECTION","2017-10-03","10B","Non-Food Contact Surfaces Construction",0,"Non-Critical","Not Observed",0,"1617 PEARL ST UNIT 100
BOULDER, CO 80302
(40.019091, -105.274184)"
"FA0003604","SNOOZE","1617 PEARL ST UNIT 100","1617",NULL,"PEARL","ST","100","BOULDER","CO","80302","RESTAURANT 101 TO 200 SEATS","FULL SERVICE FULL MENU","ROUTINE INSPECTION","2017-10-03","05A","Safe Water Source",0,"Critical","In",0,"1617 PEARL ST UNIT 100
BOULDER, CO 80302
(40.019091, -105.274184)"
"FA0003604","SNOOZE","1617 PEARL ST UNIT 100","1617",NULL,"PEARL","ST","100","BOULDER","CO","80302","RESTAURANT 101 TO 200 SEATS","FULL SERVICE FULL MENU","ROUTINE INSPECTION","2017-10-03","13C","No Reuse of Single Service Articles",0,"Non-Critical","Not Observed",0,"1617 PEARL ST UNIT 100
BOULDER, CO 80302
(40.019091, -105.274184)"
"FA0003604","SNOOZE","1617 PEARL ST UNIT 100","1617",NULL,"PEARL","ST","100","BOULDER","CO","80302","RESTAURANT 101 TO 200 SEATS","FULL SERVICE FULL MENU","ROUTINE INSPECTION","2014-08-12","14C","Floors Walls Ceilings",0,"Non-Critical","Not Observed",25,"1617 PEARL ST UNIT 100
BOULDER, CO 80302
(40.019091, -105.274184)"
"FA0003604","SNOOZE","1617 PEARL ST UNIT 100","1617",NULL,"PEARL","ST","100","BOULDER","CO","80302","RESTAURANT 101 TO 200 SEATS","FULL SERVICE FULL MENU","ROUTINE INSPECTION","2017-10-03","11A","Refrigeration Units With Accurate Thermometers",0,"Non-Critical","Not Observed",0,"1617 PEARL ST UNIT 100
BOULDER, CO 80302
(40.019091, -105.274184)"
"FA0003604","SNOOZE","1617 PEARL ST UNIT 100","1617",NULL,"PEARL","ST","100","BOULDER","CO","80302","RESTAURANT 101 TO 200 SEATS","FULL SERVICE FULL MENU","ROUTINE INSPECTION","2017-10-03","10A","Food-Contact Surfaces Construction",0,"Non-Critical","Not Observed",0,"1617 PEARL ST UNIT 100
BOULDER, CO 80302
(40.019091, -105.274184)"
"FA0003604","SNOOZE","1617 PEARL ST UNIT 100","1617",NULL,"PEARL","ST","100","BOULDER","CO","80302","RESTAURANT 101 TO 200 SEATS","FULL SERVICE FULL MENU","ROUTINE INSPECTION","2014-08-12","04C","In Place",0,"Critical","Not Observed",25,"1617 PEARL ST UNIT 100
BOULDER, CO 80302
(40.019091, -105.274184)"
"FA0003604","SNOOZE","1617 PEARL ST UNIT 100","1617",NULL,"PEARL","ST","100","BOULDER","CO","80302","RESTAURANT 101 TO 200 SEATS","FULL SERVICE FULL MENU","ROUTINE INSPECTION","2017-10-03","03F","Food Thermometer",0,"Critical","In",0,"1617 PEARL ST UNIT 100
BOULDER, CO 80302
(40.019091, -105.274184)"
"FA0003604","SNOOZE","1617 PEARL ST UNIT 100","1617",NULL,"PEARL","ST","100","BOULDER","CO","80302","RESTAURANT 101 TO 200 SEATS","FULL SERVICE FULL MENU","ROUTINE INSPECTION","2016-05-18","09A","Original Container Properly Labeled",0,"Non-Critical","Not Observed",10,"1617 PEARL ST UNIT 100
BOULDER, CO 80302
(40.019091, -105.274184)"
"FA0003604","SNOOZE","1617 PEARL ST UNIT 100","1617",NULL,"PEARL","ST","100","BOULDER","CO","80302","RESTAURANT 101 TO 200 SEATS","FULL SERVICE FULL MENU","ROUTINE INSPECTION","2017-10-03","10C","Dishwashing Facilities",0,"Non-Critical","Not Observed",0,"1617 PEARL ST UNIT 100
BOULDER, CO 80302
(40.019091, -105.274184)"
"FA0003604","SNOOZE","1617 PEARL ST UNIT 100","1617",NULL,"PEARL","ST","100","BOULDER","CO","80302","RESTAURANT 101 TO 200 SEATS","FULL SERVICE FULL MENU","ROUTINE INSPECTION","2017-10-03","09A","Original Container Properly Labeled",0,"Non-Critical","Not Observed",0,"1617 PEARL ST UNIT 100
BOULDER, CO 80302
(40.019091, -105.274184)"
"FA0003604","SNOOZE","1617 PEARL ST UNIT 100","1617",NULL,"PEARL","ST","100","BOULDER","CO","80302","RESTAURANT 101 TO 200 SEATS","FULL SERVICE FULL MENU","ROUTINE INSPECTION","2014-08-12","12A","Food Contact Surfaces Cleaning",0,"Non-Critical","Not Observed",25,"1617 PEARL ST UNIT 100
BOULDER, CO 80302
(40.019091, -105.274184)"
"FA0003604","SNOOZE","1617 PEARL ST UNIT 100","1617",NULL,"PEARL","ST","100","BOULDER","CO","80302","RESTAURANT 101 TO 200 SEATS","FULL SERVICE FULL MENU","ROUTINE INSPECTION","2017-10-03","02G","No Bare Hand Contact",0,"Critical","In",0,"1617 PEARL ST UNIT 100
BOULDER, CO 80302
(40.019091, -105.274184)"
"FA0003604","SNOOZE","1617 PEARL ST UNIT 100","1617",NULL,"PEARL","ST","100","BOULDER","CO","80302","RESTAURANT 101 TO 200 SEATS","FULL SERVICE FULL MENU","ROUTINE INSPECTION","2016-05-18","14D","Lighting",0,"Non-Critical","Not Observed",10,"1617 PEARL ST UNIT 100
BOULDER, CO 80302
(40.019091, -105.274184)"
"FA0003604","SNOOZE","1617 PEARL ST UNIT 100","1617",NULL,"PEARL","ST","100","BOULDER","CO","80302","RESTAURANT 101 TO 200 SEATS","FULL SERVICE FULL MENU","ROUTINE INSPECTION","2017-10-03","09B","Food Protected from Contamination",0,"Non-Critical","Not Observed",0,"1617 PEARL ST UNIT 100
BOULDER, CO 80302
(40.019091, -105.274184)"
"FA0003604","SNOOZE","1617 PEARL ST UNIT 100","1617",NULL,"PEARL","ST","100","BOULDER","CO","80302","RESTAURANT 101 TO 200 SEATS","FULL SERVICE FULL MENU","ROUTINE INSPECTION","2014-08-12","04A","Manual",0,"Critical","In",25,"1617 PEARL ST UNIT 100
BOULDER, CO 80302
(40.019091, -105.274184)"
"FA0003604","SNOOZE","1617 PEARL ST UNIT 100","1617",NULL,"PEARL","ST","100","BOULDER","CO","80302","RESTAURANT 101 TO 200 SEATS","FULL SERVICE FULL MENU","ROUTINE INSPECTION","2016-05-18","03B","Rapidly Reheat to 165 Degrees or Greater",0,"Critical","In",10,"1617 PEARL ST UNIT 100
BOULDER, CO 80302
(40.019091, -105.274184)"
"FA0003604","SNOOZE","1617 PEARL ST UNIT 100","1617",NULL,"PEARL","ST","100","BOULDER","CO","80302","RESTAURANT 101 TO 200 SEATS","FULL SERVICE FULL MENU","ROUTINE INSPECTION","2014-08-12","07C","Animals Prohibited",0,"Critical","In",25,"1617 PEARL ST UNIT 100
BOULDER, CO 80302
(40.019091, -105.274184)"
"FA0003604","SNOOZE","1617 PEARL ST UNIT 100","1617",NULL,"PEARL","ST","100","BOULDER","CO","80302","RESTAURANT 101 TO 200 SEATS","FULL SERVICE FULL MENU","ROUTINE INSPECTION","2017-10-03","08C","Properly Used",0,"Critical","In",0,"1617 PEARL ST UNIT 100
BOULDER, CO 80302
(40.019091, -105.274184)"
"FA0003604","SNOOZE","1617 PEARL ST UNIT 100","1617",NULL,"PEARL","ST","100","BOULDER","CO","80302","RESTAURANT 101 TO 200 SEATS","FULL SERVICE FULL MENU","ROUTINE INSPECTION","2014-08-12","02D","Hygienic Practices",0,"Critical","In",25,"1617 PEARL ST UNIT 100
BOULDER, CO 80302
(40.019091, -105.274184)"
"FA0003604","SNOOZE","1617 PEARL ST UNIT 100","1617",NULL,"PEARL","ST","100","BOULDER","CO","80302","RESTAURANT 101 TO 200 SEATS","FULL SERVICE FULL MENU","ROUTINE INSPECTION","2014-08-12","15A","Personnel: Clean Clothes Hair Restraints Authorizat",0,"Non-Critical","Not Observed",25,"1617 PEARL ST UNIT 100
BOULDER, CO 80302
(40.019091, -105.274184)"
"FA0003604","SNOOZE","1617 PEARL ST UNIT 100","1617",NULL,"PEARL","ST","100","BOULDER","CO","80302","RESTAURANT 101 TO 200 SEATS","FULL SERVICE FULL MENU","ROUTINE INSPECTION","2016-05-18","01D","HACCP Plan",0,"Critical","Not Applicable",10,"1617 PEARL ST UNIT 100
BOULDER, CO 80302
(40.019091, -105.274184)"
"FA0003604","SNOOZE","1617 PEARL ST UNIT 100","1617",NULL,"PEARL","ST","100","BOULDER","CO","80302","RESTAURANT 101 TO 200 SEATS","FULL SERVICE FULL MENU","ROUTINE INSPECTION","2016-05-18","09B","Food Protected from Contamination",0,"Non-Critical","Not Observed",10,"1617 PEARL ST UNIT 100
BOULDER, CO 80302
(40.019091, -105.274184)"
"FA0003604","SNOOZE","1617 PEARL ST UNIT 100","1617",NULL,"PEARL","ST","100","BOULDER","CO","80302","RESTAURANT 101 TO 200 SEATS","FULL SERVICE FULL MENU","ROUTINE INSPECTION","2016-05-18","12C","Dishwashing Operations",0,"Non-Critical","Not Observed",10,"1617 PEARL ST UNIT 100
BOULDER, CO 80302
(40.019091, -105.274184)"
"FA0003604","SNOOZE","1617 PEARL ST UNIT 100","1617",NULL,"PEARL","ST","100","BOULDER","CO","80302","RESTAURANT 101 TO 200 SEATS","FULL SERVICE FULL MENU","ROUTINE INSPECTION","2016-05-18","07B","Pesticide Application",0,"Critical","Not Observed",10,"1617 PEARL ST UNIT 100
BOULDER, CO 80302
(40.019091, -105.274184)"
"FA0003604","SNOOZE","1617 PEARL ST UNIT 100","1617",NULL,"PEARL","ST","100","BOULDER","CO","80302","RESTAURANT 101 TO 200 SEATS","FULL SERVICE FULL MENU","ROUTINE INSPECTION","2016-05-18","14C","Floors Walls Ceilings",0,"Non-Critical","Not Observed",10,"1617 PEARL ST UNIT 100
BOULDER, CO 80302
(40.019091, -105.274184)"
"FA0003604","SNOOZE","1617 PEARL ST UNIT 100","1617",NULL,"PEARL","ST","100","BOULDER","CO","80302","RESTAURANT 101 TO 200 SEATS","FULL SERVICE FULL MENU","ROUTINE INSPECTION","2016-05-18","05B","Hot and Cold Water Under Pressure",0,"Critical","In",10,"1617 PEARL ST UNIT 100
BOULDER, CO 80302
(40.019091, -105.274184)"
"FA0003604","SNOOZE","1617 PEARL ST UNIT 100","1617",NULL,"PEARL","ST","100","BOULDER","CO","80302","RESTAURANT 101 TO 200 SEATS","FULL SERVICE FULL MENU","ROUTINE INSPECTION","2017-10-03","14D","Lighting",0,"Non-Critical","Not Observed",0,"1617 PEARL ST UNIT 100
BOULDER, CO 80302
(40.019091, -105.274184)"
"FA0003604","SNOOZE","1617 PEARL ST UNIT 100","1617",NULL,"PEARL","ST","100","BOULDER","CO","80302","RESTAURANT 101 TO 200 SEATS","FULL SERVICE FULL MENU","ROUTINE INSPECTION","2016-05-18","03F","Food Thermometer",0,"Critical","In",10,"1617 PEARL ST UNIT 100
BOULDER, CO 80302
(40.019091, -105.274184)"
"FA0003604","SNOOZE","1617 PEARL ST UNIT 100","1617",NULL,"PEARL","ST","100","BOULDER","CO","80302","RESTAURANT 101 TO 200 SEATS","FULL SERVICE FULL MENU","ROUTINE INSPECTION","2016-05-18","02B","Wounds Properly Covered",0,"Critical","Not Observed",10,"1617 PEARL ST UNIT 100
BOULDER, CO 80302
(40.019091, -105.274184)"
"FA0003604","SNOOZE","1617 PEARL ST UNIT 100","1617",NULL,"PEARL","ST","100","BOULDER","CO","80302","RESTAURANT 101 TO 200 SEATS","FULL SERVICE FULL MENU","ROUTINE INSPECTION","2017-10-03","08A","Properly Stored",0,"Critical","In",0,"1617 PEARL ST UNIT 100
BOULDER, CO 80302
(40.019091, -105.274184)"
"FA0003604","SNOOZE","1617 PEARL ST UNIT 100","1617",NULL,"PEARL","ST","100","BOULDER","CO","80302","RESTAURANT 101 TO 200 SEATS","FULL SERVICE FULL MENU","ROUTINE INSPECTION","2014-08-12","02A","Personnel With Infections Restricted",0,"Critical","In",25,"1617 PEARL ST UNIT 100
BOULDER, CO 80302
(40.019091, -105.274184)"
"FA0003604","SNOOZE","1617 PEARL ST UNIT 100","1617",NULL,"PEARL","ST","100","BOULDER","CO","80302","RESTAURANT 101 TO 200 SEATS","FULL SERVICE FULL MENU","ROUTINE INSPECTION","2014-08-12","03B","Rapidly Reheat to 165 Degrees or Greater",0,"Critical","In",25,"1617 PEARL ST UNIT 100
BOULDER, CO 80302
(40.019091, -105.274184)"
"FA0003604","SNOOZE","1617 PEARL ST UNIT 100","1617",NULL,"PEARL","ST","100","BOULDER","CO","80302","RESTAURANT 101 TO 200 SEATS","FULL SERVICE FULL MENU","ROUTINE INSPECTION","2017-10-03","03C","Hot Hold at 135 Degrees Farenheit or Greater",0,"Critical","In",0,"1617 PEARL ST UNIT 100
BOULDER, CO 80302
(40.019091, -105.274184)"
"FA0003604","SNOOZE","1617 PEARL ST UNIT 100","1617",NULL,"PEARL","ST","100","BOULDER","CO","80302","RESTAURANT 101 TO 200 SEATS","FULL SERVICE FULL MENU","ROUTINE INSPECTION","2014-08-12","05D","Sewage Disposal",0,"Critical","In",25,"1617 PEARL ST UNIT 100
BOULDER, CO 80302
(40.019091, -105.274184)"
"FA0003604","SNOOZE","1617 PEARL ST UNIT 100","1617",NULL,"PEARL","ST","100","BOULDER","CO","80302","RESTAURANT 101 TO 200 SEATS","FULL SERVICE FULL MENU","ROUTINE INSPECTION","2016-05-18","06A","Adequate Number Location Design",0,"Critical","In",10,"1617 PEARL ST UNIT 100
BOULDER, CO 80302
(40.019091, -105.274184)"
"FA0003604","SNOOZE","1617 PEARL ST UNIT 100","1617",NULL,"PEARL","ST","100","BOULDER","CO","80302","RESTAURANT 101 TO 200 SEATS","FULL SERVICE FULL MENU","ROUTINE INSPECTION","2016-05-18","10A","Food-Contact Surfaces Construction",0,"Non-Critical","Not Observed",10,"1617 PEARL ST UNIT 100
BOULDER, CO 80302
(40.019091, -105.274184)"
"FA0003604","SNOOZE","1617 PEARL ST UNIT 100","1617",NULL,"PEARL","ST","100","BOULDER","CO","80302","RESTAURANT 101 TO 200 SEATS","FULL SERVICE FULL MENU","ROUTINE INSPECTION","2014-08-12","02F","Training Needed",15,"Critical","Out",25,"1617 PEARL ST UNIT 100
BOULDER, CO 80302
(40.019091, -105.274184)"
"FA0003604","SNOOZE","1617 PEARL ST UNIT 100","1617",NULL,"PEARL","ST","100","BOULDER","CO","80302","RESTAURANT 101 TO 200 SEATS","FULL SERVICE FULL MENU","ROUTINE INSPECTION","2016-05-18","11A","Refrigeration Units With Accurate Thermometers",0,"Non-Critical","Not Observed",10,"1617 PEARL ST UNIT 100
BOULDER, CO 80302
(40.019091, -105.274184)"
"FA0003604","SNOOZE","1617 PEARL ST UNIT 100","1617",NULL,"PEARL","ST","100","BOULDER","CO","80302","RESTAURANT 101 TO 200 SEATS","FULL SERVICE FULL MENU","ROUTINE INSPECTION","2016-05-18","03A","Cooling Methods",0,"Critical","In",10,"1617 PEARL ST UNIT 100
BOULDER, CO 80302
(40.019091, -105.274184)"
"FA0003604","SNOOZE","1617 PEARL ST UNIT 100","1617",NULL,"PEARL","ST","100","BOULDER","CO","80302","RESTAURANT 101 TO 200 SEATS","FULL SERVICE FULL MENU","ROUTINE INSPECTION","2014-08-12","02G","No Bare Hand Contact",0,"Critical","In",25,"1617 PEARL ST UNIT 100
BOULDER, CO 80302
(40.019091, -105.274184)"
"FA0003604","SNOOZE","1617 PEARL ST UNIT 100","1617",NULL,"PEARL","ST","100","BOULDER","CO","80302","RESTAURANT 101 TO 200 SEATS","FULL SERVICE FULL MENU","ROUTINE INSPECTION","2016-05-18","02D","Hygienic Practices",0,"Critical","In",10,"1617 PEARL ST UNIT 100
BOULDER, CO 80302
(40.019091, -105.274184)"
"FA0003604","SNOOZE","1617 PEARL ST UNIT 100","1617",NULL,"PEARL","ST","100","BOULDER","CO","80302","RESTAURANT 101 TO 200 SEATS","FULL SERVICE FULL MENU","ROUTINE INSPECTION","2017-10-03","02D","Hygienic Practices",0,"Critical","In",0,"1617 PEARL ST UNIT 100
BOULDER, CO 80302
(40.019091, -105.274184)"
"FA0003604","SNOOZE","1617 PEARL ST UNIT 100","1617",NULL,"PEARL","ST","100","BOULDER","CO","80302","RESTAURANT 101 TO 200 SEATS","FULL SERVICE FULL MENU","ROUTINE INSPECTION","2014-08-12","13A","Equipment Utensils Provided Used, Stored",0,"Non-Critical","Not Observed",25,"1617 PEARL ST UNIT 100
BOULDER, CO 80302
(40.019091, -105.274184)"
"FA0003604","SNOOZE","1617 PEARL ST UNIT 100","1617",NULL,"PEARL","ST","100","BOULDER","CO","80302","RESTAURANT 101 TO 200 SEATS","FULL SERVICE FULL MENU","ROUTINE INSPECTION","2014-08-12","01D","HACCP Plan",0,"Critical","Not Applicable",25,"1617 PEARL ST UNIT 100
BOULDER, CO 80302
(40.019091, -105.274184)"
"FA0003604","SNOOZE","1617 PEARL ST UNIT 100","1617",NULL,"PEARL","ST","100","BOULDER","CO","80302","RESTAURANT 101 TO 200 SEATS","FULL SERVICE FULL MENU","ROUTINE INSPECTION","2016-05-18","08B","Properly Labeled",0,"Critical","In",10,"1617 PEARL ST UNIT 100
BOULDER, CO 80302
(40.019091, -105.274184)"
"FA0003604","SNOOZE","1617 PEARL ST UNIT 100","1617",NULL,"PEARL","ST","100","BOULDER","CO","80302","RESTAURANT 101 TO 200 SEATS","FULL SERVICE FULL MENU","ROUTINE INSPECTION","2014-08-12","02E","Smoking Eating Drinking",0,"Critical","In",25,"1617 PEARL ST UNIT 100
BOULDER, CO 80302
(40.019091, -105.274184)"
"FA0003604","SNOOZE","1617 PEARL ST UNIT 100","1617",NULL,"PEARL","ST","100","BOULDER","CO","80302","RESTAURANT 101 TO 200 SEATS","FULL SERVICE FULL MENU","ROUTINE INSPECTION","2017-10-03","15A","Personnel: Clean Clothes Hair Restraints Authorizat",0,"Non-Critical","Not Observed",0,"1617 PEARL ST UNIT 100
BOULDER, CO 80302
(40.019091, -105.274184)"
"FA0003604","SNOOZE","1617 PEARL ST UNIT 100","1617",NULL,"PEARL","ST","100","BOULDER","CO","80302","RESTAURANT 101 TO 200 SEATS","FULL SERVICE FULL MENU","ROUTINE INSPECTION","2016-05-18","04A","Manual",0,"Critical","In",10,"1617 PEARL ST UNIT 100
BOULDER, CO 80302
(40.019091, -105.274184)"
"FA0003604","SNOOZE","1617 PEARL ST UNIT 100","1617",NULL,"PEARL","ST","100","BOULDER","CO","80302","RESTAURANT 101 TO 200 SEATS","FULL SERVICE FULL MENU","ROUTINE INSPECTION","2016-05-18","04B","Mechanical",0,"Critical","In",10,"1617 PEARL ST UNIT 100
BOULDER, CO 80302
(40.019091, -105.274184)"
"FA0003604","SNOOZE","1617 PEARL ST UNIT 100","1617",NULL,"PEARL","ST","100","BOULDER","CO","80302","RESTAURANT 101 TO 200 SEATS","FULL SERVICE FULL MENU","ROUTINE INSPECTION","2017-10-03","14F","Locker Rooms",0,"Non-Critical","Not Observed",0,"1617 PEARL ST UNIT 100
BOULDER, CO 80302
(40.019091, -105.274184)"
"FA0003604","SNOOZE","1617 PEARL ST UNIT 100","1617",NULL,"PEARL","ST","100","BOULDER","CO","80302","RESTAURANT 101 TO 200 SEATS","FULL SERVICE FULL MENU","ROUTINE INSPECTION","2017-10-03","06A","Adequate Number Location Design",0,"Critical","In",0,"1617 PEARL ST UNIT 100
BOULDER, CO 80302
(40.019091, -105.274184)"
"FA0003604","SNOOZE","1617 PEARL ST UNIT 100","1617",NULL,"PEARL","ST","100","BOULDER","CO","80302","RESTAURANT 101 TO 200 SEATS","FULL SERVICE FULL MENU","ROUTINE INSPECTION","2014-08-12","14B","Garbage and Refuse",0,"Non-Critical","Not Observed",25,"1617 PEARL ST UNIT 100
BOULDER, CO 80302
(40.019091, -105.274184)"
"FA0003604","SNOOZE","1617 PEARL ST UNIT 100","1617",NULL,"PEARL","ST","100","BOULDER","CO","80302","RESTAURANT 101 TO 200 SEATS","FULL SERVICE FULL MENU","ROUTINE INSPECTION","2016-05-18","03E","Cold Hold at 41 Degrees or Less",0,"Critical","In",10,"1617 PEARL ST UNIT 100
BOULDER, CO 80302
(40.019091, -105.274184)"
"FA0003604","SNOOZE","1617 PEARL ST UNIT 100","1617",NULL,"PEARL","ST","100","BOULDER","CO","80302","RESTAURANT 101 TO 200 SEATS","FULL SERVICE FULL MENU","ROUTINE INSPECTION","2014-08-12","10B","Non-Food Contact Surfaces Construction",0,"Non-Critical","Not Observed",25,"1617 PEARL ST UNIT 100
BOULDER, CO 80302
(40.019091, -105.274184)"
"FA0003604","SNOOZE","1617 PEARL ST UNIT 100","1617",NULL,"PEARL","ST","100","BOULDER","CO","80302","RESTAURANT 101 TO 200 SEATS","FULL SERVICE FULL MENU","ROUTINE INSPECTION","2014-08-12","02C","Hands Washed As Needed",0,"Critical","In",25,"1617 PEARL ST UNIT 100
BOULDER, CO 80302
(40.019091, -105.274184)"
"FA0003604","SNOOZE","1617 PEARL ST UNIT 100","1617",NULL,"PEARL","ST","100","BOULDER","CO","80302","RESTAURANT 101 TO 200 SEATS","FULL SERVICE FULL MENU","ROUTINE INSPECTION","2014-08-12","11A","Refrigeration Units With Accurate Thermometers",0,"Non-Critical","Not Observed",25,"1617 PEARL ST UNIT 100
BOULDER, CO 80302
(40.019091, -105.274184)"
"FA0003604","SNOOZE","1617 PEARL ST UNIT 100","1617",NULL,"PEARL","ST","100","BOULDER","CO","80302","RESTAURANT 101 TO 200 SEATS","FULL SERVICE FULL MENU","ROUTINE INSPECTION","2017-10-03","03A","Cooling Methods",0,"Critical","In",0,"1617 PEARL ST UNIT 100
BOULDER, CO 80302
(40.019091, -105.274184)"
"FA0003604","SNOOZE","1617 PEARL ST UNIT 100","1617",NULL,"PEARL","ST","100","BOULDER","CO","80302","RESTAURANT 101 TO 200 SEATS","FULL SERVICE FULL MENU","ROUTINE INSPECTION","2014-08-12","03E","Cold Hold at 41 Degrees or Less",0,"Critical","In",25,"1617 PEARL ST UNIT 100
BOULDER, CO 80302
(40.019091, -105.274184)"
"FA0003604","SNOOZE","1617 PEARL ST UNIT 100","1617",NULL,"PEARL","ST","100","BOULDER","CO","80302","RESTAURANT 101 TO 200 SEATS","FULL SERVICE FULL MENU","ROUTINE INSPECTION","2017-10-03","14C","Floors Walls Ceilings",0,"Non-Critical","Not Observed",0,"1617 PEARL ST UNIT 100
BOULDER, CO 80302
(40.019091, -105.274184)"
"FA0003604","SNOOZE","1617 PEARL ST UNIT 100","1617",NULL,"PEARL","ST","100","BOULDER","CO","80302","RESTAURANT 101 TO 200 SEATS","FULL SERVICE FULL MENU","ROUTINE INSPECTION","2016-05-18","08C","Properly Used",0,"Critical","In",10,"1617 PEARL ST UNIT 100
BOULDER, CO 80302
(40.019091, -105.274184)"
"FA0003604","SNOOZE","1617 PEARL ST UNIT 100","1617",NULL,"PEARL","ST","100","BOULDER","CO","80302","RESTAURANT 101 TO 200 SEATS","FULL SERVICE FULL MENU","ROUTINE INSPECTION","2017-10-03","02E","Smoking Eating Drinking",0,"Critical","In",0,"1617 PEARL ST UNIT 100
BOULDER, CO 80302
(40.019091, -105.274184)"
"FA0003604","SNOOZE","1617 PEARL ST UNIT 100","1617",NULL,"PEARL","ST","100","BOULDER","CO","80302","RESTAURANT 101 TO 200 SEATS","FULL SERVICE FULL MENU","ROUTINE INSPECTION","2014-08-12","15B","Linen Properly Stored",0,"Non-Critical","Not Observed",25,"1617 PEARL ST UNIT 100
BOULDER, CO 80302
(40.019091, -105.274184)"
"FA0003604","SNOOZE","1617 PEARL ST UNIT 100","1617",NULL,"PEARL","ST","100","BOULDER","CO","80302","RESTAURANT 101 TO 200 SEATS","FULL SERVICE FULL MENU","ROUTINE INSPECTION","2016-05-18","13B","Single Service Articles Stored Dispensed Used",0,"Non-Critical","Not Observed",10,"1617 PEARL ST UNIT 100
BOULDER, CO 80302
(40.019091, -105.274184)"
"FA0003604","SNOOZE","1617 PEARL ST UNIT 100","1617",NULL,"PEARL","ST","100","BOULDER","CO","80302","RESTAURANT 101 TO 200 SEATS","FULL SERVICE FULL MENU","ROUTINE INSPECTION","2017-10-03","01B","Wholesome Free of Spoilage",0,"Critical","In",0,"1617 PEARL ST UNIT 100
BOULDER, CO 80302
(40.019091, -105.274184)"
"FA0003604","SNOOZE","1617 PEARL ST UNIT 100","1617",NULL,"PEARL","ST","100","BOULDER","CO","80302","RESTAURANT 101 TO 200 SEATS","FULL SERVICE FULL MENU","ROUTINE INSPECTION","2016-05-18","01F","Consumer Advisory",0,"Critical","In",10,"1617 PEARL ST UNIT 100
BOULDER, CO 80302
(40.019091, -105.274184)"
"FA0003604","SNOOZE","1617 PEARL ST UNIT 100","1617",NULL,"PEARL","ST","100","BOULDER","CO","80302","RESTAURANT 101 TO 200 SEATS","FULL SERVICE FULL MENU","ROUTINE INSPECTION","2016-05-18","03C","Hot Hold at 135 Degrees Farenheit or Greater",0,"Critical","In",10,"1617 PEARL ST UNIT 100
BOULDER, CO 80302
(40.019091, -105.274184)"
"FA0003604","SNOOZE","1617 PEARL ST UNIT 100","1617",NULL,"PEARL","ST","100","BOULDER","CO","80302","RESTAURANT 101 TO 200 SEATS","FULL SERVICE FULL MENU","ROUTINE INSPECTION","2016-05-18","12A","Food Contact Surfaces Cleaning",0,"Non-Critical","Not Observed",10,"1617 PEARL ST UNIT 100
BOULDER, CO 80302
(40.019091, -105.274184)"
"FA0003604","SNOOZE","1617 PEARL ST UNIT 100","1617",NULL,"PEARL","ST","100","BOULDER","CO","80302","RESTAURANT 101 TO 200 SEATS","FULL SERVICE FULL MENU","ROUTINE INSPECTION","2017-10-03","14A","Plumbing Installed Maintained",0,"Non-Critical","Not Observed",0,"1617 PEARL ST UNIT 100
BOULDER, CO 80302
(40.019091, -105.274184)"
"FA0003604","SNOOZE","1617 PEARL ST UNIT 100","1617",NULL,"PEARL","ST","100","BOULDER","CO","80302","RESTAURANT 101 TO 200 SEATS","FULL SERVICE FULL MENU","ROUTINE INSPECTION","2017-10-03","01C","Cross Contamination",0,"Critical","In",0,"1617 PEARL ST UNIT 100
BOULDER, CO 80302
(40.019091, -105.274184)"
"FA0003604","SNOOZE","1617 PEARL ST UNIT 100","1617",NULL,"PEARL","ST","100","BOULDER","CO","80302","RESTAURANT 101 TO 200 SEATS","FULL SERVICE FULL MENU","ROUTINE INSPECTION","2014-08-12","14F","Locker Rooms",0,"Non-Critical","Not Observed",25,"1617 PEARL ST UNIT 100
BOULDER, CO 80302
(40.019091, -105.274184)"
"FA0003604","SNOOZE","1617 PEARL ST UNIT 100","1617",NULL,"PEARL","ST","100","BOULDER","CO","80302","RESTAURANT 101 TO 200 SEATS","FULL SERVICE FULL MENU","ROUTINE INSPECTION","2016-05-18","14F","Locker Rooms",0,"Non-Critical","Not Observed",10,"1617 PEARL ST UNIT 100
BOULDER, CO 80302
(40.019091, -105.274184)"
"FA0003604","SNOOZE","1617 PEARL ST UNIT 100","1617",NULL,"PEARL","ST","100","BOULDER","CO","80302","RESTAURANT 101 TO 200 SEATS","FULL SERVICE FULL MENU","ROUTINE INSPECTION","2014-08-12","01E","Date Marking",0,"Critical","Not Applicable",25,"1617 PEARL ST UNIT 100
BOULDER, CO 80302
(40.019091, -105.274184)"
"FA0003604","SNOOZE","1617 PEARL ST UNIT 100","1617",NULL,"PEARL","ST","100","BOULDER","CO","80302","RESTAURANT 101 TO 200 SEATS","FULL SERVICE FULL MENU","ROUTINE INSPECTION","2014-08-12","12B","Non-Food Contact Surfaces Cleaning",0,"Non-Critical","Not Observed",25,"1617 PEARL ST UNIT 100
BOULDER, CO 80302
(40.019091, -105.274184)"
"FA0003604","SNOOZE","1617 PEARL ST UNIT 100","1617",NULL,"PEARL","ST","100","BOULDER","CO","80302","RESTAURANT 101 TO 200 SEATS","FULL SERVICE FULL MENU","ROUTINE INSPECTION","2016-05-18","13C","No Reuse of Single Service Articles",0,"Non-Critical","Not Observed",10,"1617 PEARL ST UNIT 100
BOULDER, CO 80302
(40.019091, -105.274184)"
"FA0003604","SNOOZE","1617 PEARL ST UNIT 100","1617",NULL,"PEARL","ST","100","BOULDER","CO","80302","RESTAURANT 101 TO 200 SEATS","FULL SERVICE FULL MENU","ROUTINE INSPECTION","2017-10-03","02C","Hands Washed As Needed",0,"Critical","In",0,"1617 PEARL ST UNIT 100
BOULDER, CO 80302
(40.019091, -105.274184)"
"FA0003604","SNOOZE","1617 PEARL ST UNIT 100","1617",NULL,"PEARL","ST","100","BOULDER","CO","80302","RESTAURANT 101 TO 200 SEATS","FULL SERVICE FULL MENU","ROUTINE INSPECTION","2017-10-03","05C","Backflow Back Siphonage",0,"Critical","In",0,"1617 PEARL ST UNIT 100
BOULDER, CO 80302
(40.019091, -105.274184)"
"FA0003604","SNOOZE","1617 PEARL ST UNIT 100","1617",NULL,"PEARL","ST","100","BOULDER","CO","80302","RESTAURANT 101 TO 200 SEATS","FULL SERVICE FULL MENU","ROUTINE INSPECTION","2014-08-12","11B","Dishmachine With Accurate Thermometer & Gauge Cock",0,"Non-Critical","Not Observed",25,"1617 PEARL ST UNIT 100
BOULDER, CO 80302
(40.019091, -105.274184)"
"FA0003604","SNOOZE","1617 PEARL ST UNIT 100","1617",NULL,"PEARL","ST","100","BOULDER","CO","80302","RESTAURANT 101 TO 200 SEATS","FULL SERVICE FULL MENU","ROUTINE INSPECTION","2016-05-18","14E","Ventilation",0,"Non-Critical","Not Observed",10,"1617 PEARL ST UNIT 100
BOULDER, CO 80302
(40.019091, -105.274184)"
"FA0003604","SNOOZE","1617 PEARL ST UNIT 100","1617",NULL,"PEARL","ST","100","BOULDER","CO","80302","RESTAURANT 101 TO 200 SEATS","FULL SERVICE FULL MENU","ROUTINE INSPECTION","2014-08-12","05A","Safe Water Source",0,"Critical","In",25,"1617 PEARL ST UNIT 100
BOULDER, CO 80302
(40.019091, -105.274184)"
"FA0003604","SNOOZE","1617 PEARL ST UNIT 100","1617",NULL,"PEARL","ST","100","BOULDER","CO","80302","RESTAURANT 101 TO 200 SEATS","FULL SERVICE FULL MENU","ROUTINE INSPECTION","2017-10-03","15B","Linen Properly Stored",0,"Non-Critical","Not Observed",0,"1617 PEARL ST UNIT 100
BOULDER, CO 80302
(40.019091, -105.274184)"
"FA0003604","SNOOZE","1617 PEARL ST UNIT 100","1617",NULL,"PEARL","ST","100","BOULDER","CO","80302","RESTAURANT 101 TO 200 SEATS","FULL SERVICE FULL MENU","ROUTINE INSPECTION","2016-05-18","15A","Personnel: Clean Clothes Hair Restraints Authorizat",0,"Non-Critical","Not Observed",10,"1617 PEARL ST UNIT 100
BOULDER, CO 80302
(40.019091, -105.274184)"
"FA0003604","SNOOZE","1617 PEARL ST UNIT 100","1617",NULL,"PEARL","ST","100","BOULDER","CO","80302","RESTAURANT 101 TO 200 SEATS","FULL SERVICE FULL MENU","ROUTINE INSPECTION","2014-08-12","14G","Premises Maintained",0,"Non-Critical","Not Observed",25,"1617 PEARL ST UNIT 100
BOULDER, CO 80302
(40.019091, -105.274184)"
"FA0003604","SNOOZE","1617 PEARL ST UNIT 100","1617",NULL,"PEARL","ST","100","BOULDER","CO","80302","RESTAURANT 101 TO 200 SEATS","FULL SERVICE FULL MENU","ROUTINE INSPECTION","2017-10-03","03E","Cold Hold at 41 Degrees or Less",0,"Critical","In",0,"1617 PEARL ST UNIT 100
BOULDER, CO 80302
(40.019091, -105.274184)"
"FA0003604","SNOOZE","1617 PEARL ST UNIT 100","1617",NULL,"PEARL","ST","100","BOULDER","CO","80302","RESTAURANT 101 TO 200 SEATS","FULL SERVICE FULL MENU","ROUTINE INSPECTION","2014-08-12","13C","No Reuse of Single Service Articles",0,"Non-Critical","Not Observed",25,"1617 PEARL ST UNIT 100
BOULDER, CO 80302
(40.019091, -105.274184)"
"FA0003604","SNOOZE","1617 PEARL ST UNIT 100","1617",NULL,"PEARL","ST","100","BOULDER","CO","80302","RESTAURANT 101 TO 200 SEATS","FULL SERVICE FULL MENU","ROUTINE INSPECTION","2014-08-12","03D","Required Cooking Temperature",0,"Critical","In",25,"1617 PEARL ST UNIT 100
BOULDER, CO 80302
(40.019091, -105.274184)"
"FA0003604","SNOOZE","1617 PEARL ST UNIT 100","1617",NULL,"PEARL","ST","100","BOULDER","CO","80302","RESTAURANT 101 TO 200 SEATS","FULL SERVICE FULL MENU","ROUTINE INSPECTION","2017-10-03","12D","Wiping Cloths",0,"Non-Critical","Not Observed",0,"1617 PEARL ST UNIT 100
BOULDER, CO 80302
(40.019091, -105.274184)"
"FA0003604","SNOOZE","1617 PEARL ST UNIT 100","1617",NULL,"PEARL","ST","100","BOULDER","CO","80302","RESTAURANT 101 TO 200 SEATS","FULL SERVICE FULL MENU","ROUTINE INSPECTION","2017-10-03","03G","Adequate Equipment to Maintain Food Temperatures",0,"Critical","In",0,"1617 PEARL ST UNIT 100
BOULDER, CO 80302
(40.019091, -105.274184)"
"FA0003604","SNOOZE","1617 PEARL ST UNIT 100","1617",NULL,"PEARL","ST","100","BOULDER","CO","80302","RESTAURANT 101 TO 200 SEATS","FULL SERVICE FULL MENU","ROUTINE INSPECTION","2017-10-03","14H","Separation of Living Laundry",0,"Non-Critical","Not Observed",0,"1617 PEARL ST UNIT 100
BOULDER, CO 80302
(40.019091, -105.274184)"
"FA0003604","SNOOZE","1617 PEARL ST UNIT 100","1617",NULL,"PEARL","ST","100","BOULDER","CO","80302","RESTAURANT 101 TO 200 SEATS","FULL SERVICE FULL MENU","ROUTINE INSPECTION","2014-08-12","03F","Food Thermometer",0,"Critical","In",25,"1617 PEARL ST UNIT 100
BOULDER, CO 80302
(40.019091, -105.274184)"
"FA0003604","SNOOZE","1617 PEARL ST UNIT 100","1617",NULL,"PEARL","ST","100","BOULDER","CO","80302","RESTAURANT 101 TO 200 SEATS","FULL SERVICE FULL MENU","ROUTINE INSPECTION","2017-10-03","13B","Single Service Articles Stored Dispensed Used",0,"Non-Critical","Not Observed",0,"1617 PEARL ST UNIT 100
BOULDER, CO 80302
(40.019091, -105.274184)"
"FA0003604","SNOOZE","1617 PEARL ST UNIT 100","1617",NULL,"PEARL","ST","100","BOULDER","CO","80302","RESTAURANT 101 TO 200 SEATS","FULL SERVICE FULL MENU","ROUTINE INSPECTION","2016-05-18","01E","Date Marking",0,"Critical","Not Applicable",10,"1617 PEARL ST UNIT 100
BOULDER, CO 80302
(40.019091, -105.274184)"
"FA0003604","SNOOZE","1617 PEARL ST UNIT 100","1617",NULL,"PEARL","ST","100","BOULDER","CO","80302","RESTAURANT 101 TO 200 SEATS","FULL SERVICE FULL MENU","ROUTINE INSPECTION","2014-08-12","05C","Backflow Back Siphonage",10,"Critical","Out",25,"1617 PEARL ST UNIT 100
BOULDER, CO 80302
(40.019091, -105.274184)"
"FA0003604","SNOOZE","1617 PEARL ST UNIT 100","1617",NULL,"PEARL","ST","100","BOULDER","CO","80302","RESTAURANT 101 TO 200 SEATS","FULL SERVICE FULL MENU","ROUTINE INSPECTION","2016-05-18","14A","Plumbing Installed Maintained",0,"Non-Critical","Not Observed",10,"1617 PEARL ST UNIT 100
BOULDER, CO 80302
(40.019091, -105.274184)"
"FA0003604","SNOOZE","1617 PEARL ST UNIT 100","1617",NULL,"PEARL","ST","100","BOULDER","CO","80302","RESTAURANT 101 TO 200 SEATS","FULL SERVICE FULL MENU","ROUTINE INSPECTION","2017-10-03","07B","Pesticide Application",0,"Critical","In",0,"1617 PEARL ST UNIT 100
BOULDER, CO 80302
(40.019091, -105.274184)"
"FA0003604","SNOOZE","1617 PEARL ST UNIT 100","1617",NULL,"PEARL","ST","100","BOULDER","CO","80302","RESTAURANT 101 TO 200 SEATS","FULL SERVICE FULL MENU","ROUTINE INSPECTION","2014-08-12","08B","Properly Labeled",0,"Critical","In",25,"1617 PEARL ST UNIT 100
BOULDER, CO 80302
(40.019091, -105.274184)"
"FA0003604","SNOOZE","1617 PEARL ST UNIT 100","1617",NULL,"PEARL","ST","100","BOULDER","CO","80302","RESTAURANT 101 TO 200 SEATS","FULL SERVICE FULL MENU","ROUTINE INSPECTION","2017-10-03","14G","Premises Maintained",0,"Non-Critical","Not Observed",0,"1617 PEARL ST UNIT 100
BOULDER, CO 80302
(40.019091, -105.274184)"
"FA0003604","SNOOZE","1617 PEARL ST UNIT 100","1617",NULL,"PEARL","ST","100","BOULDER","CO","80302","RESTAURANT 101 TO 200 SEATS","FULL SERVICE FULL MENU","ROUTINE INSPECTION","2017-10-03","03D","Required Cooking Temperature",0,"Critical","In",0,"1617 PEARL ST UNIT 100
BOULDER, CO 80302
(40.019091, -105.274184)"
"FA0003604","SNOOZE","1617 PEARL ST UNIT 100","1617",NULL,"PEARL","ST","100","BOULDER","CO","80302","RESTAURANT 101 TO 200 SEATS","FULL SERVICE FULL MENU","ROUTINE INSPECTION","2014-08-12","03C","Hot Hold at 135 Degrees Farenheit or Greater",0,"Critical","In",25,"1617 PEARL ST UNIT 100
BOULDER, CO 80302
(40.019091, -105.274184)"
"FA0003604","SNOOZE","1617 PEARL ST UNIT 100","1617",NULL,"PEARL","ST","100","BOULDER","CO","80302","RESTAURANT 101 TO 200 SEATS","FULL SERVICE FULL MENU","ROUTINE INSPECTION","2014-08-12","13B","Single Service Articles Stored Dispensed Used",0,"Non-Critical","Not Observed",25,"1617 PEARL ST UNIT 100
BOULDER, CO 80302
(40.019091, -105.274184)"
"FA0003604","SNOOZE","1617 PEARL ST UNIT 100","1617",NULL,"PEARL","ST","100","BOULDER","CO","80302","RESTAURANT 101 TO 200 SEATS","FULL SERVICE FULL MENU","ROUTINE INSPECTION","2014-08-12","12D","Wiping Cloths",0,"Non-Critical","Not Observed",25,"1617 PEARL ST UNIT 100
BOULDER, CO 80302
(40.019091, -105.274184)"
"FA0003604","SNOOZE","1617 PEARL ST UNIT 100","1617",NULL,"PEARL","ST","100","BOULDER","CO","80302","RESTAURANT 101 TO 200 SEATS","FULL SERVICE FULL MENU","ROUTINE INSPECTION","2016-05-18","06C","Soap and Drying Devices",0,"Critical","In",10,"1617 PEARL ST UNIT 100
BOULDER, CO 80302
(40.019091, -105.274184)"
"FA0003604","SNOOZE","1617 PEARL ST UNIT 100","1617",NULL,"PEARL","ST","100","BOULDER","CO","80302","RESTAURANT 101 TO 200 SEATS","FULL SERVICE FULL MENU","ROUTINE INSPECTION","2014-08-12","03G","Adequate Equipment to Maintain Food Temperatures",0,"Critical","In",25,"1617 PEARL ST UNIT 100
BOULDER, CO 80302
(40.019091, -105.274184)"
"FA0003604","SNOOZE","1617 PEARL ST UNIT 100","1617",NULL,"PEARL","ST","100","BOULDER","CO","80302","RESTAURANT 101 TO 200 SEATS","FULL SERVICE FULL MENU","ROUTINE INSPECTION","2016-05-18","14B","Garbage and Refuse",0,"Non-Critical","Not Observed",10,"1617 PEARL ST UNIT 100
BOULDER, CO 80302
(40.019091, -105.274184)"
"FA0003604","SNOOZE","1617 PEARL ST UNIT 100","1617",NULL,"PEARL","ST","100","BOULDER","CO","80302","RESTAURANT 101 TO 200 SEATS","FULL SERVICE FULL MENU","ROUTINE INSPECTION","2014-08-12","08A","Properly Stored",0,"Critical","In",25,"1617 PEARL ST UNIT 100
BOULDER, CO 80302
(40.019091, -105.274184)"
"FA0003604","SNOOZE","1617 PEARL ST UNIT 100","1617",NULL,"PEARL","ST","100","BOULDER","CO","80302","RESTAURANT 101 TO 200 SEATS","FULL SERVICE FULL MENU","ROUTINE INSPECTION","2016-05-18","05D","Sewage Disposal",0,"Critical","In",10,"1617 PEARL ST UNIT 100
BOULDER, CO 80302
(40.019091, -105.274184)"
"FA0003604","SNOOZE","1617 PEARL ST UNIT 100","1617",NULL,"PEARL","ST","100","BOULDER","CO","80302","RESTAURANT 101 TO 200 SEATS","FULL SERVICE FULL MENU","ROUTINE INSPECTION","2016-05-18","07C","Animals Prohibited",0,"Critical","Not Observed",10,"1617 PEARL ST UNIT 100
BOULDER, CO 80302
(40.019091, -105.274184)"
"FA0003604","SNOOZE","1617 PEARL ST UNIT 100","1617",NULL,"PEARL","ST","100","BOULDER","CO","80302","RESTAURANT 101 TO 200 SEATS","FULL SERVICE FULL MENU","ROUTINE INSPECTION","2014-08-12","10C","Dishwashing Facilities",0,"Non-Critical","Not Observed",25,"1617 PEARL ST UNIT 100
BOULDER, CO 80302
(40.019091, -105.274184)"
"FA0003604","SNOOZE","1617 PEARL ST UNIT 100","1617",NULL,"PEARL","ST","100","BOULDER","CO","80302","RESTAURANT 101 TO 200 SEATS","FULL SERVICE FULL MENU","ROUTINE INSPECTION","2016-05-18","02G","No Bare Hand Contact",0,"Critical","In",10,"1617 PEARL ST UNIT 100
BOULDER, CO 80302
(40.019091, -105.274184)"
"FA0003604","SNOOZE","1617 PEARL ST UNIT 100","1617",NULL,"PEARL","ST","100","BOULDER","CO","80302","RESTAURANT 101 TO 200 SEATS","FULL SERVICE FULL MENU","ROUTINE INSPECTION","2016-05-18","01A","Approved Source",0,"Critical","In",10,"1617 PEARL ST UNIT 100
BOULDER, CO 80302
(40.019091, -105.274184)"
"FA0003604","SNOOZE","1617 PEARL ST UNIT 100","1617",NULL,"PEARL","ST","100","BOULDER","CO","80302","RESTAURANT 101 TO 200 SEATS","FULL SERVICE FULL MENU","ROUTINE INSPECTION","2016-05-18","02E","Smoking Eating Drinking",0,"Critical","In",10,"1617 PEARL ST UNIT 100
BOULDER, CO 80302
(40.019091, -105.274184)"
"FA0003604","SNOOZE","1617 PEARL ST UNIT 100","1617",NULL,"PEARL","ST","100","BOULDER","CO","80302","RESTAURANT 101 TO 200 SEATS","FULL SERVICE FULL MENU","ROUTINE INSPECTION","2014-08-12","06C","Soap and Drying Devices",0,"Critical","In",25,"1617 PEARL ST UNIT 100
BOULDER, CO 80302
(40.019091, -105.274184)"
"FA0003604","SNOOZE","1617 PEARL ST UNIT 100","1617",NULL,"PEARL","ST","100","BOULDER","CO","80302","RESTAURANT 101 TO 200 SEATS","FULL SERVICE FULL MENU","ROUTINE INSPECTION","2016-05-18","11B","Dishmachine With Accurate Thermometer & Gauge Cock",0,"Non-Critical","Not Observed",10,"1617 PEARL ST UNIT 100
BOULDER, CO 80302
(40.019091, -105.274184)"
"FA0003604","SNOOZE","1617 PEARL ST UNIT 100","1617",NULL,"PEARL","ST","100","BOULDER","CO","80302","RESTAURANT 101 TO 200 SEATS","FULL SERVICE FULL MENU","ROUTINE INSPECTION","2014-08-12","14A","Plumbing Installed Maintained",0,"Non-Critical","Not Observed",25,"1617 PEARL ST UNIT 100
BOULDER, CO 80302
(40.019091, -105.274184)"
"FA0003604","SNOOZE","1617 PEARL ST UNIT 100","1617",NULL,"PEARL","ST","100","BOULDER","CO","80302","RESTAURANT 101 TO 200 SEATS","FULL SERVICE FULL MENU","ROUTINE INSPECTION","2017-10-03","07A","Evidence of Insects or Rodents",0,"Critical","In",0,"1617 PEARL ST UNIT 100
BOULDER, CO 80302
(40.019091, -105.274184)"
"FA0003604","SNOOZE","1617 PEARL ST UNIT 100","1617",NULL,"PEARL","ST","100","BOULDER","CO","80302","RESTAURANT 101 TO 200 SEATS","FULL SERVICE FULL MENU","ROUTINE INSPECTION","2017-10-03","02A","Personnel With Infections Restricted",0,"Critical","In",0,"1617 PEARL ST UNIT 100
BOULDER, CO 80302
(40.019091, -105.274184)"
"FA0003604","SNOOZE","1617 PEARL ST UNIT 100","1617",NULL,"PEARL","ST","100","BOULDER","CO","80302","RESTAURANT 101 TO 200 SEATS","FULL SERVICE FULL MENU","ROUTINE INSPECTION","2016-05-18","07A","Evidence of Insects or Rodents",0,"Critical","In",10,"1617 PEARL ST UNIT 100
BOULDER, CO 80302
(40.019091, -105.274184)"
"FA0003604","SNOOZE","1617 PEARL ST UNIT 100","1617",NULL,"PEARL","ST","100","BOULDER","CO","80302","RESTAURANT 101 TO 200 SEATS","FULL SERVICE FULL MENU","ROUTINE INSPECTION","2014-08-12","10A","Food-Contact Surfaces Construction",0,"Non-Critical","Not Observed",25,"1617 PEARL ST UNIT 100
BOULDER, CO 80302
(40.019091, -105.274184)"
"FA0003604","SNOOZE","1617 PEARL ST UNIT 100","1617",NULL,"PEARL","ST","100","BOULDER","CO","80302","RESTAURANT 101 TO 200 SEATS","FULL SERVICE FULL MENU","ROUTINE INSPECTION","2014-08-12","06A","Adequate Number Location Design",0,"Critical","In",25,"1617 PEARL ST UNIT 100
BOULDER, CO 80302
(40.019091, -105.274184)"
"FA0003604","SNOOZE","1617 PEARL ST UNIT 100","1617",NULL,"PEARL","ST","100","BOULDER","CO","80302","RESTAURANT 101 TO 200 SEATS","FULL SERVICE FULL MENU","ROUTINE INSPECTION","2016-05-18","11C","Chemical Test Kits Provided Accessible",0,"Non-Critical","Not Observed",10,"1617 PEARL ST UNIT 100
BOULDER, CO 80302
(40.019091, -105.274184)"
"FA0003604","SNOOZE","1617 PEARL ST UNIT 100","1617",NULL,"PEARL","ST","100","BOULDER","CO","80302","RESTAURANT 101 TO 200 SEATS","FULL SERVICE FULL MENU","ROUTINE INSPECTION","2016-05-18","05A","Safe Water Source",0,"Critical","In",10,"1617 PEARL ST UNIT 100
BOULDER, CO 80302
(40.019091, -105.274184)"
"FA0003604","SNOOZE","1617 PEARL ST UNIT 100","1617",NULL,"PEARL","ST","100","BOULDER","CO","80302","RESTAURANT 101 TO 200 SEATS","FULL SERVICE FULL MENU","ROUTINE INSPECTION","2017-10-03","14I","Physical Facilities Adequate Toilet Facilities",0,"Non-Critical","Not Observed",0,"1617 PEARL ST UNIT 100
BOULDER, CO 80302
(40.019091, -105.274184)"
"FA0003604","SNOOZE","1617 PEARL ST UNIT 100","1617",NULL,"PEARL","ST","100","BOULDER","CO","80302","RESTAURANT 101 TO 200 SEATS","FULL SERVICE FULL MENU","ROUTINE INSPECTION","2016-05-18","02C","Hands Washed As Needed",0,"Critical","In",10,"1617 PEARL ST UNIT 100
BOULDER, CO 80302
(40.019091, -105.274184)"
"FA0003604","SNOOZE","1617 PEARL ST UNIT 100","1617",NULL,"PEARL","ST","100","BOULDER","CO","80302","RESTAURANT 101 TO 200 SEATS","FULL SERVICE FULL MENU","ROUTINE INSPECTION","2014-08-12","12C","Dishwashing Operations",0,"Non-Critical","Not Observed",25,"1617 PEARL ST UNIT 100
BOULDER, CO 80302
(40.019091, -105.274184)"
"FA0003604","SNOOZE","1617 PEARL ST UNIT 100","1617",NULL,"PEARL","ST","100","BOULDER","CO","80302","RESTAURANT 101 TO 200 SEATS","FULL SERVICE FULL MENU","ROUTINE INSPECTION","2014-08-12","07A","Evidence of Insects or Rodents",0,"Critical","In",25,"1617 PEARL ST UNIT 100
BOULDER, CO 80302
(40.019091, -105.274184)"
"FA0003604","SNOOZE","1617 PEARL ST UNIT 100","1617",NULL,"PEARL","ST","100","BOULDER","CO","80302","RESTAURANT 101 TO 200 SEATS","FULL SERVICE FULL MENU","ROUTINE INSPECTION","2014-08-12","03A","Cooling Methods",0,"Critical","In",25,"1617 PEARL ST UNIT 100
BOULDER, CO 80302
(40.019091, -105.274184)"
"FA0003604","SNOOZE","1617 PEARL ST UNIT 100","1617",NULL,"PEARL","ST","100","BOULDER","CO","80302","RESTAURANT 101 TO 200 SEATS","FULL SERVICE FULL MENU","ROUTINE INSPECTION","2017-10-03","02F","Training Needed",0,"Critical","In",0,"1617 PEARL ST UNIT 100
BOULDER, CO 80302
(40.019091, -105.274184)"
"FA0003604","SNOOZE","1617 PEARL ST UNIT 100","1617",NULL,"PEARL","ST","100","BOULDER","CO","80302","RESTAURANT 101 TO 200 SEATS","FULL SERVICE FULL MENU","ROUTINE INSPECTION","2014-08-12","01B","Wholesome Free of Spoilage",0,"Critical","In",25,"1617 PEARL ST UNIT 100
BOULDER, CO 80302
(40.019091, -105.274184)"
"FA0003604","SNOOZE","1617 PEARL ST UNIT 100","1617",NULL,"PEARL","ST","100","BOULDER","CO","80302","RESTAURANT 101 TO 200 SEATS","FULL SERVICE FULL MENU","ROUTINE INSPECTION","2017-10-03","05D","Sewage Disposal",0,"Critical","In",0,"1617 PEARL ST UNIT 100
BOULDER, CO 80302
(40.019091, -105.274184)"
"FA0003604","SNOOZE","1617 PEARL ST UNIT 100","1617",NULL,"PEARL","ST","100","BOULDER","CO","80302","RESTAURANT 101 TO 200 SEATS","FULL SERVICE FULL MENU","ROUTINE INSPECTION","2016-05-18","02F","Training Needed",0,"Critical","In",10,"1617 PEARL ST UNIT 100
BOULDER, CO 80302
(40.019091, -105.274184)"
"FA0003604","SNOOZE","1617 PEARL ST UNIT 100","1617",NULL,"PEARL","ST","100","BOULDER","CO","80302","RESTAURANT 101 TO 200 SEATS","FULL SERVICE FULL MENU","ROUTINE INSPECTION","2016-05-18","14I","Physical Facilities Adequate Toilet Facilities",0,"Non-Critical","Not Observed",10,"1617 PEARL ST UNIT 100
BOULDER, CO 80302
(40.019091, -105.274184)"
"FA0003604","SNOOZE","1617 PEARL ST UNIT 100","1617",NULL,"PEARL","ST","100","BOULDER","CO","80302","RESTAURANT 101 TO 200 SEATS","FULL SERVICE FULL MENU","ROUTINE INSPECTION","2014-08-12","08C","Properly Used",0,"Critical","In",25,"1617 PEARL ST UNIT 100
BOULDER, CO 80302
(40.019091, -105.274184)"
"FA0003604","SNOOZE","1617 PEARL ST UNIT 100","1617",NULL,"PEARL","ST","100","BOULDER","CO","80302","RESTAURANT 101 TO 200 SEATS","FULL SERVICE FULL MENU","ROUTINE INSPECTION","2016-05-18","12B","Non-Food Contact Surfaces Cleaning",0,"Non-Critical","Not Observed",10,"1617 PEARL ST UNIT 100
BOULDER, CO 80302
(40.019091, -105.274184)"
"FA0003604","SNOOZE","1617 PEARL ST UNIT 100","1617",NULL,"PEARL","ST","100","BOULDER","CO","80302","RESTAURANT 101 TO 200 SEATS","FULL SERVICE FULL MENU","ROUTINE INSPECTION","2016-05-18","01B","Wholesome Free of Spoilage",0,"Critical","In",10,"1617 PEARL ST UNIT 100
BOULDER, CO 80302
(40.019091, -105.274184)"
"FA0003604","SNOOZE","1617 PEARL ST UNIT 100","1617",NULL,"PEARL","ST","100","BOULDER","CO","80302","RESTAURANT 101 TO 200 SEATS","FULL SERVICE FULL MENU","ROUTINE INSPECTION","2014-08-12","14E","Ventilation",0,"Non-Critical","Not Observed",25,"1617 PEARL ST UNIT 100
BOULDER, CO 80302
(40.019091, -105.274184)"
"FA0003604","SNOOZE","1617 PEARL ST UNIT 100","1617",NULL,"PEARL","ST","100","BOULDER","CO","80302","RESTAURANT 101 TO 200 SEATS","FULL SERVICE FULL MENU","ROUTINE INSPECTION","2014-08-12","02B","Wounds Properly Covered",0,"Critical","Not Observed",25,"1617 PEARL ST UNIT 100
BOULDER, CO 80302
(40.019091, -105.274184)"
"FA0003604","SNOOZE","1617 PEARL ST UNIT 100","1617",NULL,"PEARL","ST","100","BOULDER","CO","80302","RESTAURANT 101 TO 200 SEATS","FULL SERVICE FULL MENU","ROUTINE INSPECTION","2016-05-18","10C","Dishwashing Facilities",0,"Non-Critical","Not Observed",10,"1617 PEARL ST UNIT 100
BOULDER, CO 80302
(40.019091, -105.274184)"
"FA0003604","SNOOZE","1617 PEARL ST UNIT 100","1617",NULL,"PEARL","ST","100","BOULDER","CO","80302","RESTAURANT 101 TO 200 SEATS","FULL SERVICE FULL MENU","ROUTINE INSPECTION","2017-10-03","01E","Date Marking",0,"Critical","Not Applicable",0,"1617 PEARL ST UNIT 100
BOULDER, CO 80302
(40.019091, -105.274184)"
"FA0003604","SNOOZE","1617 PEARL ST UNIT 100","1617",NULL,"PEARL","ST","100","BOULDER","CO","80302","RESTAURANT 101 TO 200 SEATS","FULL SERVICE FULL MENU","ROUTINE INSPECTION","2017-10-03","04B","Mechanical",0,"Critical","In",0,"1617 PEARL ST UNIT 100
BOULDER, CO 80302
(40.019091, -105.274184)"
"FA0003604","SNOOZE","1617 PEARL ST UNIT 100","1617",NULL,"PEARL","ST","100","BOULDER","CO","80302","RESTAURANT 101 TO 200 SEATS","FULL SERVICE FULL MENU","ROUTINE INSPECTION","2017-10-03","04A","Manual",0,"Critical","In",0,"1617 PEARL ST UNIT 100
BOULDER, CO 80302
(40.019091, -105.274184)"
"FA0003604","SNOOZE","1617 PEARL ST UNIT 100","1617",NULL,"PEARL","ST","100","BOULDER","CO","80302","RESTAURANT 101 TO 200 SEATS","FULL SERVICE FULL MENU","ROUTINE INSPECTION","2014-08-12","14D","Lighting",0,"Non-Critical","Not Observed",25,"1617 PEARL ST UNIT 100
BOULDER, CO 80302
(40.019091, -105.274184)"
"FA0003604","SNOOZE","1617 PEARL ST UNIT 100","1617",NULL,"PEARL","ST","100","BOULDER","CO","80302","RESTAURANT 101 TO 200 SEATS","FULL SERVICE FULL MENU","ROUTINE INSPECTION","2017-10-03","11B","Dishmachine With Accurate Thermometer & Gauge Cock",0,"Non-Critical","Not Observed",0,"1617 PEARL ST UNIT 100
BOULDER, CO 80302
(40.019091, -105.274184)"
"FA0003604","SNOOZE","1617 PEARL ST UNIT 100","1617",NULL,"PEARL","ST","100","BOULDER","CO","80302","RESTAURANT 101 TO 200 SEATS","FULL SERVICE FULL MENU","ROUTINE INSPECTION","2017-10-03","02B","Wounds Properly Covered",0,"Critical","Not Observed",0,"1617 PEARL ST UNIT 100
BOULDER, CO 80302
(40.019091, -105.274184)"
"FA0003604","SNOOZE","1617 PEARL ST UNIT 100","1617",NULL,"PEARL","ST","100","BOULDER","CO","80302","RESTAURANT 101 TO 200 SEATS","FULL SERVICE FULL MENU","ROUTINE INSPECTION","2014-08-12","04B","Mechanical",0,"Critical","In",25,"1617 PEARL ST UNIT 100
BOULDER, CO 80302
(40.019091, -105.274184)"
"FA0003604","SNOOZE","1617 PEARL ST UNIT 100","1617",NULL,"PEARL","ST","100","BOULDER","CO","80302","RESTAURANT 101 TO 200 SEATS","FULL SERVICE FULL MENU","ROUTINE INSPECTION","2016-05-18","08A","Properly Stored",0,"Critical","In",10,"1617 PEARL ST UNIT 100
BOULDER, CO 80302
(40.019091, -105.274184)"
"FA0003604","SNOOZE","1617 PEARL ST UNIT 100","1617",NULL,"PEARL","ST","100","BOULDER","CO","80302","RESTAURANT 101 TO 200 SEATS","FULL SERVICE FULL MENU","ROUTINE INSPECTION","2017-10-03","13A","Equipment Utensils Provided Used, Stored",0,"Non-Critical","Not Observed",0,"1617 PEARL ST UNIT 100
BOULDER, CO 80302
(40.019091, -105.274184)"
"FA0003604","SNOOZE","1617 PEARL ST UNIT 100","1617",NULL,"PEARL","ST","100","BOULDER","CO","80302","RESTAURANT 101 TO 200 SEATS","FULL SERVICE FULL MENU","ROUTINE INSPECTION","2016-05-18","12D","Wiping Cloths",0,"Non-Critical","Not Observed",10,"1617 PEARL ST UNIT 100
BOULDER, CO 80302
(40.019091, -105.274184)"
"FA0003604","SNOOZE","1617 PEARL ST UNIT 100","1617",NULL,"PEARL","ST","100","BOULDER","CO","80302","RESTAURANT 101 TO 200 SEATS","FULL SERVICE FULL MENU","ROUTINE INSPECTION","2014-08-12","09B","Food Protected from Contamination",0,"Non-Critical","Not Observed",25,"1617 PEARL ST UNIT 100
BOULDER, CO 80302
(40.019091, -105.274184)"
"FA0003604","SNOOZE","1617 PEARL ST UNIT 100","1617",NULL,"PEARL","ST","100","BOULDER","CO","80302","RESTAURANT 101 TO 200 SEATS","FULL SERVICE FULL MENU","ROUTINE INSPECTION","2017-10-03","01A","Approved Source",0,"Critical","In",0,"1617 PEARL ST UNIT 100
BOULDER, CO 80302
(40.019091, -105.274184)"
"FA0003604","SNOOZE","1617 PEARL ST UNIT 100","1617",NULL,"PEARL","ST","100","BOULDER","CO","80302","RESTAURANT 101 TO 200 SEATS","FULL SERVICE FULL MENU","ROUTINE INSPECTION","2016-05-18","03G","Adequate Equipment to Maintain Food Temperatures",0,"Critical","In",10,"1617 PEARL ST UNIT 100
BOULDER, CO 80302
(40.019091, -105.274184)"
"FA0003604","SNOOZE","1617 PEARL ST UNIT 100","1617",NULL,"PEARL","ST","100","BOULDER","CO","80302","RESTAURANT 101 TO 200 SEATS","FULL SERVICE FULL MENU","ROUTINE INSPECTION","2017-10-03","07C","Animals Prohibited",0,"Critical","In",0,"1617 PEARL ST UNIT 100
BOULDER, CO 80302
(40.019091, -105.274184)"
"FA0003604","SNOOZE","1617 PEARL ST UNIT 100","1617",NULL,"PEARL","ST","100","BOULDER","CO","80302","RESTAURANT 101 TO 200 SEATS","FULL SERVICE FULL MENU","ROUTINE INSPECTION","2016-05-18","05C","Backflow Back Siphonage",0,"Critical","In",10,"1617 PEARL ST UNIT 100
BOULDER, CO 80302
(40.019091, -105.274184)"
"FA0003604","SNOOZE","1617 PEARL ST UNIT 100","1617",NULL,"PEARL","ST","100","BOULDER","CO","80302","RESTAURANT 101 TO 200 SEATS","FULL SERVICE FULL MENU","ROUTINE INSPECTION","2017-10-03","12B","Non-Food Contact Surfaces Cleaning",0,"Non-Critical","Not Observed",0,"1617 PEARL ST UNIT 100
BOULDER, CO 80302
(40.019091, -105.274184)"
"FA0003604","SNOOZE","1617 PEARL ST UNIT 100","1617",NULL,"PEARL","ST","100","BOULDER","CO","80302","RESTAURANT 101 TO 200 SEATS","FULL SERVICE FULL MENU","ROUTINE INSPECTION","2016-05-18","01C","Cross Contamination",0,"Critical","In",10,"1617 PEARL ST UNIT 100
BOULDER, CO 80302
(40.019091, -105.274184)"
"FA0003604","SNOOZE","1617 PEARL ST UNIT 100","1617",NULL,"PEARL","ST","100","BOULDER","CO","80302","RESTAURANT 101 TO 200 SEATS","FULL SERVICE FULL MENU","ROUTINE INSPECTION","2017-10-03","01F","Consumer Advisory",0,"Critical","In",0,"1617 PEARL ST UNIT 100
BOULDER, CO 80302
(40.019091, -105.274184)"
"FA0003604","SNOOZE","1617 PEARL ST UNIT 100","1617",NULL,"PEARL","ST","100","BOULDER","CO","80302","RESTAURANT 101 TO 200 SEATS","FULL SERVICE FULL MENU","ROUTINE INSPECTION","2017-10-03","04C","In Place",0,"Critical","In",0,"1617 PEARL ST UNIT 100
BOULDER, CO 80302
(40.019091, -105.274184)"
"FA0003604","SNOOZE","1617 PEARL ST UNIT 100","1617",NULL,"PEARL","ST","100","BOULDER","CO","80302","RESTAURANT 101 TO 200 SEATS","FULL SERVICE FULL MENU","ROUTINE INSPECTION","2014-08-12","01C","Cross Contamination",0,"Critical","In",25,"1617 PEARL ST UNIT 100
BOULDER, CO 80302
(40.019091, -105.274184)"
"FA0003604","SNOOZE","1617 PEARL ST UNIT 100","1617",NULL,"PEARL","ST","100","BOULDER","CO","80302","RESTAURANT 101 TO 200 SEATS","FULL SERVICE FULL MENU","ROUTINE INSPECTION","2017-10-03","12A","Food Contact Surfaces Cleaning",0,"Non-Critical","Not Observed",0,"1617 PEARL ST UNIT 100
BOULDER, CO 80302
(40.019091, -105.274184)"
"FA0003604","SNOOZE","1617 PEARL ST UNIT 100","1617",NULL,"PEARL","ST","100","BOULDER","CO","80302","RESTAURANT 101 TO 200 SEATS","FULL SERVICE FULL MENU","ROUTINE INSPECTION","2016-05-18","14H","Separation of Living Laundry",0,"Non-Critical","Not Observed",10,"1617 PEARL ST UNIT 100
BOULDER, CO 80302
(40.019091, -105.274184)"
"FA0003604","SNOOZE","1617 PEARL ST UNIT 100","1617",NULL,"PEARL","ST","100","BOULDER","CO","80302","RESTAURANT 101 TO 200 SEATS","FULL SERVICE FULL MENU","ROUTINE INSPECTION","2017-10-03","01D","HACCP Plan",0,"Critical","Not Applicable",0,"1617 PEARL ST UNIT 100
BOULDER, CO 80302
(40.019091, -105.274184)"
"FA0003604","SNOOZE","1617 PEARL ST UNIT 100","1617",NULL,"PEARL","ST","100","BOULDER","CO","80302","RESTAURANT 101 TO 200 SEATS","FULL SERVICE FULL MENU","ROUTINE INSPECTION","2014-08-12","01A","Approved Source",0,"Critical","In",25,"1617 PEARL ST UNIT 100
BOULDER, CO 80302
(40.019091, -105.274184)"
