"facilityid","facilityname","siteaddress","streetnumber","streetdirection","streetname","streettype","streetunit","city","state","zip","typeoffacility","categoryoffacility","inspectiontype","inspectiondate","violationcode","violation","violationpoints","violationtype","violationstatus","inspectionscore","location"
"FA0000666","JAX FISH HOUSE","928 PEARL ST","928",NULL,"PEARL","ST",NULL,"BOULDER","CO","80302","RESTAURANT 0 TO 100 SEATS","FULL SERVICE FULL MENU","FOLLOW-UP INSPECTION","2013-03-26","02C","Hands Washed As Needed",0,"Critical","In",0,"928 PEARL ST
BOULDER, CO 80302
(40.017202, -105.283305)"
"FA0000666","JAX FISH HOUSE","928 PEARL ST","928",NULL,"PEARL","ST",NULL,"BOULDER","CO","80302","RESTAURANT 0 TO 100 SEATS","FULL SERVICE FULL MENU","INVESTIGATION INSPECTION","2013-07-31","03G","Adequate Equipment to Maintain Food Temperatures",0,"Critical","In",12,"928 PEARL ST
BOULDER, CO 80302
(40.017202, -105.283305)"
"FA0000666","JAX FISH HOUSE","928 PEARL ST","928",NULL,"PEARL","ST",NULL,"BOULDER","CO","80302","RESTAURANT 0 TO 100 SEATS","FULL SERVICE FULL MENU","FOLLOW-UP INSPECTION","2013-03-26","04C","In Place",0,"Critical","Not Observed",0,"928 PEARL ST
BOULDER, CO 80302
(40.017202, -105.283305)"
"FA0000666","JAX FISH HOUSE","928 PEARL ST","928",NULL,"PEARL","ST",NULL,"BOULDER","CO","80302","RESTAURANT 0 TO 100 SEATS","FULL SERVICE FULL MENU","FOLLOW UP -GREEN STICKER","2013-02-27","03E","Cold Hold at 41 Degrees or Less",0,"Critical","Not Observed",0,"928 PEARL ST
BOULDER, CO 80302
(40.017202, -105.283305)"
"FA0000666","JAX FISH HOUSE","928 PEARL ST","928",NULL,"PEARL","ST",NULL,"BOULDER","CO","80302","RESTAURANT 0 TO 100 SEATS","FULL SERVICE FULL MENU","FOLLOW UP -GREEN STICKER","2013-02-27","14D","Lighting",0,"Non-Critical","Not Observed",0,"928 PEARL ST
BOULDER, CO 80302
(40.017202, -105.283305)"
"FA0000666","JAX FISH HOUSE","928 PEARL ST","928",NULL,"PEARL","ST",NULL,"BOULDER","CO","80302","RESTAURANT 0 TO 100 SEATS","FULL SERVICE FULL MENU","ACTIVE MANAGEMENT CONTROL (AMC)","2013-03-26","AM18","Document Sanitizer Concentrations and Usage",10,"Non-Critical","In",60,"928 PEARL ST
BOULDER, CO 80302
(40.017202, -105.283305)"
"FA0000666","JAX FISH HOUSE","928 PEARL ST","928",NULL,"PEARL","ST",NULL,"BOULDER","CO","80302","RESTAURANT 0 TO 100 SEATS","FULL SERVICE FULL MENU","COMPLAINT INSPECTION","2017-08-03","10C","Dishwashing Facilities",0,"Non-Critical","Not Observed",35,"928 PEARL ST
BOULDER, CO 80302
(40.017202, -105.283305)"
"FA0000666","JAX FISH HOUSE","928 PEARL ST","928",NULL,"PEARL","ST",NULL,"BOULDER","CO","80302","RESTAURANT 0 TO 100 SEATS","FULL SERVICE FULL MENU","ACTIVE MANAGEMENT CONTROL (AMC)","2013-03-26","AM19","Written Employee Illness Policy",5,"Non-Critical","Full",60,"928 PEARL ST
BOULDER, CO 80302
(40.017202, -105.283305)"
"FA0000666","JAX FISH HOUSE","928 PEARL ST","928",NULL,"PEARL","ST",NULL,"BOULDER","CO","80302","RESTAURANT 0 TO 100 SEATS","FULL SERVICE FULL MENU","COMPLAINT INSPECTION","2017-08-03","14F","Locker Rooms",0,"Non-Critical","Not Observed",35,"928 PEARL ST
BOULDER, CO 80302
(40.017202, -105.283305)"
"FA0000666","JAX FISH HOUSE","928 PEARL ST","928",NULL,"PEARL","ST",NULL,"BOULDER","CO","80302","RESTAURANT 0 TO 100 SEATS","FULL SERVICE FULL MENU","FOLLOW-UP INSPECTION","2013-03-26","01C","Cross Contamination",0,"Critical","Not Observed",0,"928 PEARL ST
BOULDER, CO 80302
(40.017202, -105.283305)"
"FA0000666","JAX FISH HOUSE","928 PEARL ST","928",NULL,"PEARL","ST",NULL,"BOULDER","CO","80302","RESTAURANT 0 TO 100 SEATS","FULL SERVICE FULL MENU","INVESTIGATION INSPECTION","2013-07-31","10C","Dishwashing Facilities",0,"Non-Critical","Not Observed",12,"928 PEARL ST
BOULDER, CO 80302
(40.017202, -105.283305)"
"FA0000666","JAX FISH HOUSE","928 PEARL ST","928",NULL,"PEARL","ST",NULL,"BOULDER","CO","80302","RESTAURANT 0 TO 100 SEATS","FULL SERVICE FULL MENU","FOLLOW-UP INSPECTION","2013-03-26","03D","Required Cooking Temperature",0,"Critical","Not Observed",0,"928 PEARL ST
BOULDER, CO 80302
(40.017202, -105.283305)"
"FA0000666","JAX FISH HOUSE","928 PEARL ST","928",NULL,"PEARL","ST",NULL,"BOULDER","CO","80302","RESTAURANT 0 TO 100 SEATS","FULL SERVICE FULL MENU","ROUTINE INSPECTION","2016-03-04","05A","Safe Water Source",0,"Critical","In",40,"928 PEARL ST
BOULDER, CO 80302
(40.017202, -105.283305)"
"FA0000666","JAX FISH HOUSE","928 PEARL ST","928",NULL,"PEARL","ST",NULL,"BOULDER","CO","80302","RESTAURANT 0 TO 100 SEATS","FULL SERVICE FULL MENU","INVESTIGATION INSPECTION","2013-07-31","12C","Dishwashing Operations",0,"Non-Critical","Not Observed",12,"928 PEARL ST
BOULDER, CO 80302
(40.017202, -105.283305)"
"FA0000666","JAX FISH HOUSE","928 PEARL ST","928",NULL,"PEARL","ST",NULL,"BOULDER","CO","80302","RESTAURANT 0 TO 100 SEATS","FULL SERVICE FULL MENU","FOLLOW UP -GREEN STICKER","2013-02-27","11C","Chemical Test Kits Provided Accessible",0,"Non-Critical","Not Observed",0,"928 PEARL ST
BOULDER, CO 80302
(40.017202, -105.283305)"
"FA0000666","JAX FISH HOUSE","928 PEARL ST","928",NULL,"PEARL","ST",NULL,"BOULDER","CO","80302","RESTAURANT 0 TO 100 SEATS","FULL SERVICE FULL MENU","ACTIVE MANAGEMENT CONTROL (AMC)","2017-08-03","AM22","Do You Have a Dial Thermometer",0,"Non-Critical","Full",50,"928 PEARL ST
BOULDER, CO 80302
(40.017202, -105.283305)"
"FA0000666","JAX FISH HOUSE","928 PEARL ST","928",NULL,"PEARL","ST",NULL,"BOULDER","CO","80302","RESTAURANT 0 TO 100 SEATS","FULL SERVICE FULL MENU","COMPLAINT INSPECTION","2017-08-03","05A","Safe Water Source",0,"Critical","In",35,"928 PEARL ST
BOULDER, CO 80302
(40.017202, -105.283305)"
"FA0000666","JAX FISH HOUSE","928 PEARL ST","928",NULL,"PEARL","ST",NULL,"BOULDER","CO","80302","RESTAURANT 0 TO 100 SEATS","FULL SERVICE FULL MENU","INVESTIGATION INSPECTION","2013-07-31","12D","Wiping Cloths",0,"Non-Critical","Not Observed",12,"928 PEARL ST
BOULDER, CO 80302
(40.017202, -105.283305)"
"FA0000666","JAX FISH HOUSE","928 PEARL ST","928",NULL,"PEARL","ST",NULL,"BOULDER","CO","80302","RESTAURANT 0 TO 100 SEATS","FULL SERVICE FULL MENU","COMPLAINT INSPECTION","2017-08-03","11B","Dishmachine With Accurate Thermometer & Gauge Cock",0,"Non-Critical","Not Observed",35,"928 PEARL ST
BOULDER, CO 80302
(40.017202, -105.283305)"
"FA0000666","JAX FISH HOUSE","928 PEARL ST","928",NULL,"PEARL","ST",NULL,"BOULDER","CO","80302","RESTAURANT 0 TO 100 SEATS","FULL SERVICE FULL MENU","COMPLAINT INSPECTION","2017-08-03","05D","Sewage Disposal",0,"Critical","In",35,"928 PEARL ST
BOULDER, CO 80302
(40.017202, -105.283305)"
"FA0000666","JAX FISH HOUSE","928 PEARL ST","928",NULL,"PEARL","ST",NULL,"BOULDER","CO","80302","RESTAURANT 0 TO 100 SEATS","FULL SERVICE FULL MENU","COMPLAINT INSPECTION","2017-08-03","10A","Food-Contact Surfaces Construction",0,"Non-Critical","Not Observed",35,"928 PEARL ST
BOULDER, CO 80302
(40.017202, -105.283305)"
"FA0000666","JAX FISH HOUSE","928 PEARL ST","928",NULL,"PEARL","ST",NULL,"BOULDER","CO","80302","RESTAURANT 0 TO 100 SEATS","FULL SERVICE FULL MENU","INVESTIGATION INSPECTION","2013-07-31","08C","Properly Used",0,"Critical","Not Observed",12,"928 PEARL ST
BOULDER, CO 80302
(40.017202, -105.283305)"
"FA0000666","JAX FISH HOUSE","928 PEARL ST","928",NULL,"PEARL","ST",NULL,"BOULDER","CO","80302","RESTAURANT 0 TO 100 SEATS","FULL SERVICE FULL MENU","INVESTIGATION INSPECTION","2013-07-31","14E","Ventilation",0,"Non-Critical","Not Observed",12,"928 PEARL ST
BOULDER, CO 80302
(40.017202, -105.283305)"
"FA0000666","JAX FISH HOUSE","928 PEARL ST","928",NULL,"PEARL","ST",NULL,"BOULDER","CO","80302","RESTAURANT 0 TO 100 SEATS","FULL SERVICE FULL MENU","COMPLAINT INSPECTION","2017-08-03","06C","Soap and Drying Devices",0,"Critical","In",35,"928 PEARL ST
BOULDER, CO 80302
(40.017202, -105.283305)"
"FA0000666","JAX FISH HOUSE","928 PEARL ST","928",NULL,"PEARL","ST",NULL,"BOULDER","CO","80302","RESTAURANT 0 TO 100 SEATS","FULL SERVICE FULL MENU","FOLLOW-UP INSPECTION","2013-03-26","08A","Properly Stored",0,"Critical","Not Observed",0,"928 PEARL ST
BOULDER, CO 80302
(40.017202, -105.283305)"
"FA0000666","JAX FISH HOUSE","928 PEARL ST","928",NULL,"PEARL","ST",NULL,"BOULDER","CO","80302","RESTAURANT 0 TO 100 SEATS","FULL SERVICE FULL MENU","INVESTIGATION INSPECTION","2013-07-31","05B","Hot and Cold Water Under Pressure",0,"Critical","Not Observed",12,"928 PEARL ST
BOULDER, CO 80302
(40.017202, -105.283305)"
"FA0000666","JAX FISH HOUSE","928 PEARL ST","928",NULL,"PEARL","ST",NULL,"BOULDER","CO","80302","RESTAURANT 0 TO 100 SEATS","FULL SERVICE FULL MENU","FOLLOW UP -GREEN STICKER","2013-02-27","04C","In Place",0,"Critical","Not Observed",0,"928 PEARL ST
BOULDER, CO 80302
(40.017202, -105.283305)"
"FA0000666","JAX FISH HOUSE","928 PEARL ST","928",NULL,"PEARL","ST",NULL,"BOULDER","CO","80302","RESTAURANT 0 TO 100 SEATS","FULL SERVICE FULL MENU","COMPLAINT INSPECTION","2017-08-03","12C","Dishwashing Operations",0,"Non-Critical","Not Observed",35,"928 PEARL ST
BOULDER, CO 80302
(40.017202, -105.283305)"
"FA0000666","JAX FISH HOUSE","928 PEARL ST","928",NULL,"PEARL","ST",NULL,"BOULDER","CO","80302","RESTAURANT 0 TO 100 SEATS","FULL SERVICE FULL MENU","FOLLOW UP -GREEN STICKER","2013-02-27","14B","Garbage and Refuse",0,"Non-Critical","Not Observed",0,"928 PEARL ST
BOULDER, CO 80302
(40.017202, -105.283305)"
"FA0000666","JAX FISH HOUSE","928 PEARL ST","928",NULL,"PEARL","ST",NULL,"BOULDER","CO","80302","RESTAURANT 0 TO 100 SEATS","FULL SERVICE FULL MENU","COMPLAINT INSPECTION","2017-08-03","14H","Separation of Living Laundry",0,"Non-Critical","Not Observed",35,"928 PEARL ST
BOULDER, CO 80302
(40.017202, -105.283305)"
"FA0000666","JAX FISH HOUSE","928 PEARL ST","928",NULL,"PEARL","ST",NULL,"BOULDER","CO","80302","RESTAURANT 0 TO 100 SEATS","FULL SERVICE FULL MENU","COMPLAINT INSPECTION","2017-08-03","12B","Non-Food Contact Surfaces Cleaning",0,"Non-Critical","Not Observed",35,"928 PEARL ST
BOULDER, CO 80302
(40.017202, -105.283305)"
"FA0000666","JAX FISH HOUSE","928 PEARL ST","928",NULL,"PEARL","ST",NULL,"BOULDER","CO","80302","RESTAURANT 0 TO 100 SEATS","FULL SERVICE FULL MENU","FOLLOW UP -GREEN STICKER","2013-02-27","09A","Original Container Properly Labeled",0,"Non-Critical","Not Observed",0,"928 PEARL ST
BOULDER, CO 80302
(40.017202, -105.283305)"
"FA0000666","JAX FISH HOUSE","928 PEARL ST","928",NULL,"PEARL","ST",NULL,"BOULDER","CO","80302","RESTAURANT 0 TO 100 SEATS","FULL SERVICE FULL MENU","FOLLOW-UP INSPECTION","2013-03-26","13C","No Reuse of Single Service Articles",0,"Non-Critical","Not Observed",0,"928 PEARL ST
BOULDER, CO 80302
(40.017202, -105.283305)"
"FA0000666","JAX FISH HOUSE","928 PEARL ST","928",NULL,"PEARL","ST",NULL,"BOULDER","CO","80302","RESTAURANT 0 TO 100 SEATS","FULL SERVICE FULL MENU","COMPLAINT INSPECTION","2017-08-03","11A","Refrigeration Units With Accurate Thermometers",0,"Non-Critical","Not Observed",35,"928 PEARL ST
BOULDER, CO 80302
(40.017202, -105.283305)"
"FA0000666","JAX FISH HOUSE","928 PEARL ST","928",NULL,"PEARL","ST",NULL,"BOULDER","CO","80302","RESTAURANT 0 TO 100 SEATS","FULL SERVICE FULL MENU","COMPLAINT INSPECTION","2017-08-03","13B","Single Service Articles Stored Dispensed Used",0,"Non-Critical","Not Observed",35,"928 PEARL ST
BOULDER, CO 80302
(40.017202, -105.283305)"
"FA0000666","JAX FISH HOUSE","928 PEARL ST","928",NULL,"PEARL","ST",NULL,"BOULDER","CO","80302","RESTAURANT 0 TO 100 SEATS","FULL SERVICE FULL MENU","ACTIVE MANAGEMENT CONTROL (AMC)","2016-03-04","AM22","Do You Have a Dial Thermometer",0,"Non-Critical","Full",60,"928 PEARL ST
BOULDER, CO 80302
(40.017202, -105.283305)"
"FA0000666","JAX FISH HOUSE","928 PEARL ST","928",NULL,"PEARL","ST",NULL,"BOULDER","CO","80302","RESTAURANT 0 TO 100 SEATS","FULL SERVICE FULL MENU","FOLLOW-UP INSPECTION","2013-03-26","01A","Approved Source",0,"Critical","In",0,"928 PEARL ST
BOULDER, CO 80302
(40.017202, -105.283305)"
"FA0000666","JAX FISH HOUSE","928 PEARL ST","928",NULL,"PEARL","ST",NULL,"BOULDER","CO","80302","RESTAURANT 0 TO 100 SEATS","FULL SERVICE FULL MENU","ACTIVE MANAGEMENT CONTROL (AMC)","2013-03-26","AM7","Private Corporate Food Safety Inspections",10,"Non-Critical","Full",60,"928 PEARL ST
BOULDER, CO 80302
(40.017202, -105.283305)"
"FA0000666","JAX FISH HOUSE","928 PEARL ST","928",NULL,"PEARL","ST",NULL,"BOULDER","CO","80302","RESTAURANT 0 TO 100 SEATS","FULL SERVICE FULL MENU","INVESTIGATION INSPECTION","2013-07-31","01E","Date Marking",0,"Critical","Not Observed",12,"928 PEARL ST
BOULDER, CO 80302
(40.017202, -105.283305)"
"FA0000666","JAX FISH HOUSE","928 PEARL ST","928",NULL,"PEARL","ST",NULL,"BOULDER","CO","80302","RESTAURANT 0 TO 100 SEATS","FULL SERVICE FULL MENU","ACTIVE MANAGEMENT CONTROL (AMC)","2018-12-14","AM22","Do You Have a Dial Thermometer",0,"Non-Critical","In",45,"928 PEARL ST
BOULDER, CO 80302
(40.017202, -105.283305)"
"FA0000666","JAX FISH HOUSE","928 PEARL ST","928",NULL,"PEARL","ST",NULL,"BOULDER","CO","80302","RESTAURANT 0 TO 100 SEATS","FULL SERVICE FULL MENU","ACTIVE MANAGEMENT CONTROL (AMC)","2018-12-14","AM3","All Staff Receive Formal Food Safety Training",10,"Non-Critical","Full",45,"928 PEARL ST
BOULDER, CO 80302
(40.017202, -105.283305)"
"FA0000666","JAX FISH HOUSE","928 PEARL ST","928",NULL,"PEARL","ST",NULL,"BOULDER","CO","80302","RESTAURANT 0 TO 100 SEATS","FULL SERVICE FULL MENU","COMPLAINT INSPECTION","2017-08-03","03E","Cold Hold at 41 Degrees or Less",15,"Critical","Out",35,"928 PEARL ST
BOULDER, CO 80302
(40.017202, -105.283305)"
"FA0000666","JAX FISH HOUSE","928 PEARL ST","928",NULL,"PEARL","ST",NULL,"BOULDER","CO","80302","RESTAURANT 0 TO 100 SEATS","FULL SERVICE FULL MENU","ACTIVE MANAGEMENT CONTROL (AMC)","2018-12-14","AM5","Conduct Daily Food Safety Inspections",10,"Non-Critical","In",45,"928 PEARL ST
BOULDER, CO 80302
(40.017202, -105.283305)"
"FA0000666","JAX FISH HOUSE","928 PEARL ST","928",NULL,"PEARL","ST",NULL,"BOULDER","CO","80302","RESTAURANT 0 TO 100 SEATS","FULL SERVICE FULL MENU","ACTIVE MANAGEMENT CONTROL (AMC)","2018-12-14","AM1","Certified Food Safety Manager",10,"Non-Critical","Full",45,"928 PEARL ST
BOULDER, CO 80302
(40.017202, -105.283305)"
"FA0000666","JAX FISH HOUSE","928 PEARL ST","928",NULL,"PEARL","ST",NULL,"BOULDER","CO","80302","RESTAURANT 0 TO 100 SEATS","FULL SERVICE FULL MENU","FOLLOW UP -GREEN STICKER","2013-02-27","14E","Ventilation",0,"Non-Critical","Not Observed",0,"928 PEARL ST
BOULDER, CO 80302
(40.017202, -105.283305)"
"FA0000666","JAX FISH HOUSE","928 PEARL ST","928",NULL,"PEARL","ST",NULL,"BOULDER","CO","80302","RESTAURANT 0 TO 100 SEATS","FULL SERVICE FULL MENU","INVESTIGATION INSPECTION","2013-07-31","02B","Wounds Properly Covered",0,"Critical","Not Observed",12,"928 PEARL ST
BOULDER, CO 80302
(40.017202, -105.283305)"
"FA0000666","JAX FISH HOUSE","928 PEARL ST","928",NULL,"PEARL","ST",NULL,"BOULDER","CO","80302","RESTAURANT 0 TO 100 SEATS","FULL SERVICE FULL MENU","ACTIVE MANAGEMENT CONTROL (AMC)","2016-03-04","AM1","Certified Food Safety Manager",10,"Non-Critical","Full",60,"928 PEARL ST
BOULDER, CO 80302
(40.017202, -105.283305)"
"FA0000666","JAX FISH HOUSE","928 PEARL ST","928",NULL,"PEARL","ST",NULL,"BOULDER","CO","80302","RESTAURANT 0 TO 100 SEATS","FULL SERVICE FULL MENU","ACTIVE MANAGEMENT CONTROL (AMC)","2018-12-14","AM26","Contracts for Preventative Maintenance Full For All 3 Half For 1 OR 2 NO For None",10,"Non-Critical","Half",45,"928 PEARL ST
BOULDER, CO 80302
(40.017202, -105.283305)"
"FA0000666","JAX FISH HOUSE","928 PEARL ST","928",NULL,"PEARL","ST",NULL,"BOULDER","CO","80302","RESTAURANT 0 TO 100 SEATS","FULL SERVICE FULL MENU","COMPLAINT INSPECTION","2017-08-03","12A","Food Contact Surfaces Cleaning",0,"Non-Critical","Not Observed",35,"928 PEARL ST
BOULDER, CO 80302
(40.017202, -105.283305)"
"FA0000666","JAX FISH HOUSE","928 PEARL ST","928",NULL,"PEARL","ST",NULL,"BOULDER","CO","80302","RESTAURANT 0 TO 100 SEATS","FULL SERVICE FULL MENU","ACTIVE MANAGEMENT CONTROL (AMC)","2018-12-14","AM21","Do Your Have a Thermocouple or Digital Thermometer",5,"Non-Critical","Full",45,"928 PEARL ST
BOULDER, CO 80302
(40.017202, -105.283305)"
"FA0000666","JAX FISH HOUSE","928 PEARL ST","928",NULL,"PEARL","ST",NULL,"BOULDER","CO","80302","RESTAURANT 0 TO 100 SEATS","FULL SERVICE FULL MENU","INVESTIGATION INSPECTION","2013-07-31","05D","Sewage Disposal",0,"Critical","Not Observed",12,"928 PEARL ST
BOULDER, CO 80302
(40.017202, -105.283305)"
"FA0000666","JAX FISH HOUSE","928 PEARL ST","928",NULL,"PEARL","ST",NULL,"BOULDER","CO","80302","RESTAURANT 0 TO 100 SEATS","FULL SERVICE FULL MENU","ACTIVE MANAGEMENT CONTROL (AMC)","2018-12-14","AM7","Private Corporate Food Safety Inspections",10,"Non-Critical","Full",45,"928 PEARL ST
BOULDER, CO 80302
(40.017202, -105.283305)"
"FA0000666","JAX FISH HOUSE","928 PEARL ST","928",NULL,"PEARL","ST",NULL,"BOULDER","CO","80302","RESTAURANT 0 TO 100 SEATS","FULL SERVICE FULL MENU","FOLLOW-UP INSPECTION","2013-03-26","14D","Lighting",0,"Non-Critical","Not Observed",0,"928 PEARL ST
BOULDER, CO 80302
(40.017202, -105.283305)"
"FA0000666","JAX FISH HOUSE","928 PEARL ST","928",NULL,"PEARL","ST",NULL,"BOULDER","CO","80302","RESTAURANT 0 TO 100 SEATS","FULL SERVICE FULL MENU","COMPLAINT INSPECTION","2017-08-03","03G","Adequate Equipment to Maintain Food Temperatures",0,"Critical","In",35,"928 PEARL ST
BOULDER, CO 80302
(40.017202, -105.283305)"
"FA0000666","JAX FISH HOUSE","928 PEARL ST","928",NULL,"PEARL","ST",NULL,"BOULDER","CO","80302","RESTAURANT 0 TO 100 SEATS","FULL SERVICE FULL MENU","ACTIVE MANAGEMENT CONTROL (AMC)","2016-03-04","AM20","Paid Sick Leave",5,"Non-Critical","In",60,"928 PEARL ST
BOULDER, CO 80302
(40.017202, -105.283305)"
"FA0000666","JAX FISH HOUSE","928 PEARL ST","928",NULL,"PEARL","ST",NULL,"BOULDER","CO","80302","RESTAURANT 0 TO 100 SEATS","FULL SERVICE FULL MENU","ACTIVE MANAGEMENT CONTROL (AMC)","2018-12-14","AM19","Written Employee Illness Policy",5,"Non-Critical","Full",45,"928 PEARL ST
BOULDER, CO 80302
(40.017202, -105.283305)"
"FA0000666","JAX FISH HOUSE","928 PEARL ST","928",NULL,"PEARL","ST",NULL,"BOULDER","CO","80302","RESTAURANT 0 TO 100 SEATS","FULL SERVICE FULL MENU","INVESTIGATION INSPECTION","2013-07-31","03C","Hot Hold at 135 Degrees Farenheit or Greater",0,"Critical","Not Observed",12,"928 PEARL ST
BOULDER, CO 80302
(40.017202, -105.283305)"
"FA0000666","JAX FISH HOUSE","928 PEARL ST","928",NULL,"PEARL","ST",NULL,"BOULDER","CO","80302","RESTAURANT 0 TO 100 SEATS","FULL SERVICE FULL MENU","ACTIVE MANAGEMENT CONTROL (AMC)","2018-12-14","AM18","Document Sanitizer Concentrations and Usage",10,"Non-Critical","In",45,"928 PEARL ST
BOULDER, CO 80302
(40.017202, -105.283305)"
"FA0000666","JAX FISH HOUSE","928 PEARL ST","928",NULL,"PEARL","ST",NULL,"BOULDER","CO","80302","RESTAURANT 0 TO 100 SEATS","FULL SERVICE FULL MENU","ACTIVE MANAGEMENT CONTROL (AMC)","2018-12-14","AM10","Document Handwashing Glove Use",10,"Non-Critical","In",45,"928 PEARL ST
BOULDER, CO 80302
(40.017202, -105.283305)"
"FA0000666","JAX FISH HOUSE","928 PEARL ST","928",NULL,"PEARL","ST",NULL,"BOULDER","CO","80302","RESTAURANT 0 TO 100 SEATS","FULL SERVICE FULL MENU","FOLLOW-UP INSPECTION","2013-03-26","11B","Dishmachine With Accurate Thermometer & Gauge Cock",0,"Non-Critical","Not Observed",0,"928 PEARL ST
BOULDER, CO 80302
(40.017202, -105.283305)"
"FA0000666","JAX FISH HOUSE","928 PEARL ST","928",NULL,"PEARL","ST",NULL,"BOULDER","CO","80302","RESTAURANT 0 TO 100 SEATS","FULL SERVICE FULL MENU","ACTIVE MANAGEMENT CONTROL (AMC)","2016-03-04","AM5","Conduct Daily Food Safety Inspections",10,"Non-Critical","In",60,"928 PEARL ST
BOULDER, CO 80302
(40.017202, -105.283305)"
"FA0000666","JAX FISH HOUSE","928 PEARL ST","928",NULL,"PEARL","ST",NULL,"BOULDER","CO","80302","RESTAURANT 0 TO 100 SEATS","FULL SERVICE FULL MENU","ACTIVE MANAGEMENT CONTROL (AMC)","2018-12-14","AM24","Document Food Temperatures Frequently Cooling Initial Cook Receiving & Reheating",5,"Non-Critical","In",45,"928 PEARL ST
BOULDER, CO 80302
(40.017202, -105.283305)"
"FA0000666","JAX FISH HOUSE","928 PEARL ST","928",NULL,"PEARL","ST",NULL,"BOULDER","CO","80302","RESTAURANT 0 TO 100 SEATS","FULL SERVICE FULL MENU","COMPLAINT INSPECTION","2017-08-03","15A","Personnel: Clean Clothes Hair Restraints Authorizat",0,"Non-Critical","Not Observed",35,"928 PEARL ST
BOULDER, CO 80302
(40.017202, -105.283305)"
"FA0000666","JAX FISH HOUSE","928 PEARL ST","928",NULL,"PEARL","ST",NULL,"BOULDER","CO","80302","RESTAURANT 0 TO 100 SEATS","FULL SERVICE FULL MENU","ACTIVE MANAGEMENT CONTROL (AMC)","2017-08-03","AM1","Certified Food Safety Manager",10,"Non-Critical","Full",50,"928 PEARL ST
BOULDER, CO 80302
(40.017202, -105.283305)"
"FA0000666","JAX FISH HOUSE","928 PEARL ST","928",NULL,"PEARL","ST",NULL,"BOULDER","CO","80302","RESTAURANT 0 TO 100 SEATS","FULL SERVICE FULL MENU","FOLLOW UP -GREEN STICKER","2013-02-27","01C","Cross Contamination",0,"Critical","Not Observed",0,"928 PEARL ST
BOULDER, CO 80302
(40.017202, -105.283305)"
"FA0000666","JAX FISH HOUSE","928 PEARL ST","928",NULL,"PEARL","ST",NULL,"BOULDER","CO","80302","RESTAURANT 0 TO 100 SEATS","FULL SERVICE FULL MENU","ACTIVE MANAGEMENT CONTROL (AMC)","2018-12-14","AM25","Document Thermometer Calibration",5,"Non-Critical","In",45,"928 PEARL ST
BOULDER, CO 80302
(40.017202, -105.283305)"
"FA0000666","JAX FISH HOUSE","928 PEARL ST","928",NULL,"PEARL","ST",NULL,"BOULDER","CO","80302","RESTAURANT 0 TO 100 SEATS","FULL SERVICE FULL MENU","ACTIVE MANAGEMENT CONTROL (AMC)","2018-12-14","AM23","Thin Probe Available",5,"Non-Critical","In",45,"928 PEARL ST
BOULDER, CO 80302
(40.017202, -105.283305)"
"FA0000666","JAX FISH HOUSE","928 PEARL ST","928",NULL,"PEARL","ST",NULL,"BOULDER","CO","80302","RESTAURANT 0 TO 100 SEATS","FULL SERVICE FULL MENU","ACTIVE MANAGEMENT CONTROL (AMC)","2018-12-14","AM20","Paid Sick Leave",5,"Non-Critical","In",45,"928 PEARL ST
BOULDER, CO 80302
(40.017202, -105.283305)"
"FA0000666","JAX FISH HOUSE","928 PEARL ST","928",NULL,"PEARL","ST",NULL,"BOULDER","CO","80302","RESTAURANT 0 TO 100 SEATS","FULL SERVICE FULL MENU","ACTIVE MANAGEMENT CONTROL (AMC)","2013-03-26","AM22","Do You Have a Dial Thermometer",0,"Non-Critical","In",60,"928 PEARL ST
BOULDER, CO 80302
(40.017202, -105.283305)"
"FA0000666","JAX FISH HOUSE","928 PEARL ST","928",NULL,"PEARL","ST",NULL,"BOULDER","CO","80302","RESTAURANT 0 TO 100 SEATS","FULL SERVICE FULL MENU","INVESTIGATION INSPECTION","2013-07-31","10B","Non-Food Contact Surfaces Construction",0,"Non-Critical","Not Observed",12,"928 PEARL ST
BOULDER, CO 80302
(40.017202, -105.283305)"
"FA0000666","JAX FISH HOUSE","928 PEARL ST","928",NULL,"PEARL","ST",NULL,"BOULDER","CO","80302","RESTAURANT 0 TO 100 SEATS","FULL SERVICE FULL MENU","FOLLOW UP -GREEN STICKER","2013-02-27","10C","Dishwashing Facilities",0,"Non-Critical","Not Observed",0,"928 PEARL ST
BOULDER, CO 80302
(40.017202, -105.283305)"
"FA0000666","JAX FISH HOUSE","928 PEARL ST","928",NULL,"PEARL","ST",NULL,"BOULDER","CO","80302","RESTAURANT 0 TO 100 SEATS","FULL SERVICE FULL MENU","INVESTIGATION INSPECTION","2013-07-31","12A","Food Contact Surfaces Cleaning",0,"Non-Critical","Not Observed",12,"928 PEARL ST
BOULDER, CO 80302
(40.017202, -105.283305)"
"FA0000666","JAX FISH HOUSE","928 PEARL ST","928",NULL,"PEARL","ST",NULL,"BOULDER","CO","80302","RESTAURANT 0 TO 100 SEATS","FULL SERVICE FULL MENU","FOLLOW-UP INSPECTION","2013-03-26","14A","Plumbing Installed Maintained",0,"Non-Critical","Not Observed",0,"928 PEARL ST
BOULDER, CO 80302
(40.017202, -105.283305)"
"FA0000666","JAX FISH HOUSE","928 PEARL ST","928",NULL,"PEARL","ST",NULL,"BOULDER","CO","80302","RESTAURANT 0 TO 100 SEATS","FULL SERVICE FULL MENU","INVESTIGATION INSPECTION","2013-07-31","14D","Lighting",0,"Non-Critical","Not Observed",12,"928 PEARL ST
BOULDER, CO 80302
(40.017202, -105.283305)"
"FA0000666","JAX FISH HOUSE","928 PEARL ST","928",NULL,"PEARL","ST",NULL,"BOULDER","CO","80302","RESTAURANT 0 TO 100 SEATS","FULL SERVICE FULL MENU","COMPLAINT INSPECTION","2017-08-03","07A","Evidence of Insects or Rodents",0,"Critical","In",35,"928 PEARL ST
BOULDER, CO 80302
(40.017202, -105.283305)"
"FA0000666","JAX FISH HOUSE","928 PEARL ST","928",NULL,"PEARL","ST",NULL,"BOULDER","CO","80302","RESTAURANT 0 TO 100 SEATS","FULL SERVICE FULL MENU","INVESTIGATION INSPECTION","2013-07-31","06C","Soap and Drying Devices",5,"Critical","Out",12,"928 PEARL ST
BOULDER, CO 80302
(40.017202, -105.283305)"
"FA0000666","JAX FISH HOUSE","928 PEARL ST","928",NULL,"PEARL","ST",NULL,"BOULDER","CO","80302","RESTAURANT 0 TO 100 SEATS","FULL SERVICE FULL MENU","FOLLOW-UP INSPECTION","2013-03-26","12A","Food Contact Surfaces Cleaning",0,"Non-Critical","Not Observed",0,"928 PEARL ST
BOULDER, CO 80302
(40.017202, -105.283305)"
"FA0000666","JAX FISH HOUSE","928 PEARL ST","928",NULL,"PEARL","ST",NULL,"BOULDER","CO","80302","RESTAURANT 0 TO 100 SEATS","FULL SERVICE FULL MENU","FOLLOW UP -GREEN STICKER","2013-02-27","05A","Safe Water Source",0,"Critical","Not Observed",0,"928 PEARL ST
BOULDER, CO 80302
(40.017202, -105.283305)"
"FA0000666","JAX FISH HOUSE","928 PEARL ST","928",NULL,"PEARL","ST",NULL,"BOULDER","CO","80302","RESTAURANT 0 TO 100 SEATS","FULL SERVICE FULL MENU","COMPLAINT INSPECTION","2017-08-03","14D","Lighting",0,"Non-Critical","Not Observed",35,"928 PEARL ST
BOULDER, CO 80302
(40.017202, -105.283305)"
"FA0000666","JAX FISH HOUSE","928 PEARL ST","928",NULL,"PEARL","ST",NULL,"BOULDER","CO","80302","RESTAURANT 0 TO 100 SEATS","FULL SERVICE FULL MENU","INVESTIGATION INSPECTION","2013-07-31","11B","Dishmachine With Accurate Thermometer & Gauge Cock",0,"Non-Critical","Not Observed",12,"928 PEARL ST
BOULDER, CO 80302
(40.017202, -105.283305)"
"FA0000666","JAX FISH HOUSE","928 PEARL ST","928",NULL,"PEARL","ST",NULL,"BOULDER","CO","80302","RESTAURANT 0 TO 100 SEATS","FULL SERVICE FULL MENU","FOLLOW UP -GREEN STICKER","2013-02-27","14A","Plumbing Installed Maintained",0,"Non-Critical","Not Observed",0,"928 PEARL ST
BOULDER, CO 80302
(40.017202, -105.283305)"
"FA0000666","JAX FISH HOUSE","928 PEARL ST","928",NULL,"PEARL","ST",NULL,"BOULDER","CO","80302","RESTAURANT 0 TO 100 SEATS","FULL SERVICE FULL MENU","INVESTIGATION INSPECTION","2013-07-31","13A","Equipment Utensils Provided Used, Stored",0,"Non-Critical","Not Observed",12,"928 PEARL ST
BOULDER, CO 80302
(40.017202, -105.283305)"
"FA0000666","JAX FISH HOUSE","928 PEARL ST","928",NULL,"PEARL","ST",NULL,"BOULDER","CO","80302","RESTAURANT 0 TO 100 SEATS","FULL SERVICE FULL MENU","FOLLOW-UP INSPECTION","2013-03-26","01B","Wholesome Free of Spoilage",0,"Critical","Not Observed",0,"928 PEARL ST
BOULDER, CO 80302
(40.017202, -105.283305)"
"FA0000666","JAX FISH HOUSE","928 PEARL ST","928",NULL,"PEARL","ST",NULL,"BOULDER","CO","80302","RESTAURANT 0 TO 100 SEATS","FULL SERVICE FULL MENU","INVESTIGATION INSPECTION","2013-07-31","08B","Properly Labeled",0,"Critical","Not Observed",12,"928 PEARL ST
BOULDER, CO 80302
(40.017202, -105.283305)"
"FA0000666","JAX FISH HOUSE","928 PEARL ST","928",NULL,"PEARL","ST",NULL,"BOULDER","CO","80302","RESTAURANT 0 TO 100 SEATS","FULL SERVICE FULL MENU","COMPLAINT INSPECTION","2017-08-03","02F","Training Needed",0,"Critical","In",35,"928 PEARL ST
BOULDER, CO 80302
(40.017202, -105.283305)"
"FA0000666","JAX FISH HOUSE","928 PEARL ST","928",NULL,"PEARL","ST",NULL,"BOULDER","CO","80302","RESTAURANT 0 TO 100 SEATS","FULL SERVICE FULL MENU","FOLLOW-UP INSPECTION","2013-03-26","01E","Date Marking",0,"Critical","Not Observed",0,"928 PEARL ST
BOULDER, CO 80302
(40.017202, -105.283305)"
"FA0000666","JAX FISH HOUSE","928 PEARL ST","928",NULL,"PEARL","ST",NULL,"BOULDER","CO","80302","RESTAURANT 0 TO 100 SEATS","FULL SERVICE FULL MENU","FOLLOW UP -GREEN STICKER","2013-02-27","03D","Required Cooking Temperature",0,"Critical","Not Observed",0,"928 PEARL ST
BOULDER, CO 80302
(40.017202, -105.283305)"
"FA0000666","JAX FISH HOUSE","928 PEARL ST","928",NULL,"PEARL","ST",NULL,"BOULDER","CO","80302","RESTAURANT 0 TO 100 SEATS","FULL SERVICE FULL MENU","ACTIVE MANAGEMENT CONTROL (AMC)","2013-03-26","AM21","Do Your Have a Thermocouple or Digital Thermometer",5,"Non-Critical","Full",60,"928 PEARL ST
BOULDER, CO 80302
(40.017202, -105.283305)"
"FA0000666","JAX FISH HOUSE","928 PEARL ST","928",NULL,"PEARL","ST",NULL,"BOULDER","CO","80302","RESTAURANT 0 TO 100 SEATS","FULL SERVICE FULL MENU","INVESTIGATION INSPECTION","2013-07-31","02D","Hygienic Practices",5,"Critical","Out",12,"928 PEARL ST
BOULDER, CO 80302
(40.017202, -105.283305)"
"FA0000666","JAX FISH HOUSE","928 PEARL ST","928",NULL,"PEARL","ST",NULL,"BOULDER","CO","80302","RESTAURANT 0 TO 100 SEATS","FULL SERVICE FULL MENU","ROUTINE INSPECTION","2018-12-14","03E","Cold Hold at 41 Degrees or Less",0,"Critical","In",15,"928 PEARL ST
BOULDER, CO 80302
(40.017202, -105.283305)"
"FA0000666","JAX FISH HOUSE","928 PEARL ST","928",NULL,"PEARL","ST",NULL,"BOULDER","CO","80302","RESTAURANT 0 TO 100 SEATS","FULL SERVICE FULL MENU","FOLLOW-UP INSPECTION","2013-03-26","10B","Non-Food Contact Surfaces Construction",0,"Non-Critical","Not Observed",0,"928 PEARL ST
BOULDER, CO 80302
(40.017202, -105.283305)"
"FA0000666","JAX FISH HOUSE","928 PEARL ST","928",NULL,"PEARL","ST",NULL,"BOULDER","CO","80302","RESTAURANT 0 TO 100 SEATS","FULL SERVICE FULL MENU","INVESTIGATION INSPECTION","2013-07-31","02E","Smoking Eating Drinking",0,"Critical","Not Observed",12,"928 PEARL ST
BOULDER, CO 80302
(40.017202, -105.283305)"
"FA0000666","JAX FISH HOUSE","928 PEARL ST","928",NULL,"PEARL","ST",NULL,"BOULDER","CO","80302","RESTAURANT 0 TO 100 SEATS","FULL SERVICE FULL MENU","FOLLOW-UP INSPECTION","2013-03-26","14E","Ventilation",0,"Non-Critical","Not Observed",0,"928 PEARL ST
BOULDER, CO 80302
(40.017202, -105.283305)"
"FA0000666","JAX FISH HOUSE","928 PEARL ST","928",NULL,"PEARL","ST",NULL,"BOULDER","CO","80302","RESTAURANT 0 TO 100 SEATS","FULL SERVICE FULL MENU","COMPLAINT INSPECTION","2017-08-03","03C","Hot Hold at 135 Degrees Farenheit or Greater",0,"Critical","In",35,"928 PEARL ST
BOULDER, CO 80302
(40.017202, -105.283305)"
"FA0000666","JAX FISH HOUSE","928 PEARL ST","928",NULL,"PEARL","ST",NULL,"BOULDER","CO","80302","RESTAURANT 0 TO 100 SEATS","FULL SERVICE FULL MENU","ACTIVE MANAGEMENT CONTROL (AMC)","2013-03-26","AM26","Contracts for Preventative Maintenance Full For All 3 Half For 1 OR 2 NO For None",10,"Non-Critical","Full",60,"928 PEARL ST
BOULDER, CO 80302
(40.017202, -105.283305)"
"FA0000666","JAX FISH HOUSE","928 PEARL ST","928",NULL,"PEARL","ST",NULL,"BOULDER","CO","80302","RESTAURANT 0 TO 100 SEATS","FULL SERVICE FULL MENU","FOLLOW-UP INSPECTION","2013-03-26","12D","Wiping Cloths",0,"Non-Critical","Not Observed",0,"928 PEARL ST
BOULDER, CO 80302
(40.017202, -105.283305)"
"FA0000666","JAX FISH HOUSE","928 PEARL ST","928",NULL,"PEARL","ST",NULL,"BOULDER","CO","80302","RESTAURANT 0 TO 100 SEATS","FULL SERVICE FULL MENU","INVESTIGATION INSPECTION","2013-07-31","07C","Animals Prohibited",0,"Critical","Not Observed",12,"928 PEARL ST
BOULDER, CO 80302
(40.017202, -105.283305)"
"FA0000666","JAX FISH HOUSE","928 PEARL ST","928",NULL,"PEARL","ST",NULL,"BOULDER","CO","80302","RESTAURANT 0 TO 100 SEATS","FULL SERVICE FULL MENU","INVESTIGATION INSPECTION","2013-07-31","02C","Hands Washed As Needed",0,"Critical","In",12,"928 PEARL ST
BOULDER, CO 80302
(40.017202, -105.283305)"
"FA0000666","JAX FISH HOUSE","928 PEARL ST","928",NULL,"PEARL","ST",NULL,"BOULDER","CO","80302","RESTAURANT 0 TO 100 SEATS","FULL SERVICE FULL MENU","INVESTIGATION INSPECTION","2013-07-31","14H","Separation of Living Laundry",0,"Non-Critical","Not Observed",12,"928 PEARL ST
BOULDER, CO 80302
(40.017202, -105.283305)"
"FA0000666","JAX FISH HOUSE","928 PEARL ST","928",NULL,"PEARL","ST",NULL,"BOULDER","CO","80302","RESTAURANT 0 TO 100 SEATS","FULL SERVICE FULL MENU","INVESTIGATION INSPECTION","2013-07-31","08A","Properly Stored",0,"Critical","Not Observed",12,"928 PEARL ST
BOULDER, CO 80302
(40.017202, -105.283305)"
"FA0000666","JAX FISH HOUSE","928 PEARL ST","928",NULL,"PEARL","ST",NULL,"BOULDER","CO","80302","RESTAURANT 0 TO 100 SEATS","FULL SERVICE FULL MENU","FOLLOW UP -GREEN STICKER","2013-02-27","01B","Wholesome Free of Spoilage",0,"Critical","Not Observed",0,"928 PEARL ST
BOULDER, CO 80302
(40.017202, -105.283305)"
"FA0000666","JAX FISH HOUSE","928 PEARL ST","928",NULL,"PEARL","ST",NULL,"BOULDER","CO","80302","RESTAURANT 0 TO 100 SEATS","FULL SERVICE FULL MENU","FOLLOW UP -GREEN STICKER","2013-02-27","04A","Manual",0,"Critical","Not Observed",0,"928 PEARL ST
BOULDER, CO 80302
(40.017202, -105.283305)"
"FA0000666","JAX FISH HOUSE","928 PEARL ST","928",NULL,"PEARL","ST",NULL,"BOULDER","CO","80302","RESTAURANT 0 TO 100 SEATS","FULL SERVICE FULL MENU","ACTIVE MANAGEMENT CONTROL (AMC)","2017-08-03","AM21","Do Your Have a Thermocouple or Digital Thermometer",5,"Non-Critical","Full",50,"928 PEARL ST
BOULDER, CO 80302
(40.017202, -105.283305)"
"FA0000666","JAX FISH HOUSE","928 PEARL ST","928",NULL,"PEARL","ST",NULL,"BOULDER","CO","80302","RESTAURANT 0 TO 100 SEATS","FULL SERVICE FULL MENU","INVESTIGATION INSPECTION","2013-07-31","05A","Safe Water Source",0,"Critical","Not Observed",12,"928 PEARL ST
BOULDER, CO 80302
(40.017202, -105.283305)"
"FA0000666","JAX FISH HOUSE","928 PEARL ST","928",NULL,"PEARL","ST",NULL,"BOULDER","CO","80302","RESTAURANT 0 TO 100 SEATS","FULL SERVICE FULL MENU","FOLLOW-UP INSPECTION","2013-03-26","11A","Refrigeration Units With Accurate Thermometers",0,"Non-Critical","Not Observed",0,"928 PEARL ST
BOULDER, CO 80302
(40.017202, -105.283305)"
"FA0000666","JAX FISH HOUSE","928 PEARL ST","928",NULL,"PEARL","ST",NULL,"BOULDER","CO","80302","RESTAURANT 0 TO 100 SEATS","FULL SERVICE FULL MENU","COMPLAINT INSPECTION","2017-08-03","03A","Cooling Methods",0,"Critical","In",35,"928 PEARL ST
BOULDER, CO 80302
(40.017202, -105.283305)"
"FA0000666","JAX FISH HOUSE","928 PEARL ST","928",NULL,"PEARL","ST",NULL,"BOULDER","CO","80302","RESTAURANT 0 TO 100 SEATS","FULL SERVICE FULL MENU","FOLLOW-UP INSPECTION","2013-03-26","10A","Food-Contact Surfaces Construction",0,"Non-Critical","Not Observed",0,"928 PEARL ST
BOULDER, CO 80302
(40.017202, -105.283305)"
"FA0000666","JAX FISH HOUSE","928 PEARL ST","928",NULL,"PEARL","ST",NULL,"BOULDER","CO","80302","RESTAURANT 0 TO 100 SEATS","FULL SERVICE FULL MENU","FOLLOW-UP INSPECTION","2013-03-26","13B","Single Service Articles Stored Dispensed Used",0,"Non-Critical","Not Observed",0,"928 PEARL ST
BOULDER, CO 80302
(40.017202, -105.283305)"
"FA0000666","JAX FISH HOUSE","928 PEARL ST","928",NULL,"PEARL","ST",NULL,"BOULDER","CO","80302","RESTAURANT 0 TO 100 SEATS","FULL SERVICE FULL MENU","COMPLAINT INSPECTION","2017-08-03","09B","Food Protected from Contamination",0,"Non-Critical","Not Observed",35,"928 PEARL ST
BOULDER, CO 80302
(40.017202, -105.283305)"
"FA0000666","JAX FISH HOUSE","928 PEARL ST","928",NULL,"PEARL","ST",NULL,"BOULDER","CO","80302","RESTAURANT 0 TO 100 SEATS","FULL SERVICE FULL MENU","FOLLOW UP -GREEN STICKER","2013-02-27","12D","Wiping Cloths",0,"Non-Critical","Not Observed",0,"928 PEARL ST
BOULDER, CO 80302
(40.017202, -105.283305)"
"FA0000666","JAX FISH HOUSE","928 PEARL ST","928",NULL,"PEARL","ST",NULL,"BOULDER","CO","80302","RESTAURANT 0 TO 100 SEATS","FULL SERVICE FULL MENU","FOLLOW-UP INSPECTION","2013-03-26","03F","Food Thermometer",0,"Critical","Not Observed",0,"928 PEARL ST
BOULDER, CO 80302
(40.017202, -105.283305)"
"FA0000666","JAX FISH HOUSE","928 PEARL ST","928",NULL,"PEARL","ST",NULL,"BOULDER","CO","80302","RESTAURANT 0 TO 100 SEATS","FULL SERVICE FULL MENU","FOLLOW UP -GREEN STICKER","2013-02-27","11A","Refrigeration Units With Accurate Thermometers",0,"Non-Critical","Not Observed",0,"928 PEARL ST
BOULDER, CO 80302
(40.017202, -105.283305)"
"FA0000666","JAX FISH HOUSE","928 PEARL ST","928",NULL,"PEARL","ST",NULL,"BOULDER","CO","80302","RESTAURANT 0 TO 100 SEATS","FULL SERVICE FULL MENU","COMPLAINT INSPECTION","2017-08-03","04B","Mechanical",0,"Critical","In",35,"928 PEARL ST
BOULDER, CO 80302
(40.017202, -105.283305)"
"FA0000666","JAX FISH HOUSE","928 PEARL ST","928",NULL,"PEARL","ST",NULL,"BOULDER","CO","80302","RESTAURANT 0 TO 100 SEATS","FULL SERVICE FULL MENU","INVESTIGATION INSPECTION","2013-07-31","15A","Personnel: Clean Clothes Hair Restraints Authorizat",0,"Non-Critical","Not Observed",12,"928 PEARL ST
BOULDER, CO 80302
(40.017202, -105.283305)"
"FA0000666","JAX FISH HOUSE","928 PEARL ST","928",NULL,"PEARL","ST",NULL,"BOULDER","CO","80302","RESTAURANT 0 TO 100 SEATS","FULL SERVICE FULL MENU","COMPLAINT INSPECTION","2017-08-03","02D","Hygienic Practices",0,"Critical","In",35,"928 PEARL ST
BOULDER, CO 80302
(40.017202, -105.283305)"
"FA0000666","JAX FISH HOUSE","928 PEARL ST","928",NULL,"PEARL","ST",NULL,"BOULDER","CO","80302","RESTAURANT 0 TO 100 SEATS","FULL SERVICE FULL MENU","FOLLOW UP -GREEN STICKER","2013-02-27","07C","Animals Prohibited",0,"Critical","Not Observed",0,"928 PEARL ST
BOULDER, CO 80302
(40.017202, -105.283305)"
"FA0000666","JAX FISH HOUSE","928 PEARL ST","928",NULL,"PEARL","ST",NULL,"BOULDER","CO","80302","RESTAURANT 0 TO 100 SEATS","FULL SERVICE FULL MENU","FOLLOW-UP INSPECTION","2013-03-26","08C","Properly Used",0,"Critical","Not Observed",0,"928 PEARL ST
BOULDER, CO 80302
(40.017202, -105.283305)"
"FA0000666","JAX FISH HOUSE","928 PEARL ST","928",NULL,"PEARL","ST",NULL,"BOULDER","CO","80302","RESTAURANT 0 TO 100 SEATS","FULL SERVICE FULL MENU","FOLLOW UP -GREEN STICKER","2013-02-27","08A","Properly Stored",0,"Critical","Not Observed",0,"928 PEARL ST
BOULDER, CO 80302
(40.017202, -105.283305)"
"FA0000666","JAX FISH HOUSE","928 PEARL ST","928",NULL,"PEARL","ST",NULL,"BOULDER","CO","80302","RESTAURANT 0 TO 100 SEATS","FULL SERVICE FULL MENU","ACTIVE MANAGEMENT CONTROL (AMC)","2016-03-04","AM23","Thin Probe Available",5,"Non-Critical","Full",60,"928 PEARL ST
BOULDER, CO 80302
(40.017202, -105.283305)"
"FA0000666","JAX FISH HOUSE","928 PEARL ST","928",NULL,"PEARL","ST",NULL,"BOULDER","CO","80302","RESTAURANT 0 TO 100 SEATS","FULL SERVICE FULL MENU","FOLLOW-UP INSPECTION","2013-03-26","14F","Locker Rooms",0,"Non-Critical","Not Observed",0,"928 PEARL ST
BOULDER, CO 80302
(40.017202, -105.283305)"
"FA0000666","JAX FISH HOUSE","928 PEARL ST","928",NULL,"PEARL","ST",NULL,"BOULDER","CO","80302","RESTAURANT 0 TO 100 SEATS","FULL SERVICE FULL MENU","INVESTIGATION INSPECTION","2013-07-31","04C","In Place",0,"Critical","Not Observed",12,"928 PEARL ST
BOULDER, CO 80302
(40.017202, -105.283305)"
"FA0000666","JAX FISH HOUSE","928 PEARL ST","928",NULL,"PEARL","ST",NULL,"BOULDER","CO","80302","RESTAURANT 0 TO 100 SEATS","FULL SERVICE FULL MENU","FOLLOW UP -GREEN STICKER","2013-02-27","07B","Pesticide Application",0,"Critical","Not Observed",0,"928 PEARL ST
BOULDER, CO 80302
(40.017202, -105.283305)"
"FA0000666","JAX FISH HOUSE","928 PEARL ST","928",NULL,"PEARL","ST",NULL,"BOULDER","CO","80302","RESTAURANT 0 TO 100 SEATS","FULL SERVICE FULL MENU","FOLLOW UP -GREEN STICKER","2013-02-27","12A","Food Contact Surfaces Cleaning",0,"Non-Critical","Not Observed",0,"928 PEARL ST
BOULDER, CO 80302
(40.017202, -105.283305)"
"FA0000666","JAX FISH HOUSE","928 PEARL ST","928",NULL,"PEARL","ST",NULL,"BOULDER","CO","80302","RESTAURANT 0 TO 100 SEATS","FULL SERVICE FULL MENU","FOLLOW-UP INSPECTION","2013-03-26","02A","Personnel With Infections Restricted",0,"Critical","Not Observed",0,"928 PEARL ST
BOULDER, CO 80302
(40.017202, -105.283305)"
"FA0000666","JAX FISH HOUSE","928 PEARL ST","928",NULL,"PEARL","ST",NULL,"BOULDER","CO","80302","RESTAURANT 0 TO 100 SEATS","FULL SERVICE FULL MENU","FOLLOW UP -GREEN STICKER","2013-02-27","01A","Approved Source",0,"Critical","Not Observed",0,"928 PEARL ST
BOULDER, CO 80302
(40.017202, -105.283305)"
"FA0000666","JAX FISH HOUSE","928 PEARL ST","928",NULL,"PEARL","ST",NULL,"BOULDER","CO","80302","RESTAURANT 0 TO 100 SEATS","FULL SERVICE FULL MENU","COMPLAINT INSPECTION","2017-08-03","02B","Wounds Properly Covered",0,"Critical","In",35,"928 PEARL ST
BOULDER, CO 80302
(40.017202, -105.283305)"
"FA0000666","JAX FISH HOUSE","928 PEARL ST","928",NULL,"PEARL","ST",NULL,"BOULDER","CO","80302","RESTAURANT 0 TO 100 SEATS","FULL SERVICE FULL MENU","COMPLAINT INSPECTION","2017-08-03","02E","Smoking Eating Drinking",0,"Critical","In",35,"928 PEARL ST
BOULDER, CO 80302
(40.017202, -105.283305)"
"FA0000666","JAX FISH HOUSE","928 PEARL ST","928",NULL,"PEARL","ST",NULL,"BOULDER","CO","80302","RESTAURANT 0 TO 100 SEATS","FULL SERVICE FULL MENU","FOLLOW UP -GREEN STICKER","2013-02-27","15A","Personnel: Clean Clothes Hair Restraints Authorizat",0,"Non-Critical","Not Observed",0,"928 PEARL ST
BOULDER, CO 80302
(40.017202, -105.283305)"
"FA0000666","JAX FISH HOUSE","928 PEARL ST","928",NULL,"PEARL","ST",NULL,"BOULDER","CO","80302","RESTAURANT 0 TO 100 SEATS","FULL SERVICE FULL MENU","COMPLAINT INSPECTION","2017-08-03","06A","Adequate Number Location Design",0,"Critical","In",35,"928 PEARL ST
BOULDER, CO 80302
(40.017202, -105.283305)"
"FA0000666","JAX FISH HOUSE","928 PEARL ST","928",NULL,"PEARL","ST",NULL,"BOULDER","CO","80302","RESTAURANT 0 TO 100 SEATS","FULL SERVICE FULL MENU","COMPLAINT INSPECTION","2017-08-03","14G","Premises Maintained",0,"Non-Critical","Not Observed",35,"928 PEARL ST
BOULDER, CO 80302
(40.017202, -105.283305)"
"FA0000666","JAX FISH HOUSE","928 PEARL ST","928",NULL,"PEARL","ST",NULL,"BOULDER","CO","80302","RESTAURANT 0 TO 100 SEATS","FULL SERVICE FULL MENU","FOLLOW UP -GREEN STICKER","2013-02-27","14I","Physical Facilities Adequate Toilet Facilities",0,"Non-Critical","Not Observed",0,"928 PEARL ST
BOULDER, CO 80302
(40.017202, -105.283305)"
"FA0000666","JAX FISH HOUSE","928 PEARL ST","928",NULL,"PEARL","ST",NULL,"BOULDER","CO","80302","RESTAURANT 0 TO 100 SEATS","FULL SERVICE FULL MENU","ROUTINE INSPECTION","2016-03-04","04B","Mechanical",0,"Critical","In",40,"928 PEARL ST
BOULDER, CO 80302
(40.017202, -105.283305)"
"FA0000666","JAX FISH HOUSE","928 PEARL ST","928",NULL,"PEARL","ST",NULL,"BOULDER","CO","80302","RESTAURANT 0 TO 100 SEATS","FULL SERVICE FULL MENU","ACTIVE MANAGEMENT CONTROL (AMC)","2016-03-04","AM19","Written Employee Illness Policy",5,"Non-Critical","Full",60,"928 PEARL ST
BOULDER, CO 80302
(40.017202, -105.283305)"
"FA0000666","JAX FISH HOUSE","928 PEARL ST","928",NULL,"PEARL","ST",NULL,"BOULDER","CO","80302","RESTAURANT 0 TO 100 SEATS","FULL SERVICE FULL MENU","FOLLOW-UP INSPECTION","2013-03-26","14H","Separation of Living Laundry",0,"Non-Critical","Not Observed",0,"928 PEARL ST
BOULDER, CO 80302
(40.017202, -105.283305)"
"FA0000666","JAX FISH HOUSE","928 PEARL ST","928",NULL,"PEARL","ST",NULL,"BOULDER","CO","80302","RESTAURANT 0 TO 100 SEATS","FULL SERVICE FULL MENU","ACTIVE MANAGEMENT CONTROL (AMC)","2017-08-03","AM25","Document Thermometer Calibration",5,"Non-Critical","In",50,"928 PEARL ST
BOULDER, CO 80302
(40.017202, -105.283305)"
"FA0000666","JAX FISH HOUSE","928 PEARL ST","928",NULL,"PEARL","ST",NULL,"BOULDER","CO","80302","RESTAURANT 0 TO 100 SEATS","FULL SERVICE FULL MENU","INVESTIGATION INSPECTION","2013-07-31","03F","Food Thermometer",0,"Critical","Not Observed",12,"928 PEARL ST
BOULDER, CO 80302
(40.017202, -105.283305)"
"FA0000666","JAX FISH HOUSE","928 PEARL ST","928",NULL,"PEARL","ST",NULL,"BOULDER","CO","80302","RESTAURANT 0 TO 100 SEATS","FULL SERVICE FULL MENU","INVESTIGATION INSPECTION","2013-07-31","01A","Approved Source",0,"Critical","In",12,"928 PEARL ST
BOULDER, CO 80302
(40.017202, -105.283305)"
"FA0000666","JAX FISH HOUSE","928 PEARL ST","928",NULL,"PEARL","ST",NULL,"BOULDER","CO","80302","RESTAURANT 0 TO 100 SEATS","FULL SERVICE FULL MENU","ACTIVE MANAGEMENT CONTROL (AMC)","2013-03-26","AM23","Thin Probe Available",5,"Non-Critical","Full",60,"928 PEARL ST
BOULDER, CO 80302
(40.017202, -105.283305)"
"FA0000666","JAX FISH HOUSE","928 PEARL ST","928",NULL,"PEARL","ST",NULL,"BOULDER","CO","80302","RESTAURANT 0 TO 100 SEATS","FULL SERVICE FULL MENU","FOLLOW UP -GREEN STICKER","2013-02-27","14F","Locker Rooms",0,"Non-Critical","Not Observed",0,"928 PEARL ST
BOULDER, CO 80302
(40.017202, -105.283305)"
"FA0000666","JAX FISH HOUSE","928 PEARL ST","928",NULL,"PEARL","ST",NULL,"BOULDER","CO","80302","RESTAURANT 0 TO 100 SEATS","FULL SERVICE FULL MENU","FOLLOW-UP INSPECTION","2013-03-26","09B","Food Protected from Contamination",0,"Non-Critical","Not Observed",0,"928 PEARL ST
BOULDER, CO 80302
(40.017202, -105.283305)"
"FA0000666","JAX FISH HOUSE","928 PEARL ST","928",NULL,"PEARL","ST",NULL,"BOULDER","CO","80302","RESTAURANT 0 TO 100 SEATS","FULL SERVICE FULL MENU","ACTIVE MANAGEMENT CONTROL (AMC)","2016-03-04","AM3","All Staff Receive Formal Food Safety Training",10,"Non-Critical","Full",60,"928 PEARL ST
BOULDER, CO 80302
(40.017202, -105.283305)"
"FA0000666","JAX FISH HOUSE","928 PEARL ST","928",NULL,"PEARL","ST",NULL,"BOULDER","CO","80302","RESTAURANT 0 TO 100 SEATS","FULL SERVICE FULL MENU","FOLLOW-UP INSPECTION","2013-03-26","14G","Premises Maintained",0,"Non-Critical","Not Observed",0,"928 PEARL ST
BOULDER, CO 80302
(40.017202, -105.283305)"
"FA0000666","JAX FISH HOUSE","928 PEARL ST","928",NULL,"PEARL","ST",NULL,"BOULDER","CO","80302","RESTAURANT 0 TO 100 SEATS","FULL SERVICE FULL MENU","FOLLOW-UP INSPECTION","2013-03-26","07A","Evidence of Insects or Rodents",0,"Critical","Not Observed",0,"928 PEARL ST
BOULDER, CO 80302
(40.017202, -105.283305)"
"FA0000666","JAX FISH HOUSE","928 PEARL ST","928",NULL,"PEARL","ST",NULL,"BOULDER","CO","80302","RESTAURANT 0 TO 100 SEATS","FULL SERVICE FULL MENU","FOLLOW UP -GREEN STICKER","2013-02-27","01D","HACCP Plan",0,"Critical","Not Observed",0,"928 PEARL ST
BOULDER, CO 80302
(40.017202, -105.283305)"
"FA0000666","JAX FISH HOUSE","928 PEARL ST","928",NULL,"PEARL","ST",NULL,"BOULDER","CO","80302","RESTAURANT 0 TO 100 SEATS","FULL SERVICE FULL MENU","FOLLOW UP -GREEN STICKER","2013-02-27","06A","Adequate Number Location Design",0,"Critical","Not Observed",0,"928 PEARL ST
BOULDER, CO 80302
(40.017202, -105.283305)"
"FA0000666","JAX FISH HOUSE","928 PEARL ST","928",NULL,"PEARL","ST",NULL,"BOULDER","CO","80302","RESTAURANT 0 TO 100 SEATS","FULL SERVICE FULL MENU","COMPLAINT INSPECTION","2017-08-03","02G","No Bare Hand Contact",0,"Critical","In",35,"928 PEARL ST
BOULDER, CO 80302
(40.017202, -105.283305)"
"FA0000666","JAX FISH HOUSE","928 PEARL ST","928",NULL,"PEARL","ST",NULL,"BOULDER","CO","80302","RESTAURANT 0 TO 100 SEATS","FULL SERVICE FULL MENU","INVESTIGATION INSPECTION","2013-07-31","14G","Premises Maintained",0,"Non-Critical","Not Observed",12,"928 PEARL ST
BOULDER, CO 80302
(40.017202, -105.283305)"
"FA0000666","JAX FISH HOUSE","928 PEARL ST","928",NULL,"PEARL","ST",NULL,"BOULDER","CO","80302","RESTAURANT 0 TO 100 SEATS","FULL SERVICE FULL MENU","ACTIVE MANAGEMENT CONTROL (AMC)","2017-08-03","AM5","Conduct Daily Food Safety Inspections",10,"Non-Critical","In",50,"928 PEARL ST
BOULDER, CO 80302
(40.017202, -105.283305)"
"FA0000666","JAX FISH HOUSE","928 PEARL ST","928",NULL,"PEARL","ST",NULL,"BOULDER","CO","80302","RESTAURANT 0 TO 100 SEATS","FULL SERVICE FULL MENU","FOLLOW UP -GREEN STICKER","2013-02-27","05D","Sewage Disposal",0,"Critical","Not Observed",0,"928 PEARL ST
BOULDER, CO 80302
(40.017202, -105.283305)"
"FA0000666","JAX FISH HOUSE","928 PEARL ST","928",NULL,"PEARL","ST",NULL,"BOULDER","CO","80302","RESTAURANT 0 TO 100 SEATS","FULL SERVICE FULL MENU","FOLLOW-UP INSPECTION","2013-03-26","05B","Hot and Cold Water Under Pressure",0,"Critical","Not Observed",0,"928 PEARL ST
BOULDER, CO 80302
(40.017202, -105.283305)"
"FA0000666","JAX FISH HOUSE","928 PEARL ST","928",NULL,"PEARL","ST",NULL,"BOULDER","CO","80302","RESTAURANT 0 TO 100 SEATS","FULL SERVICE FULL MENU","FOLLOW-UP INSPECTION","2013-03-26","02F","Training Needed",0,"Critical","Not Observed",0,"928 PEARL ST
BOULDER, CO 80302
(40.017202, -105.283305)"
"FA0000666","JAX FISH HOUSE","928 PEARL ST","928",NULL,"PEARL","ST",NULL,"BOULDER","CO","80302","RESTAURANT 0 TO 100 SEATS","FULL SERVICE FULL MENU","INVESTIGATION INSPECTION","2013-07-31","02F","Training Needed",0,"Critical","Not Observed",12,"928 PEARL ST
BOULDER, CO 80302
(40.017202, -105.283305)"
"FA0000666","JAX FISH HOUSE","928 PEARL ST","928",NULL,"PEARL","ST",NULL,"BOULDER","CO","80302","RESTAURANT 0 TO 100 SEATS","FULL SERVICE FULL MENU","COMPLAINT INSPECTION","2017-08-03","13A","Equipment Utensils Provided Used, Stored",0,"Non-Critical","Not Observed",35,"928 PEARL ST
BOULDER, CO 80302
(40.017202, -105.283305)"
"FA0000666","JAX FISH HOUSE","928 PEARL ST","928",NULL,"PEARL","ST",NULL,"BOULDER","CO","80302","RESTAURANT 0 TO 100 SEATS","FULL SERVICE FULL MENU","ACTIVE MANAGEMENT CONTROL (AMC)","2013-03-26","AM1","Certified Food Safety Manager",10,"Non-Critical","Full",60,"928 PEARL ST
BOULDER, CO 80302
(40.017202, -105.283305)"
"FA0000666","JAX FISH HOUSE","928 PEARL ST","928",NULL,"PEARL","ST",NULL,"BOULDER","CO","80302","RESTAURANT 0 TO 100 SEATS","FULL SERVICE FULL MENU","FOLLOW-UP INSPECTION","2013-03-26","12B","Non-Food Contact Surfaces Cleaning",0,"Non-Critical","Not Observed",0,"928 PEARL ST
BOULDER, CO 80302
(40.017202, -105.283305)"
"FA0000666","JAX FISH HOUSE","928 PEARL ST","928",NULL,"PEARL","ST",NULL,"BOULDER","CO","80302","RESTAURANT 0 TO 100 SEATS","FULL SERVICE FULL MENU","FOLLOW UP -GREEN STICKER","2013-02-27","08B","Properly Labeled",0,"Critical","Not Observed",0,"928 PEARL ST
BOULDER, CO 80302
(40.017202, -105.283305)"
"FA0000666","JAX FISH HOUSE","928 PEARL ST","928",NULL,"PEARL","ST",NULL,"BOULDER","CO","80302","RESTAURANT 0 TO 100 SEATS","FULL SERVICE FULL MENU","INVESTIGATION INSPECTION","2013-07-31","04B","Mechanical",0,"Critical","Not Observed",12,"928 PEARL ST
BOULDER, CO 80302
(40.017202, -105.283305)"
"FA0000666","JAX FISH HOUSE","928 PEARL ST","928",NULL,"PEARL","ST",NULL,"BOULDER","CO","80302","RESTAURANT 0 TO 100 SEATS","FULL SERVICE FULL MENU","FOLLOW UP -GREEN STICKER","2013-02-27","02A","Personnel With Infections Restricted",0,"Critical","Not Observed",0,"928 PEARL ST
BOULDER, CO 80302
(40.017202, -105.283305)"
"FA0000666","JAX FISH HOUSE","928 PEARL ST","928",NULL,"PEARL","ST",NULL,"BOULDER","CO","80302","RESTAURANT 0 TO 100 SEATS","FULL SERVICE FULL MENU","FOLLOW-UP INSPECTION","2013-03-26","06C","Soap and Drying Devices",0,"Critical","In",0,"928 PEARL ST
BOULDER, CO 80302
(40.017202, -105.283305)"
"FA0000666","JAX FISH HOUSE","928 PEARL ST","928",NULL,"PEARL","ST",NULL,"BOULDER","CO","80302","RESTAURANT 0 TO 100 SEATS","FULL SERVICE FULL MENU","ACTIVE MANAGEMENT CONTROL (AMC)","2013-03-26","AM24","Document Food Temperatures Frequently Cooling Initial Cook Receiving & Reheating",5,"Non-Critical","Full",60,"928 PEARL ST
BOULDER, CO 80302
(40.017202, -105.283305)"
"FA0000666","JAX FISH HOUSE","928 PEARL ST","928",NULL,"PEARL","ST",NULL,"BOULDER","CO","80302","RESTAURANT 0 TO 100 SEATS","FULL SERVICE FULL MENU","ROUTINE INSPECTION","2018-12-14","03D","Required Cooking Temperature",0,"Critical","In",15,"928 PEARL ST
BOULDER, CO 80302
(40.017202, -105.283305)"
"FA0000666","JAX FISH HOUSE","928 PEARL ST","928",NULL,"PEARL","ST",NULL,"BOULDER","CO","80302","RESTAURANT 0 TO 100 SEATS","FULL SERVICE FULL MENU","ACTIVE MANAGEMENT CONTROL (AMC)","2017-08-03","AM19","Written Employee Illness Policy",5,"Non-Critical","In",50,"928 PEARL ST
BOULDER, CO 80302
(40.017202, -105.283305)"
"FA0000666","JAX FISH HOUSE","928 PEARL ST","928",NULL,"PEARL","ST",NULL,"BOULDER","CO","80302","RESTAURANT 0 TO 100 SEATS","FULL SERVICE FULL MENU","INVESTIGATION INSPECTION","2013-07-31","14A","Plumbing Installed Maintained",0,"Non-Critical","Not Observed",12,"928 PEARL ST
BOULDER, CO 80302
(40.017202, -105.283305)"
"FA0000666","JAX FISH HOUSE","928 PEARL ST","928",NULL,"PEARL","ST",NULL,"BOULDER","CO","80302","RESTAURANT 0 TO 100 SEATS","FULL SERVICE FULL MENU","COMPLAINT INSPECTION","2017-08-03","03B","Rapidly Reheat to 165 Degrees or Greater",20,"Critical","Out",35,"928 PEARL ST
BOULDER, CO 80302
(40.017202, -105.283305)"
"FA0000666","JAX FISH HOUSE","928 PEARL ST","928",NULL,"PEARL","ST",NULL,"BOULDER","CO","80302","RESTAURANT 0 TO 100 SEATS","FULL SERVICE FULL MENU","FOLLOW UP -GREEN STICKER","2013-02-27","02F","Training Needed",0,"Critical","Not Observed",0,"928 PEARL ST
BOULDER, CO 80302
(40.017202, -105.283305)"
"FA0000666","JAX FISH HOUSE","928 PEARL ST","928",NULL,"PEARL","ST",NULL,"BOULDER","CO","80302","RESTAURANT 0 TO 100 SEATS","FULL SERVICE FULL MENU","COMPLAINT INSPECTION","2017-08-03","01D","HACCP Plan",0,"Critical","Not Applicable",35,"928 PEARL ST
BOULDER, CO 80302
(40.017202, -105.283305)"
"FA0000666","JAX FISH HOUSE","928 PEARL ST","928",NULL,"PEARL","ST",NULL,"BOULDER","CO","80302","RESTAURANT 0 TO 100 SEATS","FULL SERVICE FULL MENU","INVESTIGATION INSPECTION","2013-07-31","02A","Personnel With Infections Restricted",0,"Critical","In",12,"928 PEARL ST
BOULDER, CO 80302
(40.017202, -105.283305)"
"FA0000666","JAX FISH HOUSE","928 PEARL ST","928",NULL,"PEARL","ST",NULL,"BOULDER","CO","80302","RESTAURANT 0 TO 100 SEATS","FULL SERVICE FULL MENU","FOLLOW UP -GREEN STICKER","2013-02-27","09B","Food Protected from Contamination",0,"Non-Critical","Not Observed",0,"928 PEARL ST
BOULDER, CO 80302
(40.017202, -105.283305)"
"FA0000666","JAX FISH HOUSE","928 PEARL ST","928",NULL,"PEARL","ST",NULL,"BOULDER","CO","80302","RESTAURANT 0 TO 100 SEATS","FULL SERVICE FULL MENU","ACTIVE MANAGEMENT CONTROL (AMC)","2013-03-26","AM20","Paid Sick Leave",5,"Non-Critical","In",60,"928 PEARL ST
BOULDER, CO 80302
(40.017202, -105.283305)"
"FA0000666","JAX FISH HOUSE","928 PEARL ST","928",NULL,"PEARL","ST",NULL,"BOULDER","CO","80302","RESTAURANT 0 TO 100 SEATS","FULL SERVICE FULL MENU","FOLLOW UP -GREEN STICKER","2013-02-27","10A","Food-Contact Surfaces Construction",0,"Non-Critical","Not Observed",0,"928 PEARL ST
BOULDER, CO 80302
(40.017202, -105.283305)"
"FA0000666","JAX FISH HOUSE","928 PEARL ST","928",NULL,"PEARL","ST",NULL,"BOULDER","CO","80302","RESTAURANT 0 TO 100 SEATS","FULL SERVICE FULL MENU","COMPLAINT INSPECTION","2017-08-03","08A","Properly Stored",0,"Critical","In",35,"928 PEARL ST
BOULDER, CO 80302
(40.017202, -105.283305)"
"FA0000666","JAX FISH HOUSE","928 PEARL ST","928",NULL,"PEARL","ST",NULL,"BOULDER","CO","80302","RESTAURANT 0 TO 100 SEATS","FULL SERVICE FULL MENU","FOLLOW UP -GREEN STICKER","2013-02-27","13C","No Reuse of Single Service Articles",0,"Non-Critical","Not Observed",0,"928 PEARL ST
BOULDER, CO 80302
(40.017202, -105.283305)"
"FA0000666","JAX FISH HOUSE","928 PEARL ST","928",NULL,"PEARL","ST",NULL,"BOULDER","CO","80302","RESTAURANT 0 TO 100 SEATS","FULL SERVICE FULL MENU","FOLLOW-UP INSPECTION","2013-03-26","03C","Hot Hold at 135 Degrees Farenheit or Greater",0,"Critical","Not Observed",0,"928 PEARL ST
BOULDER, CO 80302
(40.017202, -105.283305)"
"FA0000666","JAX FISH HOUSE","928 PEARL ST","928",NULL,"PEARL","ST",NULL,"BOULDER","CO","80302","RESTAURANT 0 TO 100 SEATS","FULL SERVICE FULL MENU","ACTIVE MANAGEMENT CONTROL (AMC)","2013-03-26","AM3","All Staff Receive Formal Food Safety Training",10,"Non-Critical","Full",60,"928 PEARL ST
BOULDER, CO 80302
(40.017202, -105.283305)"
"FA0000666","JAX FISH HOUSE","928 PEARL ST","928",NULL,"PEARL","ST",NULL,"BOULDER","CO","80302","RESTAURANT 0 TO 100 SEATS","FULL SERVICE FULL MENU","ACTIVE MANAGEMENT CONTROL (AMC)","2017-08-03","AM18","Document Sanitizer Concentrations and Usage",10,"Non-Critical","In",50,"928 PEARL ST
BOULDER, CO 80302
(40.017202, -105.283305)"
"FA0000666","JAX FISH HOUSE","928 PEARL ST","928",NULL,"PEARL","ST",NULL,"BOULDER","CO","80302","RESTAURANT 0 TO 100 SEATS","FULL SERVICE FULL MENU","INVESTIGATION INSPECTION","2013-07-31","11C","Chemical Test Kits Provided Accessible",0,"Non-Critical","Not Observed",12,"928 PEARL ST
BOULDER, CO 80302
(40.017202, -105.283305)"
"FA0000666","JAX FISH HOUSE","928 PEARL ST","928",NULL,"PEARL","ST",NULL,"BOULDER","CO","80302","RESTAURANT 0 TO 100 SEATS","FULL SERVICE FULL MENU","FOLLOW UP -GREEN STICKER","2013-02-27","08C","Properly Used",0,"Critical","Not Observed",0,"928 PEARL ST
BOULDER, CO 80302
(40.017202, -105.283305)"
"FA0000666","JAX FISH HOUSE","928 PEARL ST","928",NULL,"PEARL","ST",NULL,"BOULDER","CO","80302","RESTAURANT 0 TO 100 SEATS","FULL SERVICE FULL MENU","FOLLOW-UP INSPECTION","2013-03-26","05C","Backflow Back Siphonage",0,"Critical","Not Observed",0,"928 PEARL ST
BOULDER, CO 80302
(40.017202, -105.283305)"
"FA0000666","JAX FISH HOUSE","928 PEARL ST","928",NULL,"PEARL","ST",NULL,"BOULDER","CO","80302","RESTAURANT 0 TO 100 SEATS","FULL SERVICE FULL MENU","INVESTIGATION INSPECTION","2013-07-31","12B","Non-Food Contact Surfaces Cleaning",0,"Non-Critical","Not Observed",12,"928 PEARL ST
BOULDER, CO 80302
(40.017202, -105.283305)"
"FA0000666","JAX FISH HOUSE","928 PEARL ST","928",NULL,"PEARL","ST",NULL,"BOULDER","CO","80302","RESTAURANT 0 TO 100 SEATS","FULL SERVICE FULL MENU","FOLLOW-UP INSPECTION","2013-03-26","05D","Sewage Disposal",0,"Critical","Not Observed",0,"928 PEARL ST
BOULDER, CO 80302
(40.017202, -105.283305)"
"FA0000666","JAX FISH HOUSE","928 PEARL ST","928",NULL,"PEARL","ST",NULL,"BOULDER","CO","80302","RESTAURANT 0 TO 100 SEATS","FULL SERVICE FULL MENU","INVESTIGATION INSPECTION","2013-07-31","07B","Pesticide Application",0,"Critical","Not Observed",12,"928 PEARL ST
BOULDER, CO 80302
(40.017202, -105.283305)"
"FA0000666","JAX FISH HOUSE","928 PEARL ST","928",NULL,"PEARL","ST",NULL,"BOULDER","CO","80302","RESTAURANT 0 TO 100 SEATS","FULL SERVICE FULL MENU","ACTIVE MANAGEMENT CONTROL (AMC)","2017-08-03","AM10","Document Handwashing Glove Use",10,"Non-Critical","In",50,"928 PEARL ST
BOULDER, CO 80302
(40.017202, -105.283305)"
"FA0000666","JAX FISH HOUSE","928 PEARL ST","928",NULL,"PEARL","ST",NULL,"BOULDER","CO","80302","RESTAURANT 0 TO 100 SEATS","FULL SERVICE FULL MENU","COMPLAINT INSPECTION","2017-08-03","14C","Floors Walls Ceilings",0,"Non-Critical","Not Observed",35,"928 PEARL ST
BOULDER, CO 80302
(40.017202, -105.283305)"
"FA0000666","JAX FISH HOUSE","928 PEARL ST","928",NULL,"PEARL","ST",NULL,"BOULDER","CO","80302","RESTAURANT 0 TO 100 SEATS","FULL SERVICE FULL MENU","ACTIVE MANAGEMENT CONTROL (AMC)","2016-03-04","AM25","Document Thermometer Calibration",5,"Non-Critical","In",60,"928 PEARL ST
BOULDER, CO 80302
(40.017202, -105.283305)"
"FA0000666","JAX FISH HOUSE","928 PEARL ST","928",NULL,"PEARL","ST",NULL,"BOULDER","CO","80302","RESTAURANT 0 TO 100 SEATS","FULL SERVICE FULL MENU","INVESTIGATION INSPECTION","2013-07-31","03E","Cold Hold at 41 Degrees or Less",0,"Critical","In",12,"928 PEARL ST
BOULDER, CO 80302
(40.017202, -105.283305)"
"FA0000666","JAX FISH HOUSE","928 PEARL ST","928",NULL,"PEARL","ST",NULL,"BOULDER","CO","80302","RESTAURANT 0 TO 100 SEATS","FULL SERVICE FULL MENU","COMPLAINT INSPECTION","2017-08-03","12D","Wiping Cloths",0,"Non-Critical","Not Observed",35,"928 PEARL ST
BOULDER, CO 80302
(40.017202, -105.283305)"
"FA0000666","JAX FISH HOUSE","928 PEARL ST","928",NULL,"PEARL","ST",NULL,"BOULDER","CO","80302","RESTAURANT 0 TO 100 SEATS","FULL SERVICE FULL MENU","COMPLAINT INSPECTION","2017-08-03","14A","Plumbing Installed Maintained",0,"Non-Critical","Not Observed",35,"928 PEARL ST
BOULDER, CO 80302
(40.017202, -105.283305)"
"FA0000666","JAX FISH HOUSE","928 PEARL ST","928",NULL,"PEARL","ST",NULL,"BOULDER","CO","80302","RESTAURANT 0 TO 100 SEATS","FULL SERVICE FULL MENU","INVESTIGATION INSPECTION","2013-07-31","09B","Food Protected from Contamination",2,"Non-Critical","Out",12,"928 PEARL ST
BOULDER, CO 80302
(40.017202, -105.283305)"
"FA0000666","JAX FISH HOUSE","928 PEARL ST","928",NULL,"PEARL","ST",NULL,"BOULDER","CO","80302","RESTAURANT 0 TO 100 SEATS","FULL SERVICE FULL MENU","INVESTIGATION INSPECTION","2013-07-31","01B","Wholesome Free of Spoilage",0,"Critical","Not Observed",12,"928 PEARL ST
BOULDER, CO 80302
(40.017202, -105.283305)"
"FA0000666","JAX FISH HOUSE","928 PEARL ST","928",NULL,"PEARL","ST",NULL,"BOULDER","CO","80302","RESTAURANT 0 TO 100 SEATS","FULL SERVICE FULL MENU","COMPLAINT INSPECTION","2017-08-03","01E","Date Marking",0,"Critical","Not Applicable",35,"928 PEARL ST
BOULDER, CO 80302
(40.017202, -105.283305)"
"FA0000666","JAX FISH HOUSE","928 PEARL ST","928",NULL,"PEARL","ST",NULL,"BOULDER","CO","80302","RESTAURANT 0 TO 100 SEATS","FULL SERVICE FULL MENU","FOLLOW-UP INSPECTION","2013-03-26","03A","Cooling Methods",0,"Critical","In",0,"928 PEARL ST
BOULDER, CO 80302
(40.017202, -105.283305)"
"FA0000666","JAX FISH HOUSE","928 PEARL ST","928",NULL,"PEARL","ST",NULL,"BOULDER","CO","80302","RESTAURANT 0 TO 100 SEATS","FULL SERVICE FULL MENU","INVESTIGATION INSPECTION","2013-07-31","09A","Original Container Properly Labeled",0,"Non-Critical","Not Observed",12,"928 PEARL ST
BOULDER, CO 80302
(40.017202, -105.283305)"
"FA0000666","JAX FISH HOUSE","928 PEARL ST","928",NULL,"PEARL","ST",NULL,"BOULDER","CO","80302","RESTAURANT 0 TO 100 SEATS","FULL SERVICE FULL MENU","INVESTIGATION INSPECTION","2013-07-31","14C","Floors Walls Ceilings",0,"Non-Critical","Not Observed",12,"928 PEARL ST
BOULDER, CO 80302
(40.017202, -105.283305)"
"FA0000666","JAX FISH HOUSE","928 PEARL ST","928",NULL,"PEARL","ST",NULL,"BOULDER","CO","80302","RESTAURANT 0 TO 100 SEATS","FULL SERVICE FULL MENU","FOLLOW-UP INSPECTION","2013-03-26","03E","Cold Hold at 41 Degrees or Less",0,"Critical","In",0,"928 PEARL ST
BOULDER, CO 80302
(40.017202, -105.283305)"
"FA0000666","JAX FISH HOUSE","928 PEARL ST","928",NULL,"PEARL","ST",NULL,"BOULDER","CO","80302","RESTAURANT 0 TO 100 SEATS","FULL SERVICE FULL MENU","FOLLOW UP -GREEN STICKER","2013-02-27","03G","Adequate Equipment to Maintain Food Temperatures",0,"Critical","Not Observed",0,"928 PEARL ST
BOULDER, CO 80302
(40.017202, -105.283305)"
"FA0000666","JAX FISH HOUSE","928 PEARL ST","928",NULL,"PEARL","ST",NULL,"BOULDER","CO","80302","RESTAURANT 0 TO 100 SEATS","FULL SERVICE FULL MENU","COMPLAINT INSPECTION","2017-08-03","06B","Accessible",0,"Critical","In",35,"928 PEARL ST
BOULDER, CO 80302
(40.017202, -105.283305)"
"FA0000666","JAX FISH HOUSE","928 PEARL ST","928",NULL,"PEARL","ST",NULL,"BOULDER","CO","80302","RESTAURANT 0 TO 100 SEATS","FULL SERVICE FULL MENU","FOLLOW-UP INSPECTION","2013-03-26","15A","Personnel: Clean Clothes Hair Restraints Authorizat",0,"Non-Critical","Not Observed",0,"928 PEARL ST
BOULDER, CO 80302
(40.017202, -105.283305)"
"FA0000666","JAX FISH HOUSE","928 PEARL ST","928",NULL,"PEARL","ST",NULL,"BOULDER","CO","80302","RESTAURANT 0 TO 100 SEATS","FULL SERVICE FULL MENU","COMPLAINT INSPECTION","2017-08-03","09A","Original Container Properly Labeled",0,"Non-Critical","Not Observed",35,"928 PEARL ST
BOULDER, CO 80302
(40.017202, -105.283305)"
"FA0000666","JAX FISH HOUSE","928 PEARL ST","928",NULL,"PEARL","ST",NULL,"BOULDER","CO","80302","RESTAURANT 0 TO 100 SEATS","FULL SERVICE FULL MENU","ACTIVE MANAGEMENT CONTROL (AMC)","2017-08-03","AM20","Paid Sick Leave",5,"Non-Critical","In",50,"928 PEARL ST
BOULDER, CO 80302
(40.017202, -105.283305)"
"FA0000666","JAX FISH HOUSE","928 PEARL ST","928",NULL,"PEARL","ST",NULL,"BOULDER","CO","80302","RESTAURANT 0 TO 100 SEATS","FULL SERVICE FULL MENU","ACTIVE MANAGEMENT CONTROL (AMC)","2017-08-03","AM23","Thin Probe Available",5,"Non-Critical","Full",50,"928 PEARL ST
BOULDER, CO 80302
(40.017202, -105.283305)"
"FA0000666","JAX FISH HOUSE","928 PEARL ST","928",NULL,"PEARL","ST",NULL,"BOULDER","CO","80302","RESTAURANT 0 TO 100 SEATS","FULL SERVICE FULL MENU","ACTIVE MANAGEMENT CONTROL (AMC)","2013-03-26","AM5","Conduct Daily Food Safety Inspections",10,"Non-Critical","In",60,"928 PEARL ST
BOULDER, CO 80302
(40.017202, -105.283305)"
"FA0000666","JAX FISH HOUSE","928 PEARL ST","928",NULL,"PEARL","ST",NULL,"BOULDER","CO","80302","RESTAURANT 0 TO 100 SEATS","FULL SERVICE FULL MENU","ACTIVE MANAGEMENT CONTROL (AMC)","2017-08-03","AM7","Private Corporate Food Safety Inspections",10,"Non-Critical","Full",50,"928 PEARL ST
BOULDER, CO 80302
(40.017202, -105.283305)"
"FA0000666","JAX FISH HOUSE","928 PEARL ST","928",NULL,"PEARL","ST",NULL,"BOULDER","CO","80302","RESTAURANT 0 TO 100 SEATS","FULL SERVICE FULL MENU","FOLLOW UP -GREEN STICKER","2013-02-27","14G","Premises Maintained",0,"Non-Critical","Not Observed",0,"928 PEARL ST
BOULDER, CO 80302
(40.017202, -105.283305)"
"FA0000666","JAX FISH HOUSE","928 PEARL ST","928",NULL,"PEARL","ST",NULL,"BOULDER","CO","80302","RESTAURANT 0 TO 100 SEATS","FULL SERVICE FULL MENU","FOLLOW-UP INSPECTION","2013-03-26","02E","Smoking Eating Drinking",0,"Critical","Not Observed",0,"928 PEARL ST
BOULDER, CO 80302
(40.017202, -105.283305)"
"FA0000666","JAX FISH HOUSE","928 PEARL ST","928",NULL,"PEARL","ST",NULL,"BOULDER","CO","80302","RESTAURANT 0 TO 100 SEATS","FULL SERVICE FULL MENU","ACTIVE MANAGEMENT CONTROL (AMC)","2013-03-26","AM25","Document Thermometer Calibration",5,"Non-Critical","In",60,"928 PEARL ST
BOULDER, CO 80302
(40.017202, -105.283305)"
"FA0000666","JAX FISH HOUSE","928 PEARL ST","928",NULL,"PEARL","ST",NULL,"BOULDER","CO","80302","RESTAURANT 0 TO 100 SEATS","FULL SERVICE FULL MENU","FOLLOW-UP INSPECTION","2013-03-26","04A","Manual",0,"Critical","Not Observed",0,"928 PEARL ST
BOULDER, CO 80302
(40.017202, -105.283305)"
"FA0000666","JAX FISH HOUSE","928 PEARL ST","928",NULL,"PEARL","ST",NULL,"BOULDER","CO","80302","RESTAURANT 0 TO 100 SEATS","FULL SERVICE FULL MENU","COMPLAINT INSPECTION","2017-08-03","02C","Hands Washed As Needed",0,"Critical","In",35,"928 PEARL ST
BOULDER, CO 80302
(40.017202, -105.283305)"
"FA0000666","JAX FISH HOUSE","928 PEARL ST","928",NULL,"PEARL","ST",NULL,"BOULDER","CO","80302","RESTAURANT 0 TO 100 SEATS","FULL SERVICE FULL MENU","FOLLOW UP -GREEN STICKER","2013-02-27","04B","Mechanical",0,"Critical","Not Observed",0,"928 PEARL ST
BOULDER, CO 80302
(40.017202, -105.283305)"
"FA0000666","JAX FISH HOUSE","928 PEARL ST","928",NULL,"PEARL","ST",NULL,"BOULDER","CO","80302","RESTAURANT 0 TO 100 SEATS","FULL SERVICE FULL MENU","FOLLOW-UP INSPECTION","2013-03-26","07C","Animals Prohibited",0,"Critical","Not Observed",0,"928 PEARL ST
BOULDER, CO 80302
(40.017202, -105.283305)"
"FA0000666","JAX FISH HOUSE","928 PEARL ST","928",NULL,"PEARL","ST",NULL,"BOULDER","CO","80302","RESTAURANT 0 TO 100 SEATS","FULL SERVICE FULL MENU","FOLLOW UP -GREEN STICKER","2013-02-27","02G","No Bare Hand Contact",0,"Critical","Not Observed",0,"928 PEARL ST
BOULDER, CO 80302
(40.017202, -105.283305)"
"FA0000666","JAX FISH HOUSE","928 PEARL ST","928",NULL,"PEARL","ST",NULL,"BOULDER","CO","80302","RESTAURANT 0 TO 100 SEATS","FULL SERVICE FULL MENU","FOLLOW UP -GREEN STICKER","2013-02-27","03A","Cooling Methods",0,"Critical","Not Observed",0,"928 PEARL ST
BOULDER, CO 80302
(40.017202, -105.283305)"
"FA0000666","JAX FISH HOUSE","928 PEARL ST","928",NULL,"PEARL","ST",NULL,"BOULDER","CO","80302","RESTAURANT 0 TO 100 SEATS","FULL SERVICE FULL MENU","FOLLOW UP -GREEN STICKER","2013-02-27","15B","Linen Properly Stored",0,"Non-Critical","Not Observed",0,"928 PEARL ST
BOULDER, CO 80302
(40.017202, -105.283305)"
"FA0000666","JAX FISH HOUSE","928 PEARL ST","928",NULL,"PEARL","ST",NULL,"BOULDER","CO","80302","RESTAURANT 0 TO 100 SEATS","FULL SERVICE FULL MENU","FOLLOW-UP INSPECTION","2013-03-26","06A","Adequate Number Location Design",0,"Critical","In",0,"928 PEARL ST
BOULDER, CO 80302
(40.017202, -105.283305)"
"FA0000666","JAX FISH HOUSE","928 PEARL ST","928",NULL,"PEARL","ST",NULL,"BOULDER","CO","80302","RESTAURANT 0 TO 100 SEATS","FULL SERVICE FULL MENU","INVESTIGATION INSPECTION","2013-07-31","13B","Single Service Articles Stored Dispensed Used",0,"Non-Critical","Not Observed",12,"928 PEARL ST
BOULDER, CO 80302
(40.017202, -105.283305)"
"FA0000666","JAX FISH HOUSE","928 PEARL ST","928",NULL,"PEARL","ST",NULL,"BOULDER","CO","80302","RESTAURANT 0 TO 100 SEATS","FULL SERVICE FULL MENU","INVESTIGATION INSPECTION","2013-07-31","02G","No Bare Hand Contact",0,"Critical","In",12,"928 PEARL ST
BOULDER, CO 80302
(40.017202, -105.283305)"
"FA0000666","JAX FISH HOUSE","928 PEARL ST","928",NULL,"PEARL","ST",NULL,"BOULDER","CO","80302","RESTAURANT 0 TO 100 SEATS","FULL SERVICE FULL MENU","FOLLOW UP -GREEN STICKER","2013-02-27","02E","Smoking Eating Drinking",0,"Critical","Not Observed",0,"928 PEARL ST
BOULDER, CO 80302
(40.017202, -105.283305)"
"FA0000666","JAX FISH HOUSE","928 PEARL ST","928",NULL,"PEARL","ST",NULL,"BOULDER","CO","80302","RESTAURANT 0 TO 100 SEATS","FULL SERVICE FULL MENU","FOLLOW UP -GREEN STICKER","2013-02-27","13A","Equipment Utensils Provided Used, Stored",0,"Non-Critical","Not Observed",0,"928 PEARL ST
BOULDER, CO 80302
(40.017202, -105.283305)"
"FA0000666","JAX FISH HOUSE","928 PEARL ST","928",NULL,"PEARL","ST",NULL,"BOULDER","CO","80302","RESTAURANT 0 TO 100 SEATS","FULL SERVICE FULL MENU","INVESTIGATION INSPECTION","2013-07-31","01C","Cross Contamination",0,"Critical","Not Observed",12,"928 PEARL ST
BOULDER, CO 80302
(40.017202, -105.283305)"
"FA0000666","JAX FISH HOUSE","928 PEARL ST","928",NULL,"PEARL","ST",NULL,"BOULDER","CO","80302","RESTAURANT 0 TO 100 SEATS","FULL SERVICE FULL MENU","COMPLAINT INSPECTION","2017-08-03","07B","Pesticide Application",0,"Critical","In",35,"928 PEARL ST
BOULDER, CO 80302
(40.017202, -105.283305)"
"FA0000666","JAX FISH HOUSE","928 PEARL ST","928",NULL,"PEARL","ST",NULL,"BOULDER","CO","80302","RESTAURANT 0 TO 100 SEATS","FULL SERVICE FULL MENU","ACTIVE MANAGEMENT CONTROL (AMC)","2017-08-03","AM26","Contracts for Preventative Maintenance Full For All 3 Half For 1 OR 2 NO For None",10,"Non-Critical","Full",50,"928 PEARL ST
BOULDER, CO 80302
(40.017202, -105.283305)"
"FA0000666","JAX FISH HOUSE","928 PEARL ST","928",NULL,"PEARL","ST",NULL,"BOULDER","CO","80302","RESTAURANT 0 TO 100 SEATS","FULL SERVICE FULL MENU","FOLLOW-UP INSPECTION","2013-03-26","11C","Chemical Test Kits Provided Accessible",0,"Non-Critical","Not Observed",0,"928 PEARL ST
BOULDER, CO 80302
(40.017202, -105.283305)"
"FA0000666","JAX FISH HOUSE","928 PEARL ST","928",NULL,"PEARL","ST",NULL,"BOULDER","CO","80302","RESTAURANT 0 TO 100 SEATS","FULL SERVICE FULL MENU","INVESTIGATION INSPECTION","2013-07-31","11A","Refrigeration Units With Accurate Thermometers",0,"Non-Critical","Not Observed",12,"928 PEARL ST
BOULDER, CO 80302
(40.017202, -105.283305)"
"FA0000666","JAX FISH HOUSE","928 PEARL ST","928",NULL,"PEARL","ST",NULL,"BOULDER","CO","80302","RESTAURANT 0 TO 100 SEATS","FULL SERVICE FULL MENU","FOLLOW-UP INSPECTION","2013-03-26","07B","Pesticide Application",0,"Critical","Not Observed",0,"928 PEARL ST
BOULDER, CO 80302
(40.017202, -105.283305)"
"FA0000666","JAX FISH HOUSE","928 PEARL ST","928",NULL,"PEARL","ST",NULL,"BOULDER","CO","80302","RESTAURANT 0 TO 100 SEATS","FULL SERVICE FULL MENU","COMPLAINT INSPECTION","2017-08-03","01F","Consumer Advisory",0,"Critical","In",35,"928 PEARL ST
BOULDER, CO 80302
(40.017202, -105.283305)"
"FA0000666","JAX FISH HOUSE","928 PEARL ST","928",NULL,"PEARL","ST",NULL,"BOULDER","CO","80302","RESTAURANT 0 TO 100 SEATS","FULL SERVICE FULL MENU","COMPLAINT INSPECTION","2017-08-03","10B","Non-Food Contact Surfaces Construction",0,"Non-Critical","Not Observed",35,"928 PEARL ST
BOULDER, CO 80302
(40.017202, -105.283305)"
"FA0000666","JAX FISH HOUSE","928 PEARL ST","928",NULL,"PEARL","ST",NULL,"BOULDER","CO","80302","RESTAURANT 0 TO 100 SEATS","FULL SERVICE FULL MENU","ACTIVE MANAGEMENT CONTROL (AMC)","2013-03-26","AM10","Document Handwashing Glove Use",10,"Non-Critical","In",60,"928 PEARL ST
BOULDER, CO 80302
(40.017202, -105.283305)"
"FA0000666","JAX FISH HOUSE","928 PEARL ST","928",NULL,"PEARL","ST",NULL,"BOULDER","CO","80302","RESTAURANT 0 TO 100 SEATS","FULL SERVICE FULL MENU","COMPLAINT INSPECTION","2017-08-03","02A","Personnel With Infections Restricted",0,"Critical","In",35,"928 PEARL ST
BOULDER, CO 80302
(40.017202, -105.283305)"
"FA0000666","JAX FISH HOUSE","928 PEARL ST","928",NULL,"PEARL","ST",NULL,"BOULDER","CO","80302","RESTAURANT 0 TO 100 SEATS","FULL SERVICE FULL MENU","INVESTIGATION INSPECTION","2013-07-31","06B","Accessible",0,"Critical","In",12,"928 PEARL ST
BOULDER, CO 80302
(40.017202, -105.283305)"
"FA0000666","JAX FISH HOUSE","928 PEARL ST","928",NULL,"PEARL","ST",NULL,"BOULDER","CO","80302","RESTAURANT 0 TO 100 SEATS","FULL SERVICE FULL MENU","COMPLAINT INSPECTION","2017-08-03","01A","Approved Source",0,"Critical","In",35,"928 PEARL ST
BOULDER, CO 80302
(40.017202, -105.283305)"
"FA0000666","JAX FISH HOUSE","928 PEARL ST","928",NULL,"PEARL","ST",NULL,"BOULDER","CO","80302","RESTAURANT 0 TO 100 SEATS","FULL SERVICE FULL MENU","FOLLOW-UP INSPECTION","2013-03-26","02B","Wounds Properly Covered",0,"Critical","Not Observed",0,"928 PEARL ST
BOULDER, CO 80302
(40.017202, -105.283305)"
"FA0000666","JAX FISH HOUSE","928 PEARL ST","928",NULL,"PEARL","ST",NULL,"BOULDER","CO","80302","RESTAURANT 0 TO 100 SEATS","FULL SERVICE FULL MENU","FOLLOW-UP INSPECTION","2013-03-26","14I","Physical Facilities Adequate Toilet Facilities",0,"Non-Critical","Not Observed",0,"928 PEARL ST
BOULDER, CO 80302
(40.017202, -105.283305)"
"FA0000666","JAX FISH HOUSE","928 PEARL ST","928",NULL,"PEARL","ST",NULL,"BOULDER","CO","80302","RESTAURANT 0 TO 100 SEATS","FULL SERVICE FULL MENU","FOLLOW UP -GREEN STICKER","2013-02-27","03F","Food Thermometer",0,"Critical","Not Observed",0,"928 PEARL ST
BOULDER, CO 80302
(40.017202, -105.283305)"
"FA0000666","JAX FISH HOUSE","928 PEARL ST","928",NULL,"PEARL","ST",NULL,"BOULDER","CO","80302","RESTAURANT 0 TO 100 SEATS","FULL SERVICE FULL MENU","ROUTINE INSPECTION","2013-02-26","03F","Food Thermometer",0,"Critical","Not Observed",60,"928 PEARL ST
BOULDER, CO 80302
(40.017202, -105.283305)"
"FA0000666","JAX FISH HOUSE","928 PEARL ST","928",NULL,"PEARL","ST",NULL,"BOULDER","CO","80302","RESTAURANT 0 TO 100 SEATS","FULL SERVICE FULL MENU","INVESTIGATION INSPECTION","2013-07-31","01D","HACCP Plan",0,"Critical","Not Observed",12,"928 PEARL ST
BOULDER, CO 80302
(40.017202, -105.283305)"
"FA0000666","JAX FISH HOUSE","928 PEARL ST","928",NULL,"PEARL","ST",NULL,"BOULDER","CO","80302","RESTAURANT 0 TO 100 SEATS","FULL SERVICE FULL MENU","INVESTIGATION INSPECTION","2013-07-31","04A","Manual",0,"Critical","Not Observed",12,"928 PEARL ST
BOULDER, CO 80302
(40.017202, -105.283305)"
"FA0000666","JAX FISH HOUSE","928 PEARL ST","928",NULL,"PEARL","ST",NULL,"BOULDER","CO","80302","RESTAURANT 0 TO 100 SEATS","FULL SERVICE FULL MENU","FOLLOW UP -GREEN STICKER","2013-02-27","03B","Rapidly Reheat to 165 Degrees or Greater",0,"Critical","Not Observed",0,"928 PEARL ST
BOULDER, CO 80302
(40.017202, -105.283305)"
"FA0000666","JAX FISH HOUSE","928 PEARL ST","928",NULL,"PEARL","ST",NULL,"BOULDER","CO","80302","RESTAURANT 0 TO 100 SEATS","FULL SERVICE FULL MENU","FOLLOW UP -GREEN STICKER","2013-02-27","13B","Single Service Articles Stored Dispensed Used",0,"Non-Critical","Not Observed",0,"928 PEARL ST
BOULDER, CO 80302
(40.017202, -105.283305)"
"FA0000666","JAX FISH HOUSE","928 PEARL ST","928",NULL,"PEARL","ST",NULL,"BOULDER","CO","80302","RESTAURANT 0 TO 100 SEATS","FULL SERVICE FULL MENU","INVESTIGATION INSPECTION","2013-07-31","03D","Required Cooking Temperature",0,"Critical","Not Observed",12,"928 PEARL ST
BOULDER, CO 80302
(40.017202, -105.283305)"
"FA0000666","JAX FISH HOUSE","928 PEARL ST","928",NULL,"PEARL","ST",NULL,"BOULDER","CO","80302","RESTAURANT 0 TO 100 SEATS","FULL SERVICE FULL MENU","ACTIVE MANAGEMENT CONTROL (AMC)","2016-03-04","AM7","Private Corporate Food Safety Inspections",10,"Non-Critical","Full",60,"928 PEARL ST
BOULDER, CO 80302
(40.017202, -105.283305)"
"FA0000666","JAX FISH HOUSE","928 PEARL ST","928",NULL,"PEARL","ST",NULL,"BOULDER","CO","80302","RESTAURANT 0 TO 100 SEATS","FULL SERVICE FULL MENU","FOLLOW-UP INSPECTION","2013-03-26","02G","No Bare Hand Contact",0,"Critical","Not Observed",0,"928 PEARL ST
BOULDER, CO 80302
(40.017202, -105.283305)"
"FA0000666","JAX FISH HOUSE","928 PEARL ST","928",NULL,"PEARL","ST",NULL,"BOULDER","CO","80302","RESTAURANT 0 TO 100 SEATS","FULL SERVICE FULL MENU","COMPLAINT INSPECTION","2017-08-03","11C","Chemical Test Kits Provided Accessible",0,"Non-Critical","Not Observed",35,"928 PEARL ST
BOULDER, CO 80302
(40.017202, -105.283305)"
"FA0000666","JAX FISH HOUSE","928 PEARL ST","928",NULL,"PEARL","ST",NULL,"BOULDER","CO","80302","RESTAURANT 0 TO 100 SEATS","FULL SERVICE FULL MENU","FOLLOW UP -GREEN STICKER","2013-02-27","02D","Hygienic Practices",0,"Critical","Not Observed",0,"928 PEARL ST
BOULDER, CO 80302
(40.017202, -105.283305)"
"FA0000666","JAX FISH HOUSE","928 PEARL ST","928",NULL,"PEARL","ST",NULL,"BOULDER","CO","80302","RESTAURANT 0 TO 100 SEATS","FULL SERVICE FULL MENU","INVESTIGATION INSPECTION","2013-07-31","14B","Garbage and Refuse",0,"Non-Critical","Not Observed",12,"928 PEARL ST
BOULDER, CO 80302
(40.017202, -105.283305)"
"FA0000666","JAX FISH HOUSE","928 PEARL ST","928",NULL,"PEARL","ST",NULL,"BOULDER","CO","80302","RESTAURANT 0 TO 100 SEATS","FULL SERVICE FULL MENU","INVESTIGATION INSPECTION","2013-07-31","15B","Linen Properly Stored",0,"Non-Critical","Not Observed",12,"928 PEARL ST
BOULDER, CO 80302
(40.017202, -105.283305)"
"FA0000666","JAX FISH HOUSE","928 PEARL ST","928",NULL,"PEARL","ST",NULL,"BOULDER","CO","80302","RESTAURANT 0 TO 100 SEATS","FULL SERVICE FULL MENU","INVESTIGATION INSPECTION","2013-07-31","03A","Cooling Methods",0,"Critical","Not Observed",12,"928 PEARL ST
BOULDER, CO 80302
(40.017202, -105.283305)"
"FA0000666","JAX FISH HOUSE","928 PEARL ST","928",NULL,"PEARL","ST",NULL,"BOULDER","CO","80302","RESTAURANT 0 TO 100 SEATS","FULL SERVICE FULL MENU","FOLLOW UP -GREEN STICKER","2013-02-27","06C","Soap and Drying Devices",0,"Critical","Not Observed",0,"928 PEARL ST
BOULDER, CO 80302
(40.017202, -105.283305)"
"FA0000666","JAX FISH HOUSE","928 PEARL ST","928",NULL,"PEARL","ST",NULL,"BOULDER","CO","80302","RESTAURANT 0 TO 100 SEATS","FULL SERVICE FULL MENU","ROUTINE INSPECTION","2018-12-14","03A","Cooling Methods",0,"Critical","In",15,"928 PEARL ST
BOULDER, CO 80302
(40.017202, -105.283305)"
"FA0000666","JAX FISH HOUSE","928 PEARL ST","928",NULL,"PEARL","ST",NULL,"BOULDER","CO","80302","RESTAURANT 0 TO 100 SEATS","FULL SERVICE FULL MENU","FOLLOW-UP INSPECTION","2013-03-26","12C","Dishwashing Operations",0,"Non-Critical","Not Observed",0,"928 PEARL ST
BOULDER, CO 80302
(40.017202, -105.283305)"
"FA0000666","JAX FISH HOUSE","928 PEARL ST","928",NULL,"PEARL","ST",NULL,"BOULDER","CO","80302","RESTAURANT 0 TO 100 SEATS","FULL SERVICE FULL MENU","ACTIVE MANAGEMENT CONTROL (AMC)","2017-08-03","AM3","All Staff Receive Formal Food Safety Training",10,"Non-Critical","Full",50,"928 PEARL ST
BOULDER, CO 80302
(40.017202, -105.283305)"
"FA0000666","JAX FISH HOUSE","928 PEARL ST","928",NULL,"PEARL","ST",NULL,"BOULDER","CO","80302","RESTAURANT 0 TO 100 SEATS","FULL SERVICE FULL MENU","FOLLOW UP -GREEN STICKER","2013-02-27","12C","Dishwashing Operations",0,"Non-Critical","Not Observed",0,"928 PEARL ST
BOULDER, CO 80302
(40.017202, -105.283305)"
"FA0000666","JAX FISH HOUSE","928 PEARL ST","928",NULL,"PEARL","ST",NULL,"BOULDER","CO","80302","RESTAURANT 0 TO 100 SEATS","FULL SERVICE FULL MENU","FOLLOW UP -GREEN STICKER","2013-02-27","11B","Dishmachine With Accurate Thermometer & Gauge Cock",0,"Non-Critical","Not Observed",0,"928 PEARL ST
BOULDER, CO 80302
(40.017202, -105.283305)"
"FA0000666","JAX FISH HOUSE","928 PEARL ST","928",NULL,"PEARL","ST",NULL,"BOULDER","CO","80302","RESTAURANT 0 TO 100 SEATS","FULL SERVICE FULL MENU","FOLLOW UP -GREEN STICKER","2013-02-27","01E","Date Marking",0,"Critical","Not Observed",0,"928 PEARL ST
BOULDER, CO 80302
(40.017202, -105.283305)"
"FA0000666","JAX FISH HOUSE","928 PEARL ST","928",NULL,"PEARL","ST",NULL,"BOULDER","CO","80302","RESTAURANT 0 TO 100 SEATS","FULL SERVICE FULL MENU","COMPLAINT INSPECTION","2017-08-03","14E","Ventilation",0,"Non-Critical","Not Observed",35,"928 PEARL ST
BOULDER, CO 80302
(40.017202, -105.283305)"
"FA0000666","JAX FISH HOUSE","928 PEARL ST","928",NULL,"PEARL","ST",NULL,"BOULDER","CO","80302","RESTAURANT 0 TO 100 SEATS","FULL SERVICE FULL MENU","ROUTINE INSPECTION","2013-02-26","14H","Separation of Living Laundry",0,"Non-Critical","Not Observed",60,"928 PEARL ST
BOULDER, CO 80302
(40.017202, -105.283305)"
"FA0000666","JAX FISH HOUSE","928 PEARL ST","928",NULL,"PEARL","ST",NULL,"BOULDER","CO","80302","RESTAURANT 0 TO 100 SEATS","FULL SERVICE FULL MENU","INVESTIGATION INSPECTION","2013-07-31","03B","Rapidly Reheat to 165 Degrees or Greater",0,"Critical","Not Observed",12,"928 PEARL ST
BOULDER, CO 80302
(40.017202, -105.283305)"
"FA0000666","JAX FISH HOUSE","928 PEARL ST","928",NULL,"PEARL","ST",NULL,"BOULDER","CO","80302","RESTAURANT 0 TO 100 SEATS","FULL SERVICE FULL MENU","ROUTINE INSPECTION","2013-02-26","10C","Dishwashing Facilities",0,"Non-Critical","Not Observed",60,"928 PEARL ST
BOULDER, CO 80302
(40.017202, -105.283305)"
"FA0000666","JAX FISH HOUSE","928 PEARL ST","928",NULL,"PEARL","ST",NULL,"BOULDER","CO","80302","RESTAURANT 0 TO 100 SEATS","FULL SERVICE FULL MENU","COMPLAINT INSPECTION","2017-08-03","05C","Backflow Back Siphonage",0,"Critical","In",35,"928 PEARL ST
BOULDER, CO 80302
(40.017202, -105.283305)"
"FA0000666","JAX FISH HOUSE","928 PEARL ST","928",NULL,"PEARL","ST",NULL,"BOULDER","CO","80302","RESTAURANT 0 TO 100 SEATS","FULL SERVICE FULL MENU","ROUTINE INSPECTION","2013-02-26","14G","Premises Maintained",0,"Non-Critical","Not Observed",60,"928 PEARL ST
BOULDER, CO 80302
(40.017202, -105.283305)"
"FA0000666","JAX FISH HOUSE","928 PEARL ST","928",NULL,"PEARL","ST",NULL,"BOULDER","CO","80302","RESTAURANT 0 TO 100 SEATS","FULL SERVICE FULL MENU","FOLLOW-UP INSPECTION","2013-03-26","08B","Properly Labeled",0,"Critical","Not Observed",0,"928 PEARL ST
BOULDER, CO 80302
(40.017202, -105.283305)"
"FA0000666","JAX FISH HOUSE","928 PEARL ST","928",NULL,"PEARL","ST",NULL,"BOULDER","CO","80302","RESTAURANT 0 TO 100 SEATS","FULL SERVICE FULL MENU","ROUTINE INSPECTION","2018-12-14","04B","Mechanical",0,"Critical","In",15,"928 PEARL ST
BOULDER, CO 80302
(40.017202, -105.283305)"
"FA0000666","JAX FISH HOUSE","928 PEARL ST","928",NULL,"PEARL","ST",NULL,"BOULDER","CO","80302","RESTAURANT 0 TO 100 SEATS","FULL SERVICE FULL MENU","COMPLAINT INSPECTION","2017-08-03","15B","Linen Properly Stored",0,"Non-Critical","Not Observed",35,"928 PEARL ST
BOULDER, CO 80302
(40.017202, -105.283305)"
"FA0000666","JAX FISH HOUSE","928 PEARL ST","928",NULL,"PEARL","ST",NULL,"BOULDER","CO","80302","RESTAURANT 0 TO 100 SEATS","FULL SERVICE FULL MENU","FOLLOW-UP INSPECTION","2013-03-26","10C","Dishwashing Facilities",0,"Non-Critical","Not Observed",0,"928 PEARL ST
BOULDER, CO 80302
(40.017202, -105.283305)"
"FA0000666","JAX FISH HOUSE","928 PEARL ST","928",NULL,"PEARL","ST",NULL,"BOULDER","CO","80302","RESTAURANT 0 TO 100 SEATS","FULL SERVICE FULL MENU","FOLLOW-UP INSPECTION","2013-03-26","15B","Linen Properly Stored",0,"Non-Critical","Not Observed",0,"928 PEARL ST
BOULDER, CO 80302
(40.017202, -105.283305)"
"FA0000666","JAX FISH HOUSE","928 PEARL ST","928",NULL,"PEARL","ST",NULL,"BOULDER","CO","80302","RESTAURANT 0 TO 100 SEATS","FULL SERVICE FULL MENU","ACTIVE MANAGEMENT CONTROL (AMC)","2016-03-04","AM21","Do Your Have a Thermocouple or Digital Thermometer",5,"Non-Critical","Full",60,"928 PEARL ST
BOULDER, CO 80302
(40.017202, -105.283305)"
"FA0000666","JAX FISH HOUSE","928 PEARL ST","928",NULL,"PEARL","ST",NULL,"BOULDER","CO","80302","RESTAURANT 0 TO 100 SEATS","FULL SERVICE FULL MENU","FOLLOW UP -GREEN STICKER","2013-02-27","14C","Floors Walls Ceilings",0,"Non-Critical","Not Observed",0,"928 PEARL ST
BOULDER, CO 80302
(40.017202, -105.283305)"
"FA0000666","JAX FISH HOUSE","928 PEARL ST","928",NULL,"PEARL","ST",NULL,"BOULDER","CO","80302","RESTAURANT 0 TO 100 SEATS","FULL SERVICE FULL MENU","FOLLOW-UP INSPECTION","2013-03-26","14C","Floors Walls Ceilings",0,"Non-Critical","Not Observed",0,"928 PEARL ST
BOULDER, CO 80302
(40.017202, -105.283305)"
"FA0000666","JAX FISH HOUSE","928 PEARL ST","928",NULL,"PEARL","ST",NULL,"BOULDER","CO","80302","RESTAURANT 0 TO 100 SEATS","FULL SERVICE FULL MENU","ROUTINE INSPECTION","2015-02-05","01E","Date Marking",0,"Critical","Not Applicable",25,"928 PEARL ST
BOULDER, CO 80302
(40.017202, -105.283305)"
"FA0000666","JAX FISH HOUSE","928 PEARL ST","928",NULL,"PEARL","ST",NULL,"BOULDER","CO","80302","RESTAURANT 0 TO 100 SEATS","FULL SERVICE FULL MENU","ROUTINE INSPECTION","2015-02-05","06C","Soap and Drying Devices",0,"Critical","In",25,"928 PEARL ST
BOULDER, CO 80302
(40.017202, -105.283305)"
"FA0000666","JAX FISH HOUSE","928 PEARL ST","928",NULL,"PEARL","ST",NULL,"BOULDER","CO","80302","RESTAURANT 0 TO 100 SEATS","FULL SERVICE FULL MENU","FOLLOW UP -GREEN STICKER","2013-02-27","10B","Non-Food Contact Surfaces Construction",0,"Non-Critical","Not Observed",0,"928 PEARL ST
BOULDER, CO 80302
(40.017202, -105.283305)"
"FA0000666","JAX FISH HOUSE","928 PEARL ST","928",NULL,"PEARL","ST",NULL,"BOULDER","CO","80302","RESTAURANT 0 TO 100 SEATS","FULL SERVICE FULL MENU","COMPLAINT INSPECTION","2017-08-03","01B","Wholesome Free of Spoilage",0,"Critical","In",35,"928 PEARL ST
BOULDER, CO 80302
(40.017202, -105.283305)"
"FA0000666","JAX FISH HOUSE","928 PEARL ST","928",NULL,"PEARL","ST",NULL,"BOULDER","CO","80302","RESTAURANT 0 TO 100 SEATS","FULL SERVICE FULL MENU","FOLLOW-UP INSPECTION","2013-03-26","14B","Garbage and Refuse",0,"Non-Critical","Not Observed",0,"928 PEARL ST
BOULDER, CO 80302
(40.017202, -105.283305)"
"FA0000666","JAX FISH HOUSE","928 PEARL ST","928",NULL,"PEARL","ST",NULL,"BOULDER","CO","80302","RESTAURANT 0 TO 100 SEATS","FULL SERVICE FULL MENU","ACTIVE MANAGEMENT CONTROL (AMC)","2016-03-04","AM26","Contracts for Preventative Maintenance Full For All 3 Half For 1 OR 2 NO For None",10,"Non-Critical","Full",60,"928 PEARL ST
BOULDER, CO 80302
(40.017202, -105.283305)"
"FA0000666","JAX FISH HOUSE","928 PEARL ST","928",NULL,"PEARL","ST",NULL,"BOULDER","CO","80302","RESTAURANT 0 TO 100 SEATS","FULL SERVICE FULL MENU","FOLLOW-UP INSPECTION","2013-03-26","05A","Safe Water Source",0,"Critical","Not Observed",0,"928 PEARL ST
BOULDER, CO 80302
(40.017202, -105.283305)"
"FA0000666","JAX FISH HOUSE","928 PEARL ST","928",NULL,"PEARL","ST",NULL,"BOULDER","CO","80302","RESTAURANT 0 TO 100 SEATS","FULL SERVICE FULL MENU","COMPLAINT INSPECTION","2017-08-03","08C","Properly Used",0,"Critical","In",35,"928 PEARL ST
BOULDER, CO 80302
(40.017202, -105.283305)"
"FA0000666","JAX FISH HOUSE","928 PEARL ST","928",NULL,"PEARL","ST",NULL,"BOULDER","CO","80302","RESTAURANT 0 TO 100 SEATS","FULL SERVICE FULL MENU","FOLLOW UP -GREEN STICKER","2013-02-27","12B","Non-Food Contact Surfaces Cleaning",0,"Non-Critical","Not Observed",0,"928 PEARL ST
BOULDER, CO 80302
(40.017202, -105.283305)"
"FA0000666","JAX FISH HOUSE","928 PEARL ST","928",NULL,"PEARL","ST",NULL,"BOULDER","CO","80302","RESTAURANT 0 TO 100 SEATS","FULL SERVICE FULL MENU","FOLLOW-UP INSPECTION","2013-03-26","02D","Hygienic Practices",0,"Critical","In",0,"928 PEARL ST
BOULDER, CO 80302
(40.017202, -105.283305)"
"FA0000666","JAX FISH HOUSE","928 PEARL ST","928",NULL,"PEARL","ST",NULL,"BOULDER","CO","80302","RESTAURANT 0 TO 100 SEATS","FULL SERVICE FULL MENU","FOLLOW-UP INSPECTION","2013-03-26","06B","Accessible",0,"Critical","In",0,"928 PEARL ST
BOULDER, CO 80302
(40.017202, -105.283305)"
"FA0000666","JAX FISH HOUSE","928 PEARL ST","928",NULL,"PEARL","ST",NULL,"BOULDER","CO","80302","RESTAURANT 0 TO 100 SEATS","FULL SERVICE FULL MENU","ACTIVE MANAGEMENT CONTROL (AMC)","2016-03-04","AM10","Document Handwashing Glove Use",10,"Non-Critical","In",60,"928 PEARL ST
BOULDER, CO 80302
(40.017202, -105.283305)"
"FA0000666","JAX FISH HOUSE","928 PEARL ST","928",NULL,"PEARL","ST",NULL,"BOULDER","CO","80302","RESTAURANT 0 TO 100 SEATS","FULL SERVICE FULL MENU","FOLLOW UP -GREEN STICKER","2013-02-27","14H","Separation of Living Laundry",0,"Non-Critical","Not Observed",0,"928 PEARL ST
BOULDER, CO 80302
(40.017202, -105.283305)"
"FA0000666","JAX FISH HOUSE","928 PEARL ST","928",NULL,"PEARL","ST",NULL,"BOULDER","CO","80302","RESTAURANT 0 TO 100 SEATS","FULL SERVICE FULL MENU","COMPLAINT INSPECTION","2017-08-03","01C","Cross Contamination",0,"Critical","In",35,"928 PEARL ST
BOULDER, CO 80302
(40.017202, -105.283305)"
"FA0000666","JAX FISH HOUSE","928 PEARL ST","928",NULL,"PEARL","ST",NULL,"BOULDER","CO","80302","RESTAURANT 0 TO 100 SEATS","FULL SERVICE FULL MENU","FOLLOW UP -GREEN STICKER","2013-02-27","06B","Accessible",0,"Critical","Not Observed",0,"928 PEARL ST
BOULDER, CO 80302
(40.017202, -105.283305)"
"FA0000666","JAX FISH HOUSE","928 PEARL ST","928",NULL,"PEARL","ST",NULL,"BOULDER","CO","80302","RESTAURANT 0 TO 100 SEATS","FULL SERVICE FULL MENU","ROUTINE INSPECTION","2016-03-04","03A","Cooling Methods",0,"Critical","Not Observed",40,"928 PEARL ST
BOULDER, CO 80302
(40.017202, -105.283305)"
"FA0000666","JAX FISH HOUSE","928 PEARL ST","928",NULL,"PEARL","ST",NULL,"BOULDER","CO","80302","RESTAURANT 0 TO 100 SEATS","FULL SERVICE FULL MENU","COMPLAINT INSPECTION","2017-08-03","07C","Animals Prohibited",0,"Critical","Not Observed",35,"928 PEARL ST
BOULDER, CO 80302
(40.017202, -105.283305)"
"FA0000666","JAX FISH HOUSE","928 PEARL ST","928",NULL,"PEARL","ST",NULL,"BOULDER","CO","80302","RESTAURANT 0 TO 100 SEATS","FULL SERVICE FULL MENU","FOLLOW-UP INSPECTION","2013-03-26","01D","HACCP Plan",0,"Critical","Not Observed",0,"928 PEARL ST
BOULDER, CO 80302
(40.017202, -105.283305)"
"FA0000666","JAX FISH HOUSE","928 PEARL ST","928",NULL,"PEARL","ST",NULL,"BOULDER","CO","80302","RESTAURANT 0 TO 100 SEATS","FULL SERVICE FULL MENU","COMPLAINT INSPECTION","2017-08-03","14I","Physical Facilities Adequate Toilet Facilities",0,"Non-Critical","Not Observed",35,"928 PEARL ST
BOULDER, CO 80302
(40.017202, -105.283305)"
"FA0000666","JAX FISH HOUSE","928 PEARL ST","928",NULL,"PEARL","ST",NULL,"BOULDER","CO","80302","RESTAURANT 0 TO 100 SEATS","FULL SERVICE FULL MENU","COMPLAINT INSPECTION","2017-08-03","03F","Food Thermometer",0,"Critical","In",35,"928 PEARL ST
BOULDER, CO 80302
(40.017202, -105.283305)"
"FA0000666","JAX FISH HOUSE","928 PEARL ST","928",NULL,"PEARL","ST",NULL,"BOULDER","CO","80302","RESTAURANT 0 TO 100 SEATS","FULL SERVICE FULL MENU","COMPLAINT INSPECTION","2017-08-03","04C","In Place",0,"Critical","Not Observed",35,"928 PEARL ST
BOULDER, CO 80302
(40.017202, -105.283305)"
"FA0000666","JAX FISH HOUSE","928 PEARL ST","928",NULL,"PEARL","ST",NULL,"BOULDER","CO","80302","RESTAURANT 0 TO 100 SEATS","FULL SERVICE FULL MENU","FOLLOW-UP INSPECTION","2013-03-26","03B","Rapidly Reheat to 165 Degrees or Greater",0,"Critical","Not Observed",0,"928 PEARL ST
BOULDER, CO 80302
(40.017202, -105.283305)"
"FA0000666","JAX FISH HOUSE","928 PEARL ST","928",NULL,"PEARL","ST",NULL,"BOULDER","CO","80302","RESTAURANT 0 TO 100 SEATS","FULL SERVICE FULL MENU","INVESTIGATION INSPECTION","2013-07-31","10A","Food-Contact Surfaces Construction",0,"Non-Critical","Not Observed",12,"928 PEARL ST
BOULDER, CO 80302
(40.017202, -105.283305)"
"FA0000666","JAX FISH HOUSE","928 PEARL ST","928",NULL,"PEARL","ST",NULL,"BOULDER","CO","80302","RESTAURANT 0 TO 100 SEATS","FULL SERVICE FULL MENU","COMPLAINT INSPECTION","2017-08-03","08B","Properly Labeled",0,"Critical","In",35,"928 PEARL ST
BOULDER, CO 80302
(40.017202, -105.283305)"
"FA0000666","JAX FISH HOUSE","928 PEARL ST","928",NULL,"PEARL","ST",NULL,"BOULDER","CO","80302","RESTAURANT 0 TO 100 SEATS","FULL SERVICE FULL MENU","ROUTINE INSPECTION","2018-12-14","11A","Refrigeration Units With Accurate Thermometers",0,"Non-Critical","Not Observed",15,"928 PEARL ST
BOULDER, CO 80302
(40.017202, -105.283305)"
"FA0000666","JAX FISH HOUSE","928 PEARL ST","928",NULL,"PEARL","ST",NULL,"BOULDER","CO","80302","RESTAURANT 0 TO 100 SEATS","FULL SERVICE FULL MENU","ROUTINE INSPECTION","2018-12-14","14B","Garbage and Refuse",0,"Non-Critical","Not Observed",15,"928 PEARL ST
BOULDER, CO 80302
(40.017202, -105.283305)"
"FA0000666","JAX FISH HOUSE","928 PEARL ST","928",NULL,"PEARL","ST",NULL,"BOULDER","CO","80302","RESTAURANT 0 TO 100 SEATS","FULL SERVICE FULL MENU","FOLLOW UP -GREEN STICKER","2013-02-27","02B","Wounds Properly Covered",0,"Critical","Not Observed",0,"928 PEARL ST
BOULDER, CO 80302
(40.017202, -105.283305)"
"FA0000666","JAX FISH HOUSE","928 PEARL ST","928",NULL,"PEARL","ST",NULL,"BOULDER","CO","80302","RESTAURANT 0 TO 100 SEATS","FULL SERVICE FULL MENU","FOLLOW UP -GREEN STICKER","2013-02-27","07A","Evidence of Insects or Rodents",0,"Critical","Not Observed",0,"928 PEARL ST
BOULDER, CO 80302
(40.017202, -105.283305)"
"FA0000666","JAX FISH HOUSE","928 PEARL ST","928",NULL,"PEARL","ST",NULL,"BOULDER","CO","80302","RESTAURANT 0 TO 100 SEATS","FULL SERVICE FULL MENU","COMPLAINT INSPECTION","2017-08-03","04A","Manual",0,"Critical","In",35,"928 PEARL ST
BOULDER, CO 80302
(40.017202, -105.283305)"
"FA0000666","JAX FISH HOUSE","928 PEARL ST","928",NULL,"PEARL","ST",NULL,"BOULDER","CO","80302","RESTAURANT 0 TO 100 SEATS","FULL SERVICE FULL MENU","ACTIVE MANAGEMENT CONTROL (AMC)","2017-08-03","AM24","Document Food Temperatures Frequently Cooling Initial Cook Receiving & Reheating",5,"Non-Critical","In",50,"928 PEARL ST
BOULDER, CO 80302
(40.017202, -105.283305)"
"FA0000666","JAX FISH HOUSE","928 PEARL ST","928",NULL,"PEARL","ST",NULL,"BOULDER","CO","80302","RESTAURANT 0 TO 100 SEATS","FULL SERVICE FULL MENU","COMPLAINT INSPECTION","2017-08-03","05B","Hot and Cold Water Under Pressure",0,"Critical","In",35,"928 PEARL ST
BOULDER, CO 80302
(40.017202, -105.283305)"
"FA0000666","JAX FISH HOUSE","928 PEARL ST","928",NULL,"PEARL","ST",NULL,"BOULDER","CO","80302","RESTAURANT 0 TO 100 SEATS","FULL SERVICE FULL MENU","INVESTIGATION INSPECTION","2013-07-31","14F","Locker Rooms",0,"Non-Critical","Not Observed",12,"928 PEARL ST
BOULDER, CO 80302
(40.017202, -105.283305)"
"FA0000666","JAX FISH HOUSE","928 PEARL ST","928",NULL,"PEARL","ST",NULL,"BOULDER","CO","80302","RESTAURANT 0 TO 100 SEATS","FULL SERVICE FULL MENU","FOLLOW-UP INSPECTION","2013-03-26","04B","Mechanical",0,"Critical","Not Observed",0,"928 PEARL ST
BOULDER, CO 80302
(40.017202, -105.283305)"
"FA0000666","JAX FISH HOUSE","928 PEARL ST","928",NULL,"PEARL","ST",NULL,"BOULDER","CO","80302","RESTAURANT 0 TO 100 SEATS","FULL SERVICE FULL MENU","FOLLOW UP -GREEN STICKER","2013-02-27","05B","Hot and Cold Water Under Pressure",0,"Critical","Not Observed",0,"928 PEARL ST
BOULDER, CO 80302
(40.017202, -105.283305)"
"FA0000666","JAX FISH HOUSE","928 PEARL ST","928",NULL,"PEARL","ST",NULL,"BOULDER","CO","80302","RESTAURANT 0 TO 100 SEATS","FULL SERVICE FULL MENU","FOLLOW UP -GREEN STICKER","2013-02-27","05C","Backflow Back Siphonage",0,"Critical","Not Observed",0,"928 PEARL ST
BOULDER, CO 80302
(40.017202, -105.283305)"
"FA0000666","JAX FISH HOUSE","928 PEARL ST","928",NULL,"PEARL","ST",NULL,"BOULDER","CO","80302","RESTAURANT 0 TO 100 SEATS","FULL SERVICE FULL MENU","ROUTINE INSPECTION","2013-02-26","07A","Evidence of Insects or Rodents",0,"Critical","Not Observed",60,"928 PEARL ST
BOULDER, CO 80302
(40.017202, -105.283305)"
"FA0000666","JAX FISH HOUSE","928 PEARL ST","928",NULL,"PEARL","ST",NULL,"BOULDER","CO","80302","RESTAURANT 0 TO 100 SEATS","FULL SERVICE FULL MENU","INVESTIGATION INSPECTION","2013-07-31","05C","Backflow Back Siphonage",0,"Critical","Not Observed",12,"928 PEARL ST
BOULDER, CO 80302
(40.017202, -105.283305)"
"FA0000666","JAX FISH HOUSE","928 PEARL ST","928",NULL,"PEARL","ST",NULL,"BOULDER","CO","80302","RESTAURANT 0 TO 100 SEATS","FULL SERVICE FULL MENU","ACTIVE MANAGEMENT CONTROL (AMC)","2016-03-04","AM18","Document Sanitizer Concentrations and Usage",10,"Non-Critical","In",60,"928 PEARL ST
BOULDER, CO 80302
(40.017202, -105.283305)"
"FA0000666","JAX FISH HOUSE","928 PEARL ST","928",NULL,"PEARL","ST",NULL,"BOULDER","CO","80302","RESTAURANT 0 TO 100 SEATS","FULL SERVICE FULL MENU","FOLLOW-UP INSPECTION","2013-03-26","03G","Adequate Equipment to Maintain Food Temperatures",0,"Critical","In",0,"928 PEARL ST
BOULDER, CO 80302
(40.017202, -105.283305)"
"FA0000666","JAX FISH HOUSE","928 PEARL ST","928",NULL,"PEARL","ST",NULL,"BOULDER","CO","80302","RESTAURANT 0 TO 100 SEATS","FULL SERVICE FULL MENU","COMPLAINT INSPECTION","2017-08-03","13C","No Reuse of Single Service Articles",0,"Non-Critical","Not Observed",35,"928 PEARL ST
BOULDER, CO 80302
(40.017202, -105.283305)"
"FA0000666","JAX FISH HOUSE","928 PEARL ST","928",NULL,"PEARL","ST",NULL,"BOULDER","CO","80302","RESTAURANT 0 TO 100 SEATS","FULL SERVICE FULL MENU","ACTIVE MANAGEMENT CONTROL (AMC)","2016-03-04","AM24","Document Food Temperatures Frequently Cooling Initial Cook Receiving & Reheating",5,"Non-Critical","Full",60,"928 PEARL ST
BOULDER, CO 80302
(40.017202, -105.283305)"
"FA0000666","JAX FISH HOUSE","928 PEARL ST","928",NULL,"PEARL","ST",NULL,"BOULDER","CO","80302","RESTAURANT 0 TO 100 SEATS","FULL SERVICE FULL MENU","FOLLOW UP -GREEN STICKER","2013-02-27","02C","Hands Washed As Needed",0,"Critical","Not Observed",0,"928 PEARL ST
BOULDER, CO 80302
(40.017202, -105.283305)"
"FA0000666","JAX FISH HOUSE","928 PEARL ST","928",NULL,"PEARL","ST",NULL,"BOULDER","CO","80302","RESTAURANT 0 TO 100 SEATS","FULL SERVICE FULL MENU","INVESTIGATION INSPECTION","2013-07-31","13C","No Reuse of Single Service Articles",0,"Non-Critical","Not Observed",12,"928 PEARL ST
BOULDER, CO 80302
(40.017202, -105.283305)"
"FA0000666","JAX FISH HOUSE","928 PEARL ST","928",NULL,"PEARL","ST",NULL,"BOULDER","CO","80302","RESTAURANT 0 TO 100 SEATS","FULL SERVICE FULL MENU","INVESTIGATION INSPECTION","2013-07-31","06A","Adequate Number Location Design",0,"Critical","In",12,"928 PEARL ST
BOULDER, CO 80302
(40.017202, -105.283305)"
"FA0000666","JAX FISH HOUSE","928 PEARL ST","928",NULL,"PEARL","ST",NULL,"BOULDER","CO","80302","RESTAURANT 0 TO 100 SEATS","FULL SERVICE FULL MENU","ROUTINE INSPECTION","2015-02-05","03A","Cooling Methods",0,"Critical","Not Observed",25,"928 PEARL ST
BOULDER, CO 80302
(40.017202, -105.283305)"
"FA0000666","JAX FISH HOUSE","928 PEARL ST","928",NULL,"PEARL","ST",NULL,"BOULDER","CO","80302","RESTAURANT 0 TO 100 SEATS","FULL SERVICE FULL MENU","INVESTIGATION INSPECTION","2013-07-31","07A","Evidence of Insects or Rodents",0,"Critical","Not Observed",12,"928 PEARL ST
BOULDER, CO 80302
(40.017202, -105.283305)"
"FA0000666","JAX FISH HOUSE","928 PEARL ST","928",NULL,"PEARL","ST",NULL,"BOULDER","CO","80302","RESTAURANT 0 TO 100 SEATS","FULL SERVICE FULL MENU","FOLLOW-UP INSPECTION","2013-03-26","09A","Original Container Properly Labeled",0,"Non-Critical","Not Observed",0,"928 PEARL ST
BOULDER, CO 80302
(40.017202, -105.283305)"
"FA0000666","JAX FISH HOUSE","928 PEARL ST","928",NULL,"PEARL","ST",NULL,"BOULDER","CO","80302","RESTAURANT 0 TO 100 SEATS","FULL SERVICE FULL MENU","FOLLOW UP -GREEN STICKER","2013-02-27","03C","Hot Hold at 135 Degrees Farenheit or Greater",0,"Critical","Not Observed",0,"928 PEARL ST
BOULDER, CO 80302
(40.017202, -105.283305)"
"FA0000666","JAX FISH HOUSE","928 PEARL ST","928",NULL,"PEARL","ST",NULL,"BOULDER","CO","80302","RESTAURANT 0 TO 100 SEATS","FULL SERVICE FULL MENU","INVESTIGATION INSPECTION","2013-07-31","14I","Physical Facilities Adequate Toilet Facilities",0,"Non-Critical","Not Observed",12,"928 PEARL ST
BOULDER, CO 80302
(40.017202, -105.283305)"
"FA0000666","JAX FISH HOUSE","928 PEARL ST","928",NULL,"PEARL","ST",NULL,"BOULDER","CO","80302","RESTAURANT 0 TO 100 SEATS","FULL SERVICE FULL MENU","COMPLAINT INSPECTION","2017-08-03","03D","Required Cooking Temperature",0,"Critical","In",35,"928 PEARL ST
BOULDER, CO 80302
(40.017202, -105.283305)"
"FA0000666","JAX FISH HOUSE","928 PEARL ST","928",NULL,"PEARL","ST",NULL,"BOULDER","CO","80302","RESTAURANT 0 TO 100 SEATS","FULL SERVICE FULL MENU","COMPLAINT INSPECTION","2017-08-03","14B","Garbage and Refuse",0,"Non-Critical","Not Observed",35,"928 PEARL ST
BOULDER, CO 80302
(40.017202, -105.283305)"
"FA0000666","JAX FISH HOUSE","928 PEARL ST","928",NULL,"PEARL","ST",NULL,"BOULDER","CO","80302","RESTAURANT 0 TO 100 SEATS","FULL SERVICE FULL MENU","FOLLOW-UP INSPECTION","2013-03-26","13A","Equipment Utensils Provided Used, Stored",0,"Non-Critical","Not Observed",0,"928 PEARL ST
BOULDER, CO 80302
(40.017202, -105.283305)"
"FA0000666","JAX FISH HOUSE","928 PEARL ST","928",NULL,"PEARL","ST",NULL,"BOULDER","CO","80302","RESTAURANT 0 TO 100 SEATS","FULL SERVICE FULL MENU","ROUTINE INSPECTION","2015-02-05","05B","Hot and Cold Water Under Pressure",0,"Critical","In",25,"928 PEARL ST
BOULDER, CO 80302
(40.017202, -105.283305)"
"FA0000666","JAX FISH HOUSE","928 PEARL ST","928",NULL,"PEARL","ST",NULL,"BOULDER","CO","80302","RESTAURANT 0 TO 100 SEATS","FULL SERVICE FULL MENU","ROUTINE INSPECTION","2018-12-14","06B","Accessible",0,"Critical","In",15,"928 PEARL ST
BOULDER, CO 80302
(40.017202, -105.283305)"
"FA0000666","JAX FISH HOUSE","928 PEARL ST","928",NULL,"PEARL","ST",NULL,"BOULDER","CO","80302","RESTAURANT 0 TO 100 SEATS","FULL SERVICE FULL MENU","ROUTINE INSPECTION","2015-02-05","02F","Training Needed",0,"Critical","In",25,"928 PEARL ST
BOULDER, CO 80302
(40.017202, -105.283305)"
"FA0000666","JAX FISH HOUSE","928 PEARL ST","928",NULL,"PEARL","ST",NULL,"BOULDER","CO","80302","RESTAURANT 0 TO 100 SEATS","FULL SERVICE FULL MENU","ROUTINE INSPECTION","2015-02-05","14H","Separation of Living Laundry",0,"Non-Critical","Not Observed",25,"928 PEARL ST
BOULDER, CO 80302
(40.017202, -105.283305)"
"FA0000666","JAX FISH HOUSE","928 PEARL ST","928",NULL,"PEARL","ST",NULL,"BOULDER","CO","80302","RESTAURANT 0 TO 100 SEATS","FULL SERVICE FULL MENU","ROUTINE INSPECTION","2018-12-14","14D","Lighting",0,"Non-Critical","Not Observed",15,"928 PEARL ST
BOULDER, CO 80302
(40.017202, -105.283305)"
"FA0000666","JAX FISH HOUSE","928 PEARL ST","928",NULL,"PEARL","ST",NULL,"BOULDER","CO","80302","RESTAURANT 0 TO 100 SEATS","FULL SERVICE FULL MENU","ROUTINE INSPECTION","2013-02-26","08C","Properly Used",0,"Critical","In",60,"928 PEARL ST
BOULDER, CO 80302
(40.017202, -105.283305)"
"FA0000666","JAX FISH HOUSE","928 PEARL ST","928",NULL,"PEARL","ST",NULL,"BOULDER","CO","80302","RESTAURANT 0 TO 100 SEATS","FULL SERVICE FULL MENU","ROUTINE INSPECTION","2013-02-26","03A","Cooling Methods",20,"Critical","Out",60,"928 PEARL ST
BOULDER, CO 80302
(40.017202, -105.283305)"
"FA0000666","JAX FISH HOUSE","928 PEARL ST","928",NULL,"PEARL","ST",NULL,"BOULDER","CO","80302","RESTAURANT 0 TO 100 SEATS","FULL SERVICE FULL MENU","ROUTINE INSPECTION","2015-02-05","02C","Hands Washed As Needed",0,"Critical","In",25,"928 PEARL ST
BOULDER, CO 80302
(40.017202, -105.283305)"
"FA0000666","JAX FISH HOUSE","928 PEARL ST","928",NULL,"PEARL","ST",NULL,"BOULDER","CO","80302","RESTAURANT 0 TO 100 SEATS","FULL SERVICE FULL MENU","ROUTINE INSPECTION","2018-12-14","04C","In Place",0,"Critical","Not Observed",15,"928 PEARL ST
BOULDER, CO 80302
(40.017202, -105.283305)"
"FA0000666","JAX FISH HOUSE","928 PEARL ST","928",NULL,"PEARL","ST",NULL,"BOULDER","CO","80302","RESTAURANT 0 TO 100 SEATS","FULL SERVICE FULL MENU","ROUTINE INSPECTION","2018-12-14","01B","Wholesome Free of Spoilage",0,"Critical","In",15,"928 PEARL ST
BOULDER, CO 80302
(40.017202, -105.283305)"
"FA0000666","JAX FISH HOUSE","928 PEARL ST","928",NULL,"PEARL","ST",NULL,"BOULDER","CO","80302","RESTAURANT 0 TO 100 SEATS","FULL SERVICE FULL MENU","ROUTINE INSPECTION","2018-12-14","02F","Training Needed",0,"Critical","In",15,"928 PEARL ST
BOULDER, CO 80302
(40.017202, -105.283305)"
"FA0000666","JAX FISH HOUSE","928 PEARL ST","928",NULL,"PEARL","ST",NULL,"BOULDER","CO","80302","RESTAURANT 0 TO 100 SEATS","FULL SERVICE FULL MENU","ROUTINE INSPECTION","2015-02-05","15A","Personnel: Clean Clothes Hair Restraints Authorizat",0,"Non-Critical","Not Observed",25,"928 PEARL ST
BOULDER, CO 80302
(40.017202, -105.283305)"
"FA0000666","JAX FISH HOUSE","928 PEARL ST","928",NULL,"PEARL","ST",NULL,"BOULDER","CO","80302","RESTAURANT 0 TO 100 SEATS","FULL SERVICE FULL MENU","ROUTINE INSPECTION","2013-02-26","04B","Mechanical",0,"Critical","In",60,"928 PEARL ST
BOULDER, CO 80302
(40.017202, -105.283305)"
"FA0000666","JAX FISH HOUSE","928 PEARL ST","928",NULL,"PEARL","ST",NULL,"BOULDER","CO","80302","RESTAURANT 0 TO 100 SEATS","FULL SERVICE FULL MENU","ROUTINE INSPECTION","2015-02-05","11A","Refrigeration Units With Accurate Thermometers",0,"Non-Critical","Not Observed",25,"928 PEARL ST
BOULDER, CO 80302
(40.017202, -105.283305)"
"FA0000666","JAX FISH HOUSE","928 PEARL ST","928",NULL,"PEARL","ST",NULL,"BOULDER","CO","80302","RESTAURANT 0 TO 100 SEATS","FULL SERVICE FULL MENU","ROUTINE INSPECTION","2018-12-14","07C","Animals Prohibited",0,"Critical","In",15,"928 PEARL ST
BOULDER, CO 80302
(40.017202, -105.283305)"
"FA0000666","JAX FISH HOUSE","928 PEARL ST","928",NULL,"PEARL","ST",NULL,"BOULDER","CO","80302","RESTAURANT 0 TO 100 SEATS","FULL SERVICE FULL MENU","ROUTINE INSPECTION","2016-03-04","06B","Accessible",0,"Critical","In",40,"928 PEARL ST
BOULDER, CO 80302
(40.017202, -105.283305)"
"FA0000666","JAX FISH HOUSE","928 PEARL ST","928",NULL,"PEARL","ST",NULL,"BOULDER","CO","80302","RESTAURANT 0 TO 100 SEATS","FULL SERVICE FULL MENU","ROUTINE INSPECTION","2016-03-04","04A","Manual",0,"Critical","Not Observed",40,"928 PEARL ST
BOULDER, CO 80302
(40.017202, -105.283305)"
"FA0000666","JAX FISH HOUSE","928 PEARL ST","928",NULL,"PEARL","ST",NULL,"BOULDER","CO","80302","RESTAURANT 0 TO 100 SEATS","FULL SERVICE FULL MENU","ROUTINE INSPECTION","2015-02-05","06A","Adequate Number Location Design",0,"Critical","In",25,"928 PEARL ST
BOULDER, CO 80302
(40.017202, -105.283305)"
"FA0000666","JAX FISH HOUSE","928 PEARL ST","928",NULL,"PEARL","ST",NULL,"BOULDER","CO","80302","RESTAURANT 0 TO 100 SEATS","FULL SERVICE FULL MENU","ROUTINE INSPECTION","2018-12-14","12A","Food Contact Surfaces Cleaning",0,"Non-Critical","Not Observed",15,"928 PEARL ST
BOULDER, CO 80302
(40.017202, -105.283305)"
"FA0000666","JAX FISH HOUSE","928 PEARL ST","928",NULL,"PEARL","ST",NULL,"BOULDER","CO","80302","RESTAURANT 0 TO 100 SEATS","FULL SERVICE FULL MENU","ROUTINE INSPECTION","2016-03-04","01D","HACCP Plan",0,"Critical","Not Applicable",40,"928 PEARL ST
BOULDER, CO 80302
(40.017202, -105.283305)"
"FA0000666","JAX FISH HOUSE","928 PEARL ST","928",NULL,"PEARL","ST",NULL,"BOULDER","CO","80302","RESTAURANT 0 TO 100 SEATS","FULL SERVICE FULL MENU","ROUTINE INSPECTION","2016-03-04","03E","Cold Hold at 41 Degrees or Less",0,"Critical","In",40,"928 PEARL ST
BOULDER, CO 80302
(40.017202, -105.283305)"
"FA0000666","JAX FISH HOUSE","928 PEARL ST","928",NULL,"PEARL","ST",NULL,"BOULDER","CO","80302","RESTAURANT 0 TO 100 SEATS","FULL SERVICE FULL MENU","ROUTINE INSPECTION","2013-02-26","15B","Linen Properly Stored",0,"Non-Critical","Not Observed",60,"928 PEARL ST
BOULDER, CO 80302
(40.017202, -105.283305)"
"FA0000666","JAX FISH HOUSE","928 PEARL ST","928",NULL,"PEARL","ST",NULL,"BOULDER","CO","80302","RESTAURANT 0 TO 100 SEATS","FULL SERVICE FULL MENU","ROUTINE INSPECTION","2018-12-14","01C","Cross Contamination",0,"Critical","In",15,"928 PEARL ST
BOULDER, CO 80302
(40.017202, -105.283305)"
"FA0000666","JAX FISH HOUSE","928 PEARL ST","928",NULL,"PEARL","ST",NULL,"BOULDER","CO","80302","RESTAURANT 0 TO 100 SEATS","FULL SERVICE FULL MENU","ROUTINE INSPECTION","2015-02-05","13B","Single Service Articles Stored Dispensed Used",0,"Non-Critical","Not Observed",25,"928 PEARL ST
BOULDER, CO 80302
(40.017202, -105.283305)"
"FA0000666","JAX FISH HOUSE","928 PEARL ST","928",NULL,"PEARL","ST",NULL,"BOULDER","CO","80302","RESTAURANT 0 TO 100 SEATS","FULL SERVICE FULL MENU","ROUTINE INSPECTION","2015-02-05","09B","Food Protected from Contamination",0,"Non-Critical","Not Observed",25,"928 PEARL ST
BOULDER, CO 80302
(40.017202, -105.283305)"
"FA0000666","JAX FISH HOUSE","928 PEARL ST","928",NULL,"PEARL","ST",NULL,"BOULDER","CO","80302","RESTAURANT 0 TO 100 SEATS","FULL SERVICE FULL MENU","ROUTINE INSPECTION","2016-03-04","12D","Wiping Cloths",0,"Non-Critical","Not Observed",40,"928 PEARL ST
BOULDER, CO 80302
(40.017202, -105.283305)"
"FA0000666","JAX FISH HOUSE","928 PEARL ST","928",NULL,"PEARL","ST",NULL,"BOULDER","CO","80302","RESTAURANT 0 TO 100 SEATS","FULL SERVICE FULL MENU","ROUTINE INSPECTION","2013-02-26","11B","Dishmachine With Accurate Thermometer & Gauge Cock",0,"Non-Critical","Not Observed",60,"928 PEARL ST
BOULDER, CO 80302
(40.017202, -105.283305)"
"FA0000666","JAX FISH HOUSE","928 PEARL ST","928",NULL,"PEARL","ST",NULL,"BOULDER","CO","80302","RESTAURANT 0 TO 100 SEATS","FULL SERVICE FULL MENU","ROUTINE INSPECTION","2016-03-04","05B","Hot and Cold Water Under Pressure",10,"Critical","Out",40,"928 PEARL ST
BOULDER, CO 80302
(40.017202, -105.283305)"
"FA0000666","JAX FISH HOUSE","928 PEARL ST","928",NULL,"PEARL","ST",NULL,"BOULDER","CO","80302","RESTAURANT 0 TO 100 SEATS","FULL SERVICE FULL MENU","ROUTINE INSPECTION","2018-12-14","08B","Properly Labeled",0,"Critical","In",15,"928 PEARL ST
BOULDER, CO 80302
(40.017202, -105.283305)"
"FA0000666","JAX FISH HOUSE","928 PEARL ST","928",NULL,"PEARL","ST",NULL,"BOULDER","CO","80302","RESTAURANT 0 TO 100 SEATS","FULL SERVICE FULL MENU","ROUTINE INSPECTION","2018-12-14","09A","Original Container Properly Labeled",0,"Non-Critical","Not Observed",15,"928 PEARL ST
BOULDER, CO 80302
(40.017202, -105.283305)"
"FA0000666","JAX FISH HOUSE","928 PEARL ST","928",NULL,"PEARL","ST",NULL,"BOULDER","CO","80302","RESTAURANT 0 TO 100 SEATS","FULL SERVICE FULL MENU","ROUTINE INSPECTION","2015-02-05","10A","Food-Contact Surfaces Construction",0,"Non-Critical","Not Observed",25,"928 PEARL ST
BOULDER, CO 80302
(40.017202, -105.283305)"
"FA0000666","JAX FISH HOUSE","928 PEARL ST","928",NULL,"PEARL","ST",NULL,"BOULDER","CO","80302","RESTAURANT 0 TO 100 SEATS","FULL SERVICE FULL MENU","ROUTINE INSPECTION","2015-02-05","04A","Manual",0,"Critical","Not Observed",25,"928 PEARL ST
BOULDER, CO 80302
(40.017202, -105.283305)"
"FA0000666","JAX FISH HOUSE","928 PEARL ST","928",NULL,"PEARL","ST",NULL,"BOULDER","CO","80302","RESTAURANT 0 TO 100 SEATS","FULL SERVICE FULL MENU","ROUTINE INSPECTION","2018-12-14","01D","HACCP Plan",0,"Critical","Not Applicable",15,"928 PEARL ST
BOULDER, CO 80302
(40.017202, -105.283305)"
"FA0000666","JAX FISH HOUSE","928 PEARL ST","928",NULL,"PEARL","ST",NULL,"BOULDER","CO","80302","RESTAURANT 0 TO 100 SEATS","FULL SERVICE FULL MENU","ROUTINE INSPECTION","2016-03-04","07C","Animals Prohibited",0,"Critical","In",40,"928 PEARL ST
BOULDER, CO 80302
(40.017202, -105.283305)"
"FA0000666","JAX FISH HOUSE","928 PEARL ST","928",NULL,"PEARL","ST",NULL,"BOULDER","CO","80302","RESTAURANT 0 TO 100 SEATS","FULL SERVICE FULL MENU","ROUTINE INSPECTION","2018-12-14","01E","Date Marking",0,"Critical","Not Applicable",15,"928 PEARL ST
BOULDER, CO 80302
(40.017202, -105.283305)"
"FA0000666","JAX FISH HOUSE","928 PEARL ST","928",NULL,"PEARL","ST",NULL,"BOULDER","CO","80302","RESTAURANT 0 TO 100 SEATS","FULL SERVICE FULL MENU","ROUTINE INSPECTION","2018-12-14","02C","Hands Washed As Needed",15,"Critical","Out",15,"928 PEARL ST
BOULDER, CO 80302
(40.017202, -105.283305)"
"FA0000666","JAX FISH HOUSE","928 PEARL ST","928",NULL,"PEARL","ST",NULL,"BOULDER","CO","80302","RESTAURANT 0 TO 100 SEATS","FULL SERVICE FULL MENU","ROUTINE INSPECTION","2013-02-26","04A","Manual",0,"Critical","Not Observed",60,"928 PEARL ST
BOULDER, CO 80302
(40.017202, -105.283305)"
"FA0000666","JAX FISH HOUSE","928 PEARL ST","928",NULL,"PEARL","ST",NULL,"BOULDER","CO","80302","RESTAURANT 0 TO 100 SEATS","FULL SERVICE FULL MENU","ROUTINE INSPECTION","2018-12-14","01A","Approved Source",0,"Critical","In",15,"928 PEARL ST
BOULDER, CO 80302
(40.017202, -105.283305)"
"FA0000666","JAX FISH HOUSE","928 PEARL ST","928",NULL,"PEARL","ST",NULL,"BOULDER","CO","80302","RESTAURANT 0 TO 100 SEATS","FULL SERVICE FULL MENU","ROUTINE INSPECTION","2016-03-04","14F","Locker Rooms",0,"Non-Critical","Not Observed",40,"928 PEARL ST
BOULDER, CO 80302
(40.017202, -105.283305)"
"FA0000666","JAX FISH HOUSE","928 PEARL ST","928",NULL,"PEARL","ST",NULL,"BOULDER","CO","80302","RESTAURANT 0 TO 100 SEATS","FULL SERVICE FULL MENU","ROUTINE INSPECTION","2018-12-14","08C","Properly Used",0,"Critical","In",15,"928 PEARL ST
BOULDER, CO 80302
(40.017202, -105.283305)"
"FA0000666","JAX FISH HOUSE","928 PEARL ST","928",NULL,"PEARL","ST",NULL,"BOULDER","CO","80302","RESTAURANT 0 TO 100 SEATS","FULL SERVICE FULL MENU","ROUTINE INSPECTION","2015-02-05","08C","Properly Used",0,"Critical","In",25,"928 PEARL ST
BOULDER, CO 80302
(40.017202, -105.283305)"
"FA0000666","JAX FISH HOUSE","928 PEARL ST","928",NULL,"PEARL","ST",NULL,"BOULDER","CO","80302","RESTAURANT 0 TO 100 SEATS","FULL SERVICE FULL MENU","ROUTINE INSPECTION","2018-12-14","02B","Wounds Properly Covered",0,"Critical","Not Observed",15,"928 PEARL ST
BOULDER, CO 80302
(40.017202, -105.283305)"
"FA0000666","JAX FISH HOUSE","928 PEARL ST","928",NULL,"PEARL","ST",NULL,"BOULDER","CO","80302","RESTAURANT 0 TO 100 SEATS","FULL SERVICE FULL MENU","ROUTINE INSPECTION","2018-12-14","03F","Food Thermometer",0,"Critical","In",15,"928 PEARL ST
BOULDER, CO 80302
(40.017202, -105.283305)"
"FA0000666","JAX FISH HOUSE","928 PEARL ST","928",NULL,"PEARL","ST",NULL,"BOULDER","CO","80302","RESTAURANT 0 TO 100 SEATS","FULL SERVICE FULL MENU","ROUTINE INSPECTION","2013-02-26","05A","Safe Water Source",0,"Critical","Not Observed",60,"928 PEARL ST
BOULDER, CO 80302
(40.017202, -105.283305)"
"FA0000666","JAX FISH HOUSE","928 PEARL ST","928",NULL,"PEARL","ST",NULL,"BOULDER","CO","80302","RESTAURANT 0 TO 100 SEATS","FULL SERVICE FULL MENU","ROUTINE INSPECTION","2016-03-04","10B","Non-Food Contact Surfaces Construction",0,"Non-Critical","Not Observed",40,"928 PEARL ST
BOULDER, CO 80302
(40.017202, -105.283305)"
"FA0000666","JAX FISH HOUSE","928 PEARL ST","928",NULL,"PEARL","ST",NULL,"BOULDER","CO","80302","RESTAURANT 0 TO 100 SEATS","FULL SERVICE FULL MENU","ROUTINE INSPECTION","2013-02-26","05B","Hot and Cold Water Under Pressure",0,"Critical","Not Observed",60,"928 PEARL ST
BOULDER, CO 80302
(40.017202, -105.283305)"
"FA0000666","JAX FISH HOUSE","928 PEARL ST","928",NULL,"PEARL","ST",NULL,"BOULDER","CO","80302","RESTAURANT 0 TO 100 SEATS","FULL SERVICE FULL MENU","ROUTINE INSPECTION","2016-03-04","05C","Backflow Back Siphonage",10,"Critical","Out",40,"928 PEARL ST
BOULDER, CO 80302
(40.017202, -105.283305)"
"FA0000666","JAX FISH HOUSE","928 PEARL ST","928",NULL,"PEARL","ST",NULL,"BOULDER","CO","80302","RESTAURANT 0 TO 100 SEATS","FULL SERVICE FULL MENU","ROUTINE INSPECTION","2013-02-26","05C","Backflow Back Siphonage",0,"Critical","Not Observed",60,"928 PEARL ST
BOULDER, CO 80302
(40.017202, -105.283305)"
"FA0000666","JAX FISH HOUSE","928 PEARL ST","928",NULL,"PEARL","ST",NULL,"BOULDER","CO","80302","RESTAURANT 0 TO 100 SEATS","FULL SERVICE FULL MENU","ROUTINE INSPECTION","2015-02-05","11C","Chemical Test Kits Provided Accessible",0,"Non-Critical","Not Observed",25,"928 PEARL ST
BOULDER, CO 80302
(40.017202, -105.283305)"
"FA0000666","JAX FISH HOUSE","928 PEARL ST","928",NULL,"PEARL","ST",NULL,"BOULDER","CO","80302","RESTAURANT 0 TO 100 SEATS","FULL SERVICE FULL MENU","ROUTINE INSPECTION","2013-02-26","01E","Date Marking",0,"Critical","Not Observed",60,"928 PEARL ST
BOULDER, CO 80302
(40.017202, -105.283305)"
"FA0000666","JAX FISH HOUSE","928 PEARL ST","928",NULL,"PEARL","ST",NULL,"BOULDER","CO","80302","RESTAURANT 0 TO 100 SEATS","FULL SERVICE FULL MENU","ROUTINE INSPECTION","2013-02-26","15A","Personnel: Clean Clothes Hair Restraints Authorizat",0,"Non-Critical","Not Observed",60,"928 PEARL ST
BOULDER, CO 80302
(40.017202, -105.283305)"
"FA0000666","JAX FISH HOUSE","928 PEARL ST","928",NULL,"PEARL","ST",NULL,"BOULDER","CO","80302","RESTAURANT 0 TO 100 SEATS","FULL SERVICE FULL MENU","ROUTINE INSPECTION","2016-03-04","01F","Consumer Advisory",0,"Critical","In",40,"928 PEARL ST
BOULDER, CO 80302
(40.017202, -105.283305)"
"FA0000666","JAX FISH HOUSE","928 PEARL ST","928",NULL,"PEARL","ST",NULL,"BOULDER","CO","80302","RESTAURANT 0 TO 100 SEATS","FULL SERVICE FULL MENU","ROUTINE INSPECTION","2018-12-14","02A","Personnel With Infections Restricted",0,"Critical","In",15,"928 PEARL ST
BOULDER, CO 80302
(40.017202, -105.283305)"
"FA0000666","JAX FISH HOUSE","928 PEARL ST","928",NULL,"PEARL","ST",NULL,"BOULDER","CO","80302","RESTAURANT 0 TO 100 SEATS","FULL SERVICE FULL MENU","ROUTINE INSPECTION","2013-02-26","08A","Properly Stored",0,"Critical","In",60,"928 PEARL ST
BOULDER, CO 80302
(40.017202, -105.283305)"
"FA0000666","JAX FISH HOUSE","928 PEARL ST","928",NULL,"PEARL","ST",NULL,"BOULDER","CO","80302","RESTAURANT 0 TO 100 SEATS","FULL SERVICE FULL MENU","ROUTINE INSPECTION","2018-12-14","14G","Premises Maintained",0,"Non-Critical","Not Observed",15,"928 PEARL ST
BOULDER, CO 80302
(40.017202, -105.283305)"
"FA0000666","JAX FISH HOUSE","928 PEARL ST","928",NULL,"PEARL","ST",NULL,"BOULDER","CO","80302","RESTAURANT 0 TO 100 SEATS","FULL SERVICE FULL MENU","ROUTINE INSPECTION","2013-02-26","01C","Cross Contamination",0,"Critical","In",60,"928 PEARL ST
BOULDER, CO 80302
(40.017202, -105.283305)"
"FA0000666","JAX FISH HOUSE","928 PEARL ST","928",NULL,"PEARL","ST",NULL,"BOULDER","CO","80302","RESTAURANT 0 TO 100 SEATS","FULL SERVICE FULL MENU","ROUTINE INSPECTION","2018-12-14","13C","No Reuse of Single Service Articles",0,"Non-Critical","Not Observed",15,"928 PEARL ST
BOULDER, CO 80302
(40.017202, -105.283305)"
"FA0000666","JAX FISH HOUSE","928 PEARL ST","928",NULL,"PEARL","ST",NULL,"BOULDER","CO","80302","RESTAURANT 0 TO 100 SEATS","FULL SERVICE FULL MENU","ROUTINE INSPECTION","2015-02-05","03D","Required Cooking Temperature",0,"Critical","In",25,"928 PEARL ST
BOULDER, CO 80302
(40.017202, -105.283305)"
"FA0000666","JAX FISH HOUSE","928 PEARL ST","928",NULL,"PEARL","ST",NULL,"BOULDER","CO","80302","RESTAURANT 0 TO 100 SEATS","FULL SERVICE FULL MENU","ROUTINE INSPECTION","2015-02-05","02E","Smoking Eating Drinking",0,"Critical","In",25,"928 PEARL ST
BOULDER, CO 80302
(40.017202, -105.283305)"
"FA0000666","JAX FISH HOUSE","928 PEARL ST","928",NULL,"PEARL","ST",NULL,"BOULDER","CO","80302","RESTAURANT 0 TO 100 SEATS","FULL SERVICE FULL MENU","ROUTINE INSPECTION","2018-12-14","11B","Dishmachine With Accurate Thermometer & Gauge Cock",0,"Non-Critical","Not Observed",15,"928 PEARL ST
BOULDER, CO 80302
(40.017202, -105.283305)"
"FA0000666","JAX FISH HOUSE","928 PEARL ST","928",NULL,"PEARL","ST",NULL,"BOULDER","CO","80302","RESTAURANT 0 TO 100 SEATS","FULL SERVICE FULL MENU","ROUTINE INSPECTION","2015-02-05","14E","Ventilation",0,"Non-Critical","Not Observed",25,"928 PEARL ST
BOULDER, CO 80302
(40.017202, -105.283305)"
"FA0000666","JAX FISH HOUSE","928 PEARL ST","928",NULL,"PEARL","ST",NULL,"BOULDER","CO","80302","RESTAURANT 0 TO 100 SEATS","FULL SERVICE FULL MENU","ROUTINE INSPECTION","2013-02-26","12B","Non-Food Contact Surfaces Cleaning",0,"Non-Critical","Not Observed",60,"928 PEARL ST
BOULDER, CO 80302
(40.017202, -105.283305)"
"FA0000666","JAX FISH HOUSE","928 PEARL ST","928",NULL,"PEARL","ST",NULL,"BOULDER","CO","80302","RESTAURANT 0 TO 100 SEATS","FULL SERVICE FULL MENU","ROUTINE INSPECTION","2016-03-04","02A","Personnel With Infections Restricted",0,"Critical","In",40,"928 PEARL ST
BOULDER, CO 80302
(40.017202, -105.283305)"
"FA0000666","JAX FISH HOUSE","928 PEARL ST","928",NULL,"PEARL","ST",NULL,"BOULDER","CO","80302","RESTAURANT 0 TO 100 SEATS","FULL SERVICE FULL MENU","ROUTINE INSPECTION","2018-12-14","05A","Safe Water Source",0,"Critical","In",15,"928 PEARL ST
BOULDER, CO 80302
(40.017202, -105.283305)"
"FA0000666","JAX FISH HOUSE","928 PEARL ST","928",NULL,"PEARL","ST",NULL,"BOULDER","CO","80302","RESTAURANT 0 TO 100 SEATS","FULL SERVICE FULL MENU","ROUTINE INSPECTION","2013-02-26","11C","Chemical Test Kits Provided Accessible",0,"Non-Critical","Not Observed",60,"928 PEARL ST
BOULDER, CO 80302
(40.017202, -105.283305)"
"FA0000666","JAX FISH HOUSE","928 PEARL ST","928",NULL,"PEARL","ST",NULL,"BOULDER","CO","80302","RESTAURANT 0 TO 100 SEATS","FULL SERVICE FULL MENU","ROUTINE INSPECTION","2015-02-05","14B","Garbage and Refuse",0,"Non-Critical","Not Observed",25,"928 PEARL ST
BOULDER, CO 80302
(40.017202, -105.283305)"
"FA0000666","JAX FISH HOUSE","928 PEARL ST","928",NULL,"PEARL","ST",NULL,"BOULDER","CO","80302","RESTAURANT 0 TO 100 SEATS","FULL SERVICE FULL MENU","ROUTINE INSPECTION","2015-02-05","04C","In Place",0,"Critical","In",25,"928 PEARL ST
BOULDER, CO 80302
(40.017202, -105.283305)"
"FA0000666","JAX FISH HOUSE","928 PEARL ST","928",NULL,"PEARL","ST",NULL,"BOULDER","CO","80302","RESTAURANT 0 TO 100 SEATS","FULL SERVICE FULL MENU","ROUTINE INSPECTION","2018-12-14","04A","Manual",0,"Critical","In",15,"928 PEARL ST
BOULDER, CO 80302
(40.017202, -105.283305)"
"FA0000666","JAX FISH HOUSE","928 PEARL ST","928",NULL,"PEARL","ST",NULL,"BOULDER","CO","80302","RESTAURANT 0 TO 100 SEATS","FULL SERVICE FULL MENU","ROUTINE INSPECTION","2013-02-26","13C","No Reuse of Single Service Articles",0,"Non-Critical","Not Observed",60,"928 PEARL ST
BOULDER, CO 80302
(40.017202, -105.283305)"
"FA0000666","JAX FISH HOUSE","928 PEARL ST","928",NULL,"PEARL","ST",NULL,"BOULDER","CO","80302","RESTAURANT 0 TO 100 SEATS","FULL SERVICE FULL MENU","ROUTINE INSPECTION","2013-02-26","06C","Soap and Drying Devices",0,"Critical","In",60,"928 PEARL ST
BOULDER, CO 80302
(40.017202, -105.283305)"
"FA0000666","JAX FISH HOUSE","928 PEARL ST","928",NULL,"PEARL","ST",NULL,"BOULDER","CO","80302","RESTAURANT 0 TO 100 SEATS","FULL SERVICE FULL MENU","ROUTINE INSPECTION","2016-03-04","14C","Floors Walls Ceilings",0,"Non-Critical","Not Observed",40,"928 PEARL ST
BOULDER, CO 80302
(40.017202, -105.283305)"
"FA0000666","JAX FISH HOUSE","928 PEARL ST","928",NULL,"PEARL","ST",NULL,"BOULDER","CO","80302","RESTAURANT 0 TO 100 SEATS","FULL SERVICE FULL MENU","ROUTINE INSPECTION","2016-03-04","14D","Lighting",0,"Non-Critical","Not Observed",40,"928 PEARL ST
BOULDER, CO 80302
(40.017202, -105.283305)"
"FA0000666","JAX FISH HOUSE","928 PEARL ST","928",NULL,"PEARL","ST",NULL,"BOULDER","CO","80302","RESTAURANT 0 TO 100 SEATS","FULL SERVICE FULL MENU","ROUTINE INSPECTION","2018-12-14","14A","Plumbing Installed Maintained",0,"Non-Critical","Not Observed",15,"928 PEARL ST
BOULDER, CO 80302
(40.017202, -105.283305)"
"FA0000666","JAX FISH HOUSE","928 PEARL ST","928",NULL,"PEARL","ST",NULL,"BOULDER","CO","80302","RESTAURANT 0 TO 100 SEATS","FULL SERVICE FULL MENU","ROUTINE INSPECTION","2013-02-26","03E","Cold Hold at 41 Degrees or Less",15,"Critical","Out",60,"928 PEARL ST
BOULDER, CO 80302
(40.017202, -105.283305)"
"FA0000666","JAX FISH HOUSE","928 PEARL ST","928",NULL,"PEARL","ST",NULL,"BOULDER","CO","80302","RESTAURANT 0 TO 100 SEATS","FULL SERVICE FULL MENU","ROUTINE INSPECTION","2016-03-04","12A","Food Contact Surfaces Cleaning",0,"Non-Critical","Not Observed",40,"928 PEARL ST
BOULDER, CO 80302
(40.017202, -105.283305)"
"FA0000666","JAX FISH HOUSE","928 PEARL ST","928",NULL,"PEARL","ST",NULL,"BOULDER","CO","80302","RESTAURANT 0 TO 100 SEATS","FULL SERVICE FULL MENU","ROUTINE INSPECTION","2015-02-05","10B","Non-Food Contact Surfaces Construction",0,"Non-Critical","Not Observed",25,"928 PEARL ST
BOULDER, CO 80302
(40.017202, -105.283305)"
"FA0000666","JAX FISH HOUSE","928 PEARL ST","928",NULL,"PEARL","ST",NULL,"BOULDER","CO","80302","RESTAURANT 0 TO 100 SEATS","FULL SERVICE FULL MENU","ROUTINE INSPECTION","2015-02-05","14I","Physical Facilities Adequate Toilet Facilities",0,"Non-Critical","Not Observed",25,"928 PEARL ST
BOULDER, CO 80302
(40.017202, -105.283305)"
"FA0000666","JAX FISH HOUSE","928 PEARL ST","928",NULL,"PEARL","ST",NULL,"BOULDER","CO","80302","RESTAURANT 0 TO 100 SEATS","FULL SERVICE FULL MENU","ROUTINE INSPECTION","2013-02-26","01D","HACCP Plan",0,"Critical","Not Observed",60,"928 PEARL ST
BOULDER, CO 80302
(40.017202, -105.283305)"
"FA0000666","JAX FISH HOUSE","928 PEARL ST","928",NULL,"PEARL","ST",NULL,"BOULDER","CO","80302","RESTAURANT 0 TO 100 SEATS","FULL SERVICE FULL MENU","ROUTINE INSPECTION","2013-02-26","05D","Sewage Disposal",0,"Critical","Not Observed",60,"928 PEARL ST
BOULDER, CO 80302
(40.017202, -105.283305)"
"FA0000666","JAX FISH HOUSE","928 PEARL ST","928",NULL,"PEARL","ST",NULL,"BOULDER","CO","80302","RESTAURANT 0 TO 100 SEATS","FULL SERVICE FULL MENU","ROUTINE INSPECTION","2018-12-14","13A","Equipment Utensils Provided Used, Stored",0,"Non-Critical","Not Observed",15,"928 PEARL ST
BOULDER, CO 80302
(40.017202, -105.283305)"
"FA0000666","JAX FISH HOUSE","928 PEARL ST","928",NULL,"PEARL","ST",NULL,"BOULDER","CO","80302","RESTAURANT 0 TO 100 SEATS","FULL SERVICE FULL MENU","ROUTINE INSPECTION","2015-02-05","04B","Mechanical",0,"Critical","In",25,"928 PEARL ST
BOULDER, CO 80302
(40.017202, -105.283305)"
"FA0000666","JAX FISH HOUSE","928 PEARL ST","928",NULL,"PEARL","ST",NULL,"BOULDER","CO","80302","RESTAURANT 0 TO 100 SEATS","FULL SERVICE FULL MENU","ROUTINE INSPECTION","2016-03-04","08A","Properly Stored",0,"Critical","In",40,"928 PEARL ST
BOULDER, CO 80302
(40.017202, -105.283305)"
"FA0000666","JAX FISH HOUSE","928 PEARL ST","928",NULL,"PEARL","ST",NULL,"BOULDER","CO","80302","RESTAURANT 0 TO 100 SEATS","FULL SERVICE FULL MENU","ROUTINE INSPECTION","2015-02-05","12A","Food Contact Surfaces Cleaning",0,"Non-Critical","Not Observed",25,"928 PEARL ST
BOULDER, CO 80302
(40.017202, -105.283305)"
"FA0000666","JAX FISH HOUSE","928 PEARL ST","928",NULL,"PEARL","ST",NULL,"BOULDER","CO","80302","RESTAURANT 0 TO 100 SEATS","FULL SERVICE FULL MENU","ROUTINE INSPECTION","2016-03-04","02D","Hygienic Practices",0,"Critical","In",40,"928 PEARL ST
BOULDER, CO 80302
(40.017202, -105.283305)"
"FA0000666","JAX FISH HOUSE","928 PEARL ST","928",NULL,"PEARL","ST",NULL,"BOULDER","CO","80302","RESTAURANT 0 TO 100 SEATS","FULL SERVICE FULL MENU","ROUTINE INSPECTION","2016-03-04","14H","Separation of Living Laundry",0,"Non-Critical","Not Observed",40,"928 PEARL ST
BOULDER, CO 80302
(40.017202, -105.283305)"
"FA0000666","JAX FISH HOUSE","928 PEARL ST","928",NULL,"PEARL","ST",NULL,"BOULDER","CO","80302","RESTAURANT 0 TO 100 SEATS","FULL SERVICE FULL MENU","ROUTINE INSPECTION","2013-02-26","14E","Ventilation",0,"Non-Critical","Not Observed",60,"928 PEARL ST
BOULDER, CO 80302
(40.017202, -105.283305)"
"FA0000666","JAX FISH HOUSE","928 PEARL ST","928",NULL,"PEARL","ST",NULL,"BOULDER","CO","80302","RESTAURANT 0 TO 100 SEATS","FULL SERVICE FULL MENU","ROUTINE INSPECTION","2013-02-26","12C","Dishwashing Operations",0,"Non-Critical","Not Observed",60,"928 PEARL ST
BOULDER, CO 80302
(40.017202, -105.283305)"
"FA0000666","JAX FISH HOUSE","928 PEARL ST","928",NULL,"PEARL","ST",NULL,"BOULDER","CO","80302","RESTAURANT 0 TO 100 SEATS","FULL SERVICE FULL MENU","ROUTINE INSPECTION","2015-02-05","10C","Dishwashing Facilities",0,"Non-Critical","Not Observed",25,"928 PEARL ST
BOULDER, CO 80302
(40.017202, -105.283305)"
"FA0000666","JAX FISH HOUSE","928 PEARL ST","928",NULL,"PEARL","ST",NULL,"BOULDER","CO","80302","RESTAURANT 0 TO 100 SEATS","FULL SERVICE FULL MENU","ROUTINE INSPECTION","2013-02-26","07B","Pesticide Application",0,"Critical","Not Observed",60,"928 PEARL ST
BOULDER, CO 80302
(40.017202, -105.283305)"
"FA0000666","JAX FISH HOUSE","928 PEARL ST","928",NULL,"PEARL","ST",NULL,"BOULDER","CO","80302","RESTAURANT 0 TO 100 SEATS","FULL SERVICE FULL MENU","ROUTINE INSPECTION","2016-03-04","13B","Single Service Articles Stored Dispensed Used",0,"Non-Critical","Not Observed",40,"928 PEARL ST
BOULDER, CO 80302
(40.017202, -105.283305)"
"FA0000666","JAX FISH HOUSE","928 PEARL ST","928",NULL,"PEARL","ST",NULL,"BOULDER","CO","80302","RESTAURANT 0 TO 100 SEATS","FULL SERVICE FULL MENU","ROUTINE INSPECTION","2013-02-26","03C","Hot Hold at 135 Degrees Farenheit or Greater",0,"Critical","In",60,"928 PEARL ST
BOULDER, CO 80302
(40.017202, -105.283305)"
"FA0000666","JAX FISH HOUSE","928 PEARL ST","928",NULL,"PEARL","ST",NULL,"BOULDER","CO","80302","RESTAURANT 0 TO 100 SEATS","FULL SERVICE FULL MENU","ROUTINE INSPECTION","2015-02-05","12B","Non-Food Contact Surfaces Cleaning",0,"Non-Critical","Not Observed",25,"928 PEARL ST
BOULDER, CO 80302
(40.017202, -105.283305)"
"FA0000666","JAX FISH HOUSE","928 PEARL ST","928",NULL,"PEARL","ST",NULL,"BOULDER","CO","80302","RESTAURANT 0 TO 100 SEATS","FULL SERVICE FULL MENU","ROUTINE INSPECTION","2013-02-26","10B","Non-Food Contact Surfaces Construction",0,"Non-Critical","Not Observed",60,"928 PEARL ST
BOULDER, CO 80302
(40.017202, -105.283305)"
"FA0000666","JAX FISH HOUSE","928 PEARL ST","928",NULL,"PEARL","ST",NULL,"BOULDER","CO","80302","RESTAURANT 0 TO 100 SEATS","FULL SERVICE FULL MENU","ROUTINE INSPECTION","2016-03-04","03B","Rapidly Reheat to 165 Degrees or Greater",0,"Critical","Not Observed",40,"928 PEARL ST
BOULDER, CO 80302
(40.017202, -105.283305)"
"FA0000666","JAX FISH HOUSE","928 PEARL ST","928",NULL,"PEARL","ST",NULL,"BOULDER","CO","80302","RESTAURANT 0 TO 100 SEATS","FULL SERVICE FULL MENU","ROUTINE INSPECTION","2018-12-14","14F","Locker Rooms",0,"Non-Critical","Not Observed",15,"928 PEARL ST
BOULDER, CO 80302
(40.017202, -105.283305)"
"FA0000666","JAX FISH HOUSE","928 PEARL ST","928",NULL,"PEARL","ST",NULL,"BOULDER","CO","80302","RESTAURANT 0 TO 100 SEATS","FULL SERVICE FULL MENU","ROUTINE INSPECTION","2013-02-26","12D","Wiping Cloths",0,"Non-Critical","Not Observed",60,"928 PEARL ST
BOULDER, CO 80302
(40.017202, -105.283305)"
"FA0000666","JAX FISH HOUSE","928 PEARL ST","928",NULL,"PEARL","ST",NULL,"BOULDER","CO","80302","RESTAURANT 0 TO 100 SEATS","FULL SERVICE FULL MENU","ROUTINE INSPECTION","2018-12-14","14I","Physical Facilities Adequate Toilet Facilities",0,"Non-Critical","Not Observed",15,"928 PEARL ST
BOULDER, CO 80302
(40.017202, -105.283305)"
"FA0000666","JAX FISH HOUSE","928 PEARL ST","928",NULL,"PEARL","ST",NULL,"BOULDER","CO","80302","RESTAURANT 0 TO 100 SEATS","FULL SERVICE FULL MENU","ROUTINE INSPECTION","2016-03-04","02F","Training Needed",0,"Critical","In",40,"928 PEARL ST
BOULDER, CO 80302
(40.017202, -105.283305)"
"FA0000666","JAX FISH HOUSE","928 PEARL ST","928",NULL,"PEARL","ST",NULL,"BOULDER","CO","80302","RESTAURANT 0 TO 100 SEATS","FULL SERVICE FULL MENU","ROUTINE INSPECTION","2018-12-14","15B","Linen Properly Stored",0,"Non-Critical","Not Observed",15,"928 PEARL ST
BOULDER, CO 80302
(40.017202, -105.283305)"
"FA0000666","JAX FISH HOUSE","928 PEARL ST","928",NULL,"PEARL","ST",NULL,"BOULDER","CO","80302","RESTAURANT 0 TO 100 SEATS","FULL SERVICE FULL MENU","ROUTINE INSPECTION","2015-02-05","14F","Locker Rooms",0,"Non-Critical","Not Observed",25,"928 PEARL ST
BOULDER, CO 80302
(40.017202, -105.283305)"
"FA0000666","JAX FISH HOUSE","928 PEARL ST","928",NULL,"PEARL","ST",NULL,"BOULDER","CO","80302","RESTAURANT 0 TO 100 SEATS","FULL SERVICE FULL MENU","ROUTINE INSPECTION","2016-03-04","02G","No Bare Hand Contact",0,"Critical","In",40,"928 PEARL ST
BOULDER, CO 80302
(40.017202, -105.283305)"
"FA0000666","JAX FISH HOUSE","928 PEARL ST","928",NULL,"PEARL","ST",NULL,"BOULDER","CO","80302","RESTAURANT 0 TO 100 SEATS","FULL SERVICE FULL MENU","ROUTINE INSPECTION","2013-02-26","14C","Floors Walls Ceilings",0,"Non-Critical","Not Observed",60,"928 PEARL ST
BOULDER, CO 80302
(40.017202, -105.283305)"
"FA0000666","JAX FISH HOUSE","928 PEARL ST","928",NULL,"PEARL","ST",NULL,"BOULDER","CO","80302","RESTAURANT 0 TO 100 SEATS","FULL SERVICE FULL MENU","ROUTINE INSPECTION","2016-03-04","01E","Date Marking",0,"Critical","Not Applicable",40,"928 PEARL ST
BOULDER, CO 80302
(40.017202, -105.283305)"
"FA0000666","JAX FISH HOUSE","928 PEARL ST","928",NULL,"PEARL","ST",NULL,"BOULDER","CO","80302","RESTAURANT 0 TO 100 SEATS","FULL SERVICE FULL MENU","ROUTINE INSPECTION","2013-02-26","02F","Training Needed",0,"Critical","Not Observed",60,"928 PEARL ST
BOULDER, CO 80302
(40.017202, -105.283305)"
"FA0000666","JAX FISH HOUSE","928 PEARL ST","928",NULL,"PEARL","ST",NULL,"BOULDER","CO","80302","RESTAURANT 0 TO 100 SEATS","FULL SERVICE FULL MENU","ROUTINE INSPECTION","2015-02-05","05A","Safe Water Source",0,"Critical","In",25,"928 PEARL ST
BOULDER, CO 80302
(40.017202, -105.283305)"
"FA0000666","JAX FISH HOUSE","928 PEARL ST","928",NULL,"PEARL","ST",NULL,"BOULDER","CO","80302","RESTAURANT 0 TO 100 SEATS","FULL SERVICE FULL MENU","ROUTINE INSPECTION","2018-12-14","12C","Dishwashing Operations",0,"Non-Critical","Not Observed",15,"928 PEARL ST
BOULDER, CO 80302
(40.017202, -105.283305)"
"FA0000666","JAX FISH HOUSE","928 PEARL ST","928",NULL,"PEARL","ST",NULL,"BOULDER","CO","80302","RESTAURANT 0 TO 100 SEATS","FULL SERVICE FULL MENU","ROUTINE INSPECTION","2015-02-05","07C","Animals Prohibited",0,"Critical","In",25,"928 PEARL ST
BOULDER, CO 80302
(40.017202, -105.283305)"
"FA0000666","JAX FISH HOUSE","928 PEARL ST","928",NULL,"PEARL","ST",NULL,"BOULDER","CO","80302","RESTAURANT 0 TO 100 SEATS","FULL SERVICE FULL MENU","ROUTINE INSPECTION","2013-02-26","09A","Original Container Properly Labeled",0,"Non-Critical","Not Observed",60,"928 PEARL ST
BOULDER, CO 80302
(40.017202, -105.283305)"
"FA0000666","JAX FISH HOUSE","928 PEARL ST","928",NULL,"PEARL","ST",NULL,"BOULDER","CO","80302","RESTAURANT 0 TO 100 SEATS","FULL SERVICE FULL MENU","ROUTINE INSPECTION","2015-02-05","09A","Original Container Properly Labeled",0,"Non-Critical","Not Observed",25,"928 PEARL ST
BOULDER, CO 80302
(40.017202, -105.283305)"
"FA0000666","JAX FISH HOUSE","928 PEARL ST","928",NULL,"PEARL","ST",NULL,"BOULDER","CO","80302","RESTAURANT 0 TO 100 SEATS","FULL SERVICE FULL MENU","ROUTINE INSPECTION","2018-12-14","15A","Personnel: Clean Clothes Hair Restraints Authorizat",0,"Non-Critical","Not Observed",15,"928 PEARL ST
BOULDER, CO 80302
(40.017202, -105.283305)"
"FA0000666","JAX FISH HOUSE","928 PEARL ST","928",NULL,"PEARL","ST",NULL,"BOULDER","CO","80302","RESTAURANT 0 TO 100 SEATS","FULL SERVICE FULL MENU","ROUTINE INSPECTION","2016-03-04","15B","Linen Properly Stored",0,"Non-Critical","Not Observed",40,"928 PEARL ST
BOULDER, CO 80302
(40.017202, -105.283305)"
"FA0000666","JAX FISH HOUSE","928 PEARL ST","928",NULL,"PEARL","ST",NULL,"BOULDER","CO","80302","RESTAURANT 0 TO 100 SEATS","FULL SERVICE FULL MENU","ROUTINE INSPECTION","2016-03-04","07B","Pesticide Application",0,"Critical","In",40,"928 PEARL ST
BOULDER, CO 80302
(40.017202, -105.283305)"
"FA0000666","JAX FISH HOUSE","928 PEARL ST","928",NULL,"PEARL","ST",NULL,"BOULDER","CO","80302","RESTAURANT 0 TO 100 SEATS","FULL SERVICE FULL MENU","ROUTINE INSPECTION","2016-03-04","01C","Cross Contamination",0,"Critical","In",40,"928 PEARL ST
BOULDER, CO 80302
(40.017202, -105.283305)"
"FA0000666","JAX FISH HOUSE","928 PEARL ST","928",NULL,"PEARL","ST",NULL,"BOULDER","CO","80302","RESTAURANT 0 TO 100 SEATS","FULL SERVICE FULL MENU","ROUTINE INSPECTION","2018-12-14","10A","Food-Contact Surfaces Construction",0,"Non-Critical","Not Observed",15,"928 PEARL ST
BOULDER, CO 80302
(40.017202, -105.283305)"
"FA0000666","JAX FISH HOUSE","928 PEARL ST","928",NULL,"PEARL","ST",NULL,"BOULDER","CO","80302","RESTAURANT 0 TO 100 SEATS","FULL SERVICE FULL MENU","ROUTINE INSPECTION","2018-12-14","03C","Hot Hold at 135 Degrees Farenheit or Greater",0,"Critical","In",15,"928 PEARL ST
BOULDER, CO 80302
(40.017202, -105.283305)"
"FA0000666","JAX FISH HOUSE","928 PEARL ST","928",NULL,"PEARL","ST",NULL,"BOULDER","CO","80302","RESTAURANT 0 TO 100 SEATS","FULL SERVICE FULL MENU","ROUTINE INSPECTION","2013-02-26","02A","Personnel With Infections Restricted",0,"Critical","In",60,"928 PEARL ST
BOULDER, CO 80302
(40.017202, -105.283305)"
"FA0000666","JAX FISH HOUSE","928 PEARL ST","928",NULL,"PEARL","ST",NULL,"BOULDER","CO","80302","RESTAURANT 0 TO 100 SEATS","FULL SERVICE FULL MENU","ROUTINE INSPECTION","2018-12-14","10C","Dishwashing Facilities",0,"Non-Critical","Not Observed",15,"928 PEARL ST
BOULDER, CO 80302
(40.017202, -105.283305)"
"FA0000666","JAX FISH HOUSE","928 PEARL ST","928",NULL,"PEARL","ST",NULL,"BOULDER","CO","80302","RESTAURANT 0 TO 100 SEATS","FULL SERVICE FULL MENU","ROUTINE INSPECTION","2018-12-14","07A","Evidence of Insects or Rodents",0,"Critical","In",15,"928 PEARL ST
BOULDER, CO 80302
(40.017202, -105.283305)"
"FA0000666","JAX FISH HOUSE","928 PEARL ST","928",NULL,"PEARL","ST",NULL,"BOULDER","CO","80302","RESTAURANT 0 TO 100 SEATS","FULL SERVICE FULL MENU","ROUTINE INSPECTION","2018-12-14","12D","Wiping Cloths",0,"Non-Critical","Not Observed",15,"928 PEARL ST
BOULDER, CO 80302
(40.017202, -105.283305)"
"FA0000666","JAX FISH HOUSE","928 PEARL ST","928",NULL,"PEARL","ST",NULL,"BOULDER","CO","80302","RESTAURANT 0 TO 100 SEATS","FULL SERVICE FULL MENU","ROUTINE INSPECTION","2016-03-04","10C","Dishwashing Facilities",0,"Non-Critical","Not Observed",40,"928 PEARL ST
BOULDER, CO 80302
(40.017202, -105.283305)"
"FA0000666","JAX FISH HOUSE","928 PEARL ST","928",NULL,"PEARL","ST",NULL,"BOULDER","CO","80302","RESTAURANT 0 TO 100 SEATS","FULL SERVICE FULL MENU","ROUTINE INSPECTION","2015-02-05","05D","Sewage Disposal",0,"Critical","In",25,"928 PEARL ST
BOULDER, CO 80302
(40.017202, -105.283305)"
"FA0000666","JAX FISH HOUSE","928 PEARL ST","928",NULL,"PEARL","ST",NULL,"BOULDER","CO","80302","RESTAURANT 0 TO 100 SEATS","FULL SERVICE FULL MENU","ROUTINE INSPECTION","2016-03-04","14B","Garbage and Refuse",0,"Non-Critical","Not Observed",40,"928 PEARL ST
BOULDER, CO 80302
(40.017202, -105.283305)"
"FA0000666","JAX FISH HOUSE","928 PEARL ST","928",NULL,"PEARL","ST",NULL,"BOULDER","CO","80302","RESTAURANT 0 TO 100 SEATS","FULL SERVICE FULL MENU","ROUTINE INSPECTION","2013-02-26","14I","Physical Facilities Adequate Toilet Facilities",0,"Non-Critical","Not Observed",60,"928 PEARL ST
BOULDER, CO 80302
(40.017202, -105.283305)"
"FA0000666","JAX FISH HOUSE","928 PEARL ST","928",NULL,"PEARL","ST",NULL,"BOULDER","CO","80302","RESTAURANT 0 TO 100 SEATS","FULL SERVICE FULL MENU","ROUTINE INSPECTION","2015-02-05","13C","No Reuse of Single Service Articles",0,"Non-Critical","Not Observed",25,"928 PEARL ST
BOULDER, CO 80302
(40.017202, -105.283305)"
"FA0000666","JAX FISH HOUSE","928 PEARL ST","928",NULL,"PEARL","ST",NULL,"BOULDER","CO","80302","RESTAURANT 0 TO 100 SEATS","FULL SERVICE FULL MENU","ROUTINE INSPECTION","2015-02-05","07A","Evidence of Insects or Rodents",0,"Critical","In",25,"928 PEARL ST
BOULDER, CO 80302
(40.017202, -105.283305)"
"FA0000666","JAX FISH HOUSE","928 PEARL ST","928",NULL,"PEARL","ST",NULL,"BOULDER","CO","80302","RESTAURANT 0 TO 100 SEATS","FULL SERVICE FULL MENU","ROUTINE INSPECTION","2013-02-26","03B","Rapidly Reheat to 165 Degrees or Greater",0,"Critical","In",60,"928 PEARL ST
BOULDER, CO 80302
(40.017202, -105.283305)"
"FA0000666","JAX FISH HOUSE","928 PEARL ST","928",NULL,"PEARL","ST",NULL,"BOULDER","CO","80302","RESTAURANT 0 TO 100 SEATS","FULL SERVICE FULL MENU","ROUTINE INSPECTION","2016-03-04","03C","Hot Hold at 135 Degrees Farenheit or Greater",0,"Critical","Not Observed",40,"928 PEARL ST
BOULDER, CO 80302
(40.017202, -105.283305)"
"FA0000666","JAX FISH HOUSE","928 PEARL ST","928",NULL,"PEARL","ST",NULL,"BOULDER","CO","80302","RESTAURANT 0 TO 100 SEATS","FULL SERVICE FULL MENU","ROUTINE INSPECTION","2013-02-26","11A","Refrigeration Units With Accurate Thermometers",0,"Non-Critical","Not Observed",60,"928 PEARL ST
BOULDER, CO 80302
(40.017202, -105.283305)"
"FA0000666","JAX FISH HOUSE","928 PEARL ST","928",NULL,"PEARL","ST",NULL,"BOULDER","CO","80302","RESTAURANT 0 TO 100 SEATS","FULL SERVICE FULL MENU","ROUTINE INSPECTION","2013-02-26","02C","Hands Washed As Needed",0,"Critical","In",60,"928 PEARL ST
BOULDER, CO 80302
(40.017202, -105.283305)"
"FA0000666","JAX FISH HOUSE","928 PEARL ST","928",NULL,"PEARL","ST",NULL,"BOULDER","CO","80302","RESTAURANT 0 TO 100 SEATS","FULL SERVICE FULL MENU","ROUTINE INSPECTION","2013-02-26","10A","Food-Contact Surfaces Construction",0,"Non-Critical","Not Observed",60,"928 PEARL ST
BOULDER, CO 80302
(40.017202, -105.283305)"
"FA0000666","JAX FISH HOUSE","928 PEARL ST","928",NULL,"PEARL","ST",NULL,"BOULDER","CO","80302","RESTAURANT 0 TO 100 SEATS","FULL SERVICE FULL MENU","ROUTINE INSPECTION","2016-03-04","05D","Sewage Disposal",0,"Critical","In",40,"928 PEARL ST
BOULDER, CO 80302
(40.017202, -105.283305)"
"FA0000666","JAX FISH HOUSE","928 PEARL ST","928",NULL,"PEARL","ST",NULL,"BOULDER","CO","80302","RESTAURANT 0 TO 100 SEATS","FULL SERVICE FULL MENU","ROUTINE INSPECTION","2013-02-26","01A","Approved Source",0,"Critical","In",60,"928 PEARL ST
BOULDER, CO 80302
(40.017202, -105.283305)"
"FA0000666","JAX FISH HOUSE","928 PEARL ST","928",NULL,"PEARL","ST",NULL,"BOULDER","CO","80302","RESTAURANT 0 TO 100 SEATS","FULL SERVICE FULL MENU","ROUTINE INSPECTION","2018-12-14","03B","Rapidly Reheat to 165 Degrees or Greater",0,"Critical","In",15,"928 PEARL ST
BOULDER, CO 80302
(40.017202, -105.283305)"
"FA0000666","JAX FISH HOUSE","928 PEARL ST","928",NULL,"PEARL","ST",NULL,"BOULDER","CO","80302","RESTAURANT 0 TO 100 SEATS","FULL SERVICE FULL MENU","ROUTINE INSPECTION","2015-02-05","11B","Dishmachine With Accurate Thermometer & Gauge Cock",0,"Non-Critical","Not Observed",25,"928 PEARL ST
BOULDER, CO 80302
(40.017202, -105.283305)"
"FA0000666","JAX FISH HOUSE","928 PEARL ST","928",NULL,"PEARL","ST",NULL,"BOULDER","CO","80302","RESTAURANT 0 TO 100 SEATS","FULL SERVICE FULL MENU","ROUTINE INSPECTION","2016-03-04","03D","Required Cooking Temperature",0,"Critical","Not Observed",40,"928 PEARL ST
BOULDER, CO 80302
(40.017202, -105.283305)"
"FA0000666","JAX FISH HOUSE","928 PEARL ST","928",NULL,"PEARL","ST",NULL,"BOULDER","CO","80302","RESTAURANT 0 TO 100 SEATS","FULL SERVICE FULL MENU","ROUTINE INSPECTION","2015-02-05","03G","Adequate Equipment to Maintain Food Temperatures",0,"Critical","In",25,"928 PEARL ST
BOULDER, CO 80302
(40.017202, -105.283305)"
"FA0000666","JAX FISH HOUSE","928 PEARL ST","928",NULL,"PEARL","ST",NULL,"BOULDER","CO","80302","RESTAURANT 0 TO 100 SEATS","FULL SERVICE FULL MENU","ROUTINE INSPECTION","2018-12-14","05C","Backflow Back Siphonage",0,"Critical","In",15,"928 PEARL ST
BOULDER, CO 80302
(40.017202, -105.283305)"
"FA0000666","JAX FISH HOUSE","928 PEARL ST","928",NULL,"PEARL","ST",NULL,"BOULDER","CO","80302","RESTAURANT 0 TO 100 SEATS","FULL SERVICE FULL MENU","ROUTINE INSPECTION","2015-02-05","08B","Properly Labeled",5,"Critical","Out",25,"928 PEARL ST
BOULDER, CO 80302
(40.017202, -105.283305)"
"FA0000666","JAX FISH HOUSE","928 PEARL ST","928",NULL,"PEARL","ST",NULL,"BOULDER","CO","80302","RESTAURANT 0 TO 100 SEATS","FULL SERVICE FULL MENU","ROUTINE INSPECTION","2013-02-26","13B","Single Service Articles Stored Dispensed Used",0,"Non-Critical","Not Observed",60,"928 PEARL ST
BOULDER, CO 80302
(40.017202, -105.283305)"
"FA0000666","JAX FISH HOUSE","928 PEARL ST","928",NULL,"PEARL","ST",NULL,"BOULDER","CO","80302","RESTAURANT 0 TO 100 SEATS","FULL SERVICE FULL MENU","ROUTINE INSPECTION","2018-12-14","07B","Pesticide Application",0,"Critical","In",15,"928 PEARL ST
BOULDER, CO 80302
(40.017202, -105.283305)"
"FA0000666","JAX FISH HOUSE","928 PEARL ST","928",NULL,"PEARL","ST",NULL,"BOULDER","CO","80302","RESTAURANT 0 TO 100 SEATS","FULL SERVICE FULL MENU","ROUTINE INSPECTION","2013-02-26","04C","In Place",0,"Critical","Not Observed",60,"928 PEARL ST
BOULDER, CO 80302
(40.017202, -105.283305)"
"FA0000666","JAX FISH HOUSE","928 PEARL ST","928",NULL,"PEARL","ST",NULL,"BOULDER","CO","80302","RESTAURANT 0 TO 100 SEATS","FULL SERVICE FULL MENU","ROUTINE INSPECTION","2015-02-05","01F","Consumer Advisory",0,"Critical","In",25,"928 PEARL ST
BOULDER, CO 80302
(40.017202, -105.283305)"
"FA0000666","JAX FISH HOUSE","928 PEARL ST","928",NULL,"PEARL","ST",NULL,"BOULDER","CO","80302","RESTAURANT 0 TO 100 SEATS","FULL SERVICE FULL MENU","ROUTINE INSPECTION","2015-02-05","03E","Cold Hold at 41 Degrees or Less",0,"Critical","In",25,"928 PEARL ST
BOULDER, CO 80302
(40.017202, -105.283305)"
"FA0000666","JAX FISH HOUSE","928 PEARL ST","928",NULL,"PEARL","ST",NULL,"BOULDER","CO","80302","RESTAURANT 0 TO 100 SEATS","FULL SERVICE FULL MENU","ROUTINE INSPECTION","2015-02-05","01B","Wholesome Free of Spoilage",0,"Critical","In",25,"928 PEARL ST
BOULDER, CO 80302
(40.017202, -105.283305)"
"FA0000666","JAX FISH HOUSE","928 PEARL ST","928",NULL,"PEARL","ST",NULL,"BOULDER","CO","80302","RESTAURANT 0 TO 100 SEATS","FULL SERVICE FULL MENU","ROUTINE INSPECTION","2018-12-14","02E","Smoking Eating Drinking",0,"Critical","In",15,"928 PEARL ST
BOULDER, CO 80302
(40.017202, -105.283305)"
"FA0000666","JAX FISH HOUSE","928 PEARL ST","928",NULL,"PEARL","ST",NULL,"BOULDER","CO","80302","RESTAURANT 0 TO 100 SEATS","FULL SERVICE FULL MENU","ROUTINE INSPECTION","2016-03-04","02B","Wounds Properly Covered",0,"Critical","Not Observed",40,"928 PEARL ST
BOULDER, CO 80302
(40.017202, -105.283305)"
"FA0000666","JAX FISH HOUSE","928 PEARL ST","928",NULL,"PEARL","ST",NULL,"BOULDER","CO","80302","RESTAURANT 0 TO 100 SEATS","FULL SERVICE FULL MENU","ROUTINE INSPECTION","2015-02-05","14A","Plumbing Installed Maintained",0,"Non-Critical","Not Observed",25,"928 PEARL ST
BOULDER, CO 80302
(40.017202, -105.283305)"
"FA0000666","JAX FISH HOUSE","928 PEARL ST","928",NULL,"PEARL","ST",NULL,"BOULDER","CO","80302","RESTAURANT 0 TO 100 SEATS","FULL SERVICE FULL MENU","ROUTINE INSPECTION","2018-12-14","02G","No Bare Hand Contact",0,"Critical","In",15,"928 PEARL ST
BOULDER, CO 80302
(40.017202, -105.283305)"
"FA0000666","JAX FISH HOUSE","928 PEARL ST","928",NULL,"PEARL","ST",NULL,"BOULDER","CO","80302","RESTAURANT 0 TO 100 SEATS","FULL SERVICE FULL MENU","ROUTINE INSPECTION","2016-03-04","13C","No Reuse of Single Service Articles",0,"Non-Critical","Not Observed",40,"928 PEARL ST
BOULDER, CO 80302
(40.017202, -105.283305)"
"FA0000666","JAX FISH HOUSE","928 PEARL ST","928",NULL,"PEARL","ST",NULL,"BOULDER","CO","80302","RESTAURANT 0 TO 100 SEATS","FULL SERVICE FULL MENU","ROUTINE INSPECTION","2015-02-05","06B","Accessible",0,"Critical","In",25,"928 PEARL ST
BOULDER, CO 80302
(40.017202, -105.283305)"
"FA0000666","JAX FISH HOUSE","928 PEARL ST","928",NULL,"PEARL","ST",NULL,"BOULDER","CO","80302","RESTAURANT 0 TO 100 SEATS","FULL SERVICE FULL MENU","ROUTINE INSPECTION","2016-03-04","06A","Adequate Number Location Design",0,"Critical","In",40,"928 PEARL ST
BOULDER, CO 80302
(40.017202, -105.283305)"
"FA0000666","JAX FISH HOUSE","928 PEARL ST","928",NULL,"PEARL","ST",NULL,"BOULDER","CO","80302","RESTAURANT 0 TO 100 SEATS","FULL SERVICE FULL MENU","ROUTINE INSPECTION","2016-03-04","09B","Food Protected from Contamination",0,"Non-Critical","Not Observed",40,"928 PEARL ST
BOULDER, CO 80302
(40.017202, -105.283305)"
"FA0000666","JAX FISH HOUSE","928 PEARL ST","928",NULL,"PEARL","ST",NULL,"BOULDER","CO","80302","RESTAURANT 0 TO 100 SEATS","FULL SERVICE FULL MENU","ROUTINE INSPECTION","2015-02-05","02D","Hygienic Practices",0,"Critical","In",25,"928 PEARL ST
BOULDER, CO 80302
(40.017202, -105.283305)"
"FA0000666","JAX FISH HOUSE","928 PEARL ST","928",NULL,"PEARL","ST",NULL,"BOULDER","CO","80302","RESTAURANT 0 TO 100 SEATS","FULL SERVICE FULL MENU","ROUTINE INSPECTION","2016-03-04","09A","Original Container Properly Labeled",0,"Non-Critical","Not Observed",40,"928 PEARL ST
BOULDER, CO 80302
(40.017202, -105.283305)"
"FA0000666","JAX FISH HOUSE","928 PEARL ST","928",NULL,"PEARL","ST",NULL,"BOULDER","CO","80302","RESTAURANT 0 TO 100 SEATS","FULL SERVICE FULL MENU","ROUTINE INSPECTION","2018-12-14","06A","Adequate Number Location Design",0,"Critical","In",15,"928 PEARL ST
BOULDER, CO 80302
(40.017202, -105.283305)"
"FA0000666","JAX FISH HOUSE","928 PEARL ST","928",NULL,"PEARL","ST",NULL,"BOULDER","CO","80302","RESTAURANT 0 TO 100 SEATS","FULL SERVICE FULL MENU","ROUTINE INSPECTION","2016-03-04","14E","Ventilation",0,"Non-Critical","Not Observed",40,"928 PEARL ST
BOULDER, CO 80302
(40.017202, -105.283305)"
"FA0000666","JAX FISH HOUSE","928 PEARL ST","928",NULL,"PEARL","ST",NULL,"BOULDER","CO","80302","RESTAURANT 0 TO 100 SEATS","FULL SERVICE FULL MENU","ROUTINE INSPECTION","2016-03-04","14I","Physical Facilities Adequate Toilet Facilities",0,"Non-Critical","Not Observed",40,"928 PEARL ST
BOULDER, CO 80302
(40.017202, -105.283305)"
"FA0000666","JAX FISH HOUSE","928 PEARL ST","928",NULL,"PEARL","ST",NULL,"BOULDER","CO","80302","RESTAURANT 0 TO 100 SEATS","FULL SERVICE FULL MENU","ROUTINE INSPECTION","2016-03-04","15A","Personnel: Clean Clothes Hair Restraints Authorizat",0,"Non-Critical","Not Observed",40,"928 PEARL ST
BOULDER, CO 80302
(40.017202, -105.283305)"
"FA0000666","JAX FISH HOUSE","928 PEARL ST","928",NULL,"PEARL","ST",NULL,"BOULDER","CO","80302","RESTAURANT 0 TO 100 SEATS","FULL SERVICE FULL MENU","ROUTINE INSPECTION","2018-12-14","02D","Hygienic Practices",0,"Critical","In",15,"928 PEARL ST
BOULDER, CO 80302
(40.017202, -105.283305)"
"FA0000666","JAX FISH HOUSE","928 PEARL ST","928",NULL,"PEARL","ST",NULL,"BOULDER","CO","80302","RESTAURANT 0 TO 100 SEATS","FULL SERVICE FULL MENU","ROUTINE INSPECTION","2016-03-04","11B","Dishmachine With Accurate Thermometer & Gauge Cock",0,"Non-Critical","Not Observed",40,"928 PEARL ST
BOULDER, CO 80302
(40.017202, -105.283305)"
"FA0000666","JAX FISH HOUSE","928 PEARL ST","928",NULL,"PEARL","ST",NULL,"BOULDER","CO","80302","RESTAURANT 0 TO 100 SEATS","FULL SERVICE FULL MENU","ROUTINE INSPECTION","2016-03-04","12B","Non-Food Contact Surfaces Cleaning",0,"Non-Critical","Not Observed",40,"928 PEARL ST
BOULDER, CO 80302
(40.017202, -105.283305)"
"FA0000666","JAX FISH HOUSE","928 PEARL ST","928",NULL,"PEARL","ST",NULL,"BOULDER","CO","80302","RESTAURANT 0 TO 100 SEATS","FULL SERVICE FULL MENU","ROUTINE INSPECTION","2015-02-05","03C","Hot Hold at 135 Degrees Farenheit or Greater",0,"Critical","In",25,"928 PEARL ST
BOULDER, CO 80302
(40.017202, -105.283305)"
"FA0000666","JAX FISH HOUSE","928 PEARL ST","928",NULL,"PEARL","ST",NULL,"BOULDER","CO","80302","RESTAURANT 0 TO 100 SEATS","FULL SERVICE FULL MENU","ROUTINE INSPECTION","2016-03-04","13A","Equipment Utensils Provided Used, Stored",0,"Non-Critical","Not Observed",40,"928 PEARL ST
BOULDER, CO 80302
(40.017202, -105.283305)"
"FA0000666","JAX FISH HOUSE","928 PEARL ST","928",NULL,"PEARL","ST",NULL,"BOULDER","CO","80302","RESTAURANT 0 TO 100 SEATS","FULL SERVICE FULL MENU","ROUTINE INSPECTION","2015-02-05","14C","Floors Walls Ceilings",0,"Non-Critical","Not Observed",25,"928 PEARL ST
BOULDER, CO 80302
(40.017202, -105.283305)"
"FA0000666","JAX FISH HOUSE","928 PEARL ST","928",NULL,"PEARL","ST",NULL,"BOULDER","CO","80302","RESTAURANT 0 TO 100 SEATS","FULL SERVICE FULL MENU","ROUTINE INSPECTION","2018-12-14","14H","Separation of Living Laundry",0,"Non-Critical","Not Observed",15,"928 PEARL ST
BOULDER, CO 80302
(40.017202, -105.283305)"
"FA0000666","JAX FISH HOUSE","928 PEARL ST","928",NULL,"PEARL","ST",NULL,"BOULDER","CO","80302","RESTAURANT 0 TO 100 SEATS","FULL SERVICE FULL MENU","ROUTINE INSPECTION","2013-02-26","02D","Hygienic Practices",5,"Critical","Out",60,"928 PEARL ST
BOULDER, CO 80302
(40.017202, -105.283305)"
"FA0000666","JAX FISH HOUSE","928 PEARL ST","928",NULL,"PEARL","ST",NULL,"BOULDER","CO","80302","RESTAURANT 0 TO 100 SEATS","FULL SERVICE FULL MENU","ROUTINE INSPECTION","2016-03-04","01B","Wholesome Free of Spoilage",0,"Critical","In",40,"928 PEARL ST
BOULDER, CO 80302
(40.017202, -105.283305)"
"FA0000666","JAX FISH HOUSE","928 PEARL ST","928",NULL,"PEARL","ST",NULL,"BOULDER","CO","80302","RESTAURANT 0 TO 100 SEATS","FULL SERVICE FULL MENU","ROUTINE INSPECTION","2015-02-05","08A","Properly Stored",0,"Critical","In",25,"928 PEARL ST
BOULDER, CO 80302
(40.017202, -105.283305)"
"FA0000666","JAX FISH HOUSE","928 PEARL ST","928",NULL,"PEARL","ST",NULL,"BOULDER","CO","80302","RESTAURANT 0 TO 100 SEATS","FULL SERVICE FULL MENU","ROUTINE INSPECTION","2015-02-05","02A","Personnel With Infections Restricted",0,"Critical","In",25,"928 PEARL ST
BOULDER, CO 80302
(40.017202, -105.283305)"
"FA0000666","JAX FISH HOUSE","928 PEARL ST","928",NULL,"PEARL","ST",NULL,"BOULDER","CO","80302","RESTAURANT 0 TO 100 SEATS","FULL SERVICE FULL MENU","ROUTINE INSPECTION","2015-02-05","01D","HACCP Plan",0,"Critical","Not Applicable",25,"928 PEARL ST
BOULDER, CO 80302
(40.017202, -105.283305)"
"FA0000666","JAX FISH HOUSE","928 PEARL ST","928",NULL,"PEARL","ST",NULL,"BOULDER","CO","80302","RESTAURANT 0 TO 100 SEATS","FULL SERVICE FULL MENU","ROUTINE INSPECTION","2016-03-04","14A","Plumbing Installed Maintained",0,"Non-Critical","Not Observed",40,"928 PEARL ST
BOULDER, CO 80302
(40.017202, -105.283305)"
"FA0000666","JAX FISH HOUSE","928 PEARL ST","928",NULL,"PEARL","ST",NULL,"BOULDER","CO","80302","RESTAURANT 0 TO 100 SEATS","FULL SERVICE FULL MENU","ROUTINE INSPECTION","2015-02-05","07B","Pesticide Application",0,"Critical","In",25,"928 PEARL ST
BOULDER, CO 80302
(40.017202, -105.283305)"
"FA0000666","JAX FISH HOUSE","928 PEARL ST","928",NULL,"PEARL","ST",NULL,"BOULDER","CO","80302","RESTAURANT 0 TO 100 SEATS","FULL SERVICE FULL MENU","ROUTINE INSPECTION","2016-03-04","02C","Hands Washed As Needed",20,"Critical","Out",40,"928 PEARL ST
BOULDER, CO 80302
(40.017202, -105.283305)"
"FA0000666","JAX FISH HOUSE","928 PEARL ST","928",NULL,"PEARL","ST",NULL,"BOULDER","CO","80302","RESTAURANT 0 TO 100 SEATS","FULL SERVICE FULL MENU","ROUTINE INSPECTION","2015-02-05","05C","Backflow Back Siphonage",0,"Critical","In",25,"928 PEARL ST
BOULDER, CO 80302
(40.017202, -105.283305)"
"FA0000666","JAX FISH HOUSE","928 PEARL ST","928",NULL,"PEARL","ST",NULL,"BOULDER","CO","80302","RESTAURANT 0 TO 100 SEATS","FULL SERVICE FULL MENU","ROUTINE INSPECTION","2013-02-26","14B","Garbage and Refuse",0,"Non-Critical","Not Observed",60,"928 PEARL ST
BOULDER, CO 80302
(40.017202, -105.283305)"
"FA0000666","JAX FISH HOUSE","928 PEARL ST","928",NULL,"PEARL","ST",NULL,"BOULDER","CO","80302","RESTAURANT 0 TO 100 SEATS","FULL SERVICE FULL MENU","ROUTINE INSPECTION","2013-02-26","03G","Adequate Equipment to Maintain Food Temperatures",0,"Critical","In",60,"928 PEARL ST
BOULDER, CO 80302
(40.017202, -105.283305)"
"FA0000666","JAX FISH HOUSE","928 PEARL ST","928",NULL,"PEARL","ST",NULL,"BOULDER","CO","80302","RESTAURANT 0 TO 100 SEATS","FULL SERVICE FULL MENU","ROUTINE INSPECTION","2013-02-26","13A","Equipment Utensils Provided Used, Stored",0,"Non-Critical","Not Observed",60,"928 PEARL ST
BOULDER, CO 80302
(40.017202, -105.283305)"
"FA0000666","JAX FISH HOUSE","928 PEARL ST","928",NULL,"PEARL","ST",NULL,"BOULDER","CO","80302","RESTAURANT 0 TO 100 SEATS","FULL SERVICE FULL MENU","ROUTINE INSPECTION","2018-12-14","14C","Floors Walls Ceilings",0,"Non-Critical","Not Observed",15,"928 PEARL ST
BOULDER, CO 80302
(40.017202, -105.283305)"
"FA0000666","JAX FISH HOUSE","928 PEARL ST","928",NULL,"PEARL","ST",NULL,"BOULDER","CO","80302","RESTAURANT 0 TO 100 SEATS","FULL SERVICE FULL MENU","ROUTINE INSPECTION","2013-02-26","09B","Food Protected from Contamination",0,"Non-Critical","Not Observed",60,"928 PEARL ST
BOULDER, CO 80302
(40.017202, -105.283305)"
"FA0000666","JAX FISH HOUSE","928 PEARL ST","928",NULL,"PEARL","ST",NULL,"BOULDER","CO","80302","RESTAURANT 0 TO 100 SEATS","FULL SERVICE FULL MENU","ROUTINE INSPECTION","2016-03-04","01A","Approved Source",0,"Critical","In",40,"928 PEARL ST
BOULDER, CO 80302
(40.017202, -105.283305)"
"FA0000666","JAX FISH HOUSE","928 PEARL ST","928",NULL,"PEARL","ST",NULL,"BOULDER","CO","80302","RESTAURANT 0 TO 100 SEATS","FULL SERVICE FULL MENU","ROUTINE INSPECTION","2015-02-05","12C","Dishwashing Operations",0,"Non-Critical","Not Observed",25,"928 PEARL ST
BOULDER, CO 80302
(40.017202, -105.283305)"
"FA0000666","JAX FISH HOUSE","928 PEARL ST","928",NULL,"PEARL","ST",NULL,"BOULDER","CO","80302","RESTAURANT 0 TO 100 SEATS","FULL SERVICE FULL MENU","ROUTINE INSPECTION","2018-12-14","05D","Sewage Disposal",0,"Critical","In",15,"928 PEARL ST
BOULDER, CO 80302
(40.017202, -105.283305)"
"FA0000666","JAX FISH HOUSE","928 PEARL ST","928",NULL,"PEARL","ST",NULL,"BOULDER","CO","80302","RESTAURANT 0 TO 100 SEATS","FULL SERVICE FULL MENU","ROUTINE INSPECTION","2013-02-26","07C","Animals Prohibited",0,"Critical","Not Observed",60,"928 PEARL ST
BOULDER, CO 80302
(40.017202, -105.283305)"
"FA0000666","JAX FISH HOUSE","928 PEARL ST","928",NULL,"PEARL","ST",NULL,"BOULDER","CO","80302","RESTAURANT 0 TO 100 SEATS","FULL SERVICE FULL MENU","ROUTINE INSPECTION","2015-02-05","03F","Food Thermometer",0,"Critical","In",25,"928 PEARL ST
BOULDER, CO 80302
(40.017202, -105.283305)"
"FA0000666","JAX FISH HOUSE","928 PEARL ST","928",NULL,"PEARL","ST",NULL,"BOULDER","CO","80302","RESTAURANT 0 TO 100 SEATS","FULL SERVICE FULL MENU","ROUTINE INSPECTION","2013-02-26","14F","Locker Rooms",0,"Non-Critical","Not Observed",60,"928 PEARL ST
BOULDER, CO 80302
(40.017202, -105.283305)"
"FA0000666","JAX FISH HOUSE","928 PEARL ST","928",NULL,"PEARL","ST",NULL,"BOULDER","CO","80302","RESTAURANT 0 TO 100 SEATS","FULL SERVICE FULL MENU","ROUTINE INSPECTION","2016-03-04","10A","Food-Contact Surfaces Construction",0,"Non-Critical","Not Observed",40,"928 PEARL ST
BOULDER, CO 80302
(40.017202, -105.283305)"
"FA0000666","JAX FISH HOUSE","928 PEARL ST","928",NULL,"PEARL","ST",NULL,"BOULDER","CO","80302","RESTAURANT 0 TO 100 SEATS","FULL SERVICE FULL MENU","ROUTINE INSPECTION","2016-03-04","07A","Evidence of Insects or Rodents",0,"Critical","In",40,"928 PEARL ST
BOULDER, CO 80302
(40.017202, -105.283305)"
"FA0000666","JAX FISH HOUSE","928 PEARL ST","928",NULL,"PEARL","ST",NULL,"BOULDER","CO","80302","RESTAURANT 0 TO 100 SEATS","FULL SERVICE FULL MENU","ROUTINE INSPECTION","2015-02-05","15B","Linen Properly Stored",0,"Non-Critical","Not Observed",25,"928 PEARL ST
BOULDER, CO 80302
(40.017202, -105.283305)"
"FA0000666","JAX FISH HOUSE","928 PEARL ST","928",NULL,"PEARL","ST",NULL,"BOULDER","CO","80302","RESTAURANT 0 TO 100 SEATS","FULL SERVICE FULL MENU","ROUTINE INSPECTION","2015-02-05","03B","Rapidly Reheat to 165 Degrees or Greater",0,"Critical","Not Observed",25,"928 PEARL ST
BOULDER, CO 80302
(40.017202, -105.283305)"
"FA0000666","JAX FISH HOUSE","928 PEARL ST","928",NULL,"PEARL","ST",NULL,"BOULDER","CO","80302","RESTAURANT 0 TO 100 SEATS","FULL SERVICE FULL MENU","ROUTINE INSPECTION","2016-03-04","04C","In Place",0,"Critical","Not Observed",40,"928 PEARL ST
BOULDER, CO 80302
(40.017202, -105.283305)"
"FA0000666","JAX FISH HOUSE","928 PEARL ST","928",NULL,"PEARL","ST",NULL,"BOULDER","CO","80302","RESTAURANT 0 TO 100 SEATS","FULL SERVICE FULL MENU","ROUTINE INSPECTION","2013-02-26","02G","No Bare Hand Contact",20,"Critical","Out",60,"928 PEARL ST
BOULDER, CO 80302
(40.017202, -105.283305)"
"FA0000666","JAX FISH HOUSE","928 PEARL ST","928",NULL,"PEARL","ST",NULL,"BOULDER","CO","80302","RESTAURANT 0 TO 100 SEATS","FULL SERVICE FULL MENU","ROUTINE INSPECTION","2015-02-05","01A","Approved Source",0,"Critical","In",25,"928 PEARL ST
BOULDER, CO 80302
(40.017202, -105.283305)"
"FA0000666","JAX FISH HOUSE","928 PEARL ST","928",NULL,"PEARL","ST",NULL,"BOULDER","CO","80302","RESTAURANT 0 TO 100 SEATS","FULL SERVICE FULL MENU","ROUTINE INSPECTION","2018-12-14","03G","Adequate Equipment to Maintain Food Temperatures",0,"Critical","In",15,"928 PEARL ST
BOULDER, CO 80302
(40.017202, -105.283305)"
"FA0000666","JAX FISH HOUSE","928 PEARL ST","928",NULL,"PEARL","ST",NULL,"BOULDER","CO","80302","RESTAURANT 0 TO 100 SEATS","FULL SERVICE FULL MENU","ROUTINE INSPECTION","2016-03-04","03G","Adequate Equipment to Maintain Food Temperatures",0,"Critical","In",40,"928 PEARL ST
BOULDER, CO 80302
(40.017202, -105.283305)"
"FA0000666","JAX FISH HOUSE","928 PEARL ST","928",NULL,"PEARL","ST",NULL,"BOULDER","CO","80302","RESTAURANT 0 TO 100 SEATS","FULL SERVICE FULL MENU","ROUTINE INSPECTION","2016-03-04","11C","Chemical Test Kits Provided Accessible",0,"Non-Critical","Not Observed",40,"928 PEARL ST
BOULDER, CO 80302
(40.017202, -105.283305)"
"FA0000666","JAX FISH HOUSE","928 PEARL ST","928",NULL,"PEARL","ST",NULL,"BOULDER","CO","80302","RESTAURANT 0 TO 100 SEATS","FULL SERVICE FULL MENU","ROUTINE INSPECTION","2013-02-26","01B","Wholesome Free of Spoilage",0,"Critical","In",60,"928 PEARL ST
BOULDER, CO 80302
(40.017202, -105.283305)"
"FA0000666","JAX FISH HOUSE","928 PEARL ST","928",NULL,"PEARL","ST",NULL,"BOULDER","CO","80302","RESTAURANT 0 TO 100 SEATS","FULL SERVICE FULL MENU","ROUTINE INSPECTION","2018-12-14","10B","Non-Food Contact Surfaces Construction",0,"Non-Critical","Not Observed",15,"928 PEARL ST
BOULDER, CO 80302
(40.017202, -105.283305)"
"FA0000666","JAX FISH HOUSE","928 PEARL ST","928",NULL,"PEARL","ST",NULL,"BOULDER","CO","80302","RESTAURANT 0 TO 100 SEATS","FULL SERVICE FULL MENU","ROUTINE INSPECTION","2013-02-26","14A","Plumbing Installed Maintained",0,"Non-Critical","Not Observed",60,"928 PEARL ST
BOULDER, CO 80302
(40.017202, -105.283305)"
"FA0000666","JAX FISH HOUSE","928 PEARL ST","928",NULL,"PEARL","ST",NULL,"BOULDER","CO","80302","RESTAURANT 0 TO 100 SEATS","FULL SERVICE FULL MENU","ROUTINE INSPECTION","2013-02-26","12A","Food Contact Surfaces Cleaning",0,"Non-Critical","Not Observed",60,"928 PEARL ST
BOULDER, CO 80302
(40.017202, -105.283305)"
"FA0000666","JAX FISH HOUSE","928 PEARL ST","928",NULL,"PEARL","ST",NULL,"BOULDER","CO","80302","RESTAURANT 0 TO 100 SEATS","FULL SERVICE FULL MENU","ROUTINE INSPECTION","2018-12-14","01F","Consumer Advisory",0,"Critical","In",15,"928 PEARL ST
BOULDER, CO 80302
(40.017202, -105.283305)"
"FA0000666","JAX FISH HOUSE","928 PEARL ST","928",NULL,"PEARL","ST",NULL,"BOULDER","CO","80302","RESTAURANT 0 TO 100 SEATS","FULL SERVICE FULL MENU","ROUTINE INSPECTION","2016-03-04","08C","Properly Used",0,"Critical","In",40,"928 PEARL ST
BOULDER, CO 80302
(40.017202, -105.283305)"
"FA0000666","JAX FISH HOUSE","928 PEARL ST","928",NULL,"PEARL","ST",NULL,"BOULDER","CO","80302","RESTAURANT 0 TO 100 SEATS","FULL SERVICE FULL MENU","ROUTINE INSPECTION","2018-12-14","06C","Soap and Drying Devices",0,"Critical","In",15,"928 PEARL ST
BOULDER, CO 80302
(40.017202, -105.283305)"
"FA0000666","JAX FISH HOUSE","928 PEARL ST","928",NULL,"PEARL","ST",NULL,"BOULDER","CO","80302","RESTAURANT 0 TO 100 SEATS","FULL SERVICE FULL MENU","ROUTINE INSPECTION","2016-03-04","06C","Soap and Drying Devices",0,"Critical","In",40,"928 PEARL ST
BOULDER, CO 80302
(40.017202, -105.283305)"
"FA0000666","JAX FISH HOUSE","928 PEARL ST","928",NULL,"PEARL","ST",NULL,"BOULDER","CO","80302","RESTAURANT 0 TO 100 SEATS","FULL SERVICE FULL MENU","ROUTINE INSPECTION","2016-03-04","03F","Food Thermometer",0,"Critical","In",40,"928 PEARL ST
BOULDER, CO 80302
(40.017202, -105.283305)"
"FA0000666","JAX FISH HOUSE","928 PEARL ST","928",NULL,"PEARL","ST",NULL,"BOULDER","CO","80302","RESTAURANT 0 TO 100 SEATS","FULL SERVICE FULL MENU","ROUTINE INSPECTION","2018-12-14","11C","Chemical Test Kits Provided Accessible",0,"Non-Critical","Not Observed",15,"928 PEARL ST
BOULDER, CO 80302
(40.017202, -105.283305)"
"FA0000666","JAX FISH HOUSE","928 PEARL ST","928",NULL,"PEARL","ST",NULL,"BOULDER","CO","80302","RESTAURANT 0 TO 100 SEATS","FULL SERVICE FULL MENU","ROUTINE INSPECTION","2016-03-04","12C","Dishwashing Operations",0,"Non-Critical","Not Observed",40,"928 PEARL ST
BOULDER, CO 80302
(40.017202, -105.283305)"
"FA0000666","JAX FISH HOUSE","928 PEARL ST","928",NULL,"PEARL","ST",NULL,"BOULDER","CO","80302","RESTAURANT 0 TO 100 SEATS","FULL SERVICE FULL MENU","ROUTINE INSPECTION","2015-02-05","01C","Cross Contamination",20,"Critical","Out",25,"928 PEARL ST
BOULDER, CO 80302
(40.017202, -105.283305)"
"FA0000666","JAX FISH HOUSE","928 PEARL ST","928",NULL,"PEARL","ST",NULL,"BOULDER","CO","80302","RESTAURANT 0 TO 100 SEATS","FULL SERVICE FULL MENU","ROUTINE INSPECTION","2018-12-14","14E","Ventilation",0,"Non-Critical","Not Observed",15,"928 PEARL ST
BOULDER, CO 80302
(40.017202, -105.283305)"
"FA0000666","JAX FISH HOUSE","928 PEARL ST","928",NULL,"PEARL","ST",NULL,"BOULDER","CO","80302","RESTAURANT 0 TO 100 SEATS","FULL SERVICE FULL MENU","ROUTINE INSPECTION","2016-03-04","14G","Premises Maintained",0,"Non-Critical","Not Observed",40,"928 PEARL ST
BOULDER, CO 80302
(40.017202, -105.283305)"
"FA0000666","JAX FISH HOUSE","928 PEARL ST","928",NULL,"PEARL","ST",NULL,"BOULDER","CO","80302","RESTAURANT 0 TO 100 SEATS","FULL SERVICE FULL MENU","ROUTINE INSPECTION","2013-02-26","02B","Wounds Properly Covered",0,"Critical","Not Observed",60,"928 PEARL ST
BOULDER, CO 80302
(40.017202, -105.283305)"
"FA0000666","JAX FISH HOUSE","928 PEARL ST","928",NULL,"PEARL","ST",NULL,"BOULDER","CO","80302","RESTAURANT 0 TO 100 SEATS","FULL SERVICE FULL MENU","ROUTINE INSPECTION","2013-02-26","06A","Adequate Number Location Design",0,"Critical","In",60,"928 PEARL ST
BOULDER, CO 80302
(40.017202, -105.283305)"
"FA0000666","JAX FISH HOUSE","928 PEARL ST","928",NULL,"PEARL","ST",NULL,"BOULDER","CO","80302","RESTAURANT 0 TO 100 SEATS","FULL SERVICE FULL MENU","ROUTINE INSPECTION","2015-02-05","02G","No Bare Hand Contact",0,"Critical","In",25,"928 PEARL ST
BOULDER, CO 80302
(40.017202, -105.283305)"
"FA0000666","JAX FISH HOUSE","928 PEARL ST","928",NULL,"PEARL","ST",NULL,"BOULDER","CO","80302","RESTAURANT 0 TO 100 SEATS","FULL SERVICE FULL MENU","ROUTINE INSPECTION","2013-02-26","08B","Properly Labeled",0,"Critical","In",60,"928 PEARL ST
BOULDER, CO 80302
(40.017202, -105.283305)"
"FA0000666","JAX FISH HOUSE","928 PEARL ST","928",NULL,"PEARL","ST",NULL,"BOULDER","CO","80302","RESTAURANT 0 TO 100 SEATS","FULL SERVICE FULL MENU","ROUTINE INSPECTION","2015-02-05","02B","Wounds Properly Covered",0,"Critical","Not Observed",25,"928 PEARL ST
BOULDER, CO 80302
(40.017202, -105.283305)"
"FA0000666","JAX FISH HOUSE","928 PEARL ST","928",NULL,"PEARL","ST",NULL,"BOULDER","CO","80302","RESTAURANT 0 TO 100 SEATS","FULL SERVICE FULL MENU","ROUTINE INSPECTION","2016-03-04","11A","Refrigeration Units With Accurate Thermometers",0,"Non-Critical","Not Observed",40,"928 PEARL ST
BOULDER, CO 80302
(40.017202, -105.283305)"
"FA0000666","JAX FISH HOUSE","928 PEARL ST","928",NULL,"PEARL","ST",NULL,"BOULDER","CO","80302","RESTAURANT 0 TO 100 SEATS","FULL SERVICE FULL MENU","ROUTINE INSPECTION","2018-12-14","09B","Food Protected from Contamination",0,"Non-Critical","Not Observed",15,"928 PEARL ST
BOULDER, CO 80302
(40.017202, -105.283305)"
"FA0000666","JAX FISH HOUSE","928 PEARL ST","928",NULL,"PEARL","ST",NULL,"BOULDER","CO","80302","RESTAURANT 0 TO 100 SEATS","FULL SERVICE FULL MENU","ROUTINE INSPECTION","2015-02-05","13A","Equipment Utensils Provided Used, Stored",0,"Non-Critical","Not Observed",25,"928 PEARL ST
BOULDER, CO 80302
(40.017202, -105.283305)"
"FA0000666","JAX FISH HOUSE","928 PEARL ST","928",NULL,"PEARL","ST",NULL,"BOULDER","CO","80302","RESTAURANT 0 TO 100 SEATS","FULL SERVICE FULL MENU","ROUTINE INSPECTION","2015-02-05","14D","Lighting",0,"Non-Critical","Not Observed",25,"928 PEARL ST
BOULDER, CO 80302
(40.017202, -105.283305)"
"FA0000666","JAX FISH HOUSE","928 PEARL ST","928",NULL,"PEARL","ST",NULL,"BOULDER","CO","80302","RESTAURANT 0 TO 100 SEATS","FULL SERVICE FULL MENU","ROUTINE INSPECTION","2018-12-14","08A","Properly Stored",0,"Critical","In",15,"928 PEARL ST
BOULDER, CO 80302
(40.017202, -105.283305)"
"FA0000666","JAX FISH HOUSE","928 PEARL ST","928",NULL,"PEARL","ST",NULL,"BOULDER","CO","80302","RESTAURANT 0 TO 100 SEATS","FULL SERVICE FULL MENU","ROUTINE INSPECTION","2018-12-14","13B","Single Service Articles Stored Dispensed Used",0,"Non-Critical","Not Observed",15,"928 PEARL ST
BOULDER, CO 80302
(40.017202, -105.283305)"
"FA0000666","JAX FISH HOUSE","928 PEARL ST","928",NULL,"PEARL","ST",NULL,"BOULDER","CO","80302","RESTAURANT 0 TO 100 SEATS","FULL SERVICE FULL MENU","ROUTINE INSPECTION","2013-02-26","03D","Required Cooking Temperature",0,"Critical","Not Observed",60,"928 PEARL ST
BOULDER, CO 80302
(40.017202, -105.283305)"
"FA0000666","JAX FISH HOUSE","928 PEARL ST","928",NULL,"PEARL","ST",NULL,"BOULDER","CO","80302","RESTAURANT 0 TO 100 SEATS","FULL SERVICE FULL MENU","ROUTINE INSPECTION","2015-02-05","12D","Wiping Cloths",0,"Non-Critical","Not Observed",25,"928 PEARL ST
BOULDER, CO 80302
(40.017202, -105.283305)"
"FA0000666","JAX FISH HOUSE","928 PEARL ST","928",NULL,"PEARL","ST",NULL,"BOULDER","CO","80302","RESTAURANT 0 TO 100 SEATS","FULL SERVICE FULL MENU","ROUTINE INSPECTION","2016-03-04","08B","Properly Labeled",0,"Critical","In",40,"928 PEARL ST
BOULDER, CO 80302
(40.017202, -105.283305)"
"FA0000666","JAX FISH HOUSE","928 PEARL ST","928",NULL,"PEARL","ST",NULL,"BOULDER","CO","80302","RESTAURANT 0 TO 100 SEATS","FULL SERVICE FULL MENU","ROUTINE INSPECTION","2018-12-14","12B","Non-Food Contact Surfaces Cleaning",0,"Non-Critical","Not Observed",15,"928 PEARL ST
BOULDER, CO 80302
(40.017202, -105.283305)"
"FA0000666","JAX FISH HOUSE","928 PEARL ST","928",NULL,"PEARL","ST",NULL,"BOULDER","CO","80302","RESTAURANT 0 TO 100 SEATS","FULL SERVICE FULL MENU","ROUTINE INSPECTION","2013-02-26","06B","Accessible",0,"Critical","In",60,"928 PEARL ST
BOULDER, CO 80302
(40.017202, -105.283305)"
"FA0000666","JAX FISH HOUSE","928 PEARL ST","928",NULL,"PEARL","ST",NULL,"BOULDER","CO","80302","RESTAURANT 0 TO 100 SEATS","FULL SERVICE FULL MENU","ROUTINE INSPECTION","2013-02-26","02E","Smoking Eating Drinking",0,"Critical","Not Observed",60,"928 PEARL ST
BOULDER, CO 80302
(40.017202, -105.283305)"
"FA0000666","JAX FISH HOUSE","928 PEARL ST","928",NULL,"PEARL","ST",NULL,"BOULDER","CO","80302","RESTAURANT 0 TO 100 SEATS","FULL SERVICE FULL MENU","ROUTINE INSPECTION","2015-02-05","14G","Premises Maintained",0,"Non-Critical","Not Observed",25,"928 PEARL ST
BOULDER, CO 80302
(40.017202, -105.283305)"
"FA0000666","JAX FISH HOUSE","928 PEARL ST","928",NULL,"PEARL","ST",NULL,"BOULDER","CO","80302","RESTAURANT 0 TO 100 SEATS","FULL SERVICE FULL MENU","ROUTINE INSPECTION","2016-03-04","02E","Smoking Eating Drinking",0,"Critical","In",40,"928 PEARL ST
BOULDER, CO 80302
(40.017202, -105.283305)"
"FA0000666","JAX FISH HOUSE","928 PEARL ST","928",NULL,"PEARL","ST",NULL,"BOULDER","CO","80302","RESTAURANT 0 TO 100 SEATS","FULL SERVICE FULL MENU","ROUTINE INSPECTION","2013-02-26","14D","Lighting",0,"Non-Critical","Not Observed",60,"928 PEARL ST
BOULDER, CO 80302
(40.017202, -105.283305)"
"FA0000666","JAX FISH HOUSE","928 PEARL ST","928",NULL,"PEARL","ST",NULL,"BOULDER","CO","80302","RESTAURANT 0 TO 100 SEATS","FULL SERVICE FULL MENU","ROUTINE INSPECTION","2018-12-14","05B","Hot and Cold Water Under Pressure",0,"Critical","In",15,"928 PEARL ST
BOULDER, CO 80302
(40.017202, -105.283305)"
