"facilityid","facilityname","siteaddress","streetnumber","streetdirection","streetname","streettype","streetunit","city","state","zip","typeoffacility","categoryoffacility","inspectiontype","inspectiondate","violationcode","violation","violationpoints","violationtype","violationstatus","inspectionscore","location"
"FA0000556","MOUNTAIN SUN PUB & BREWERY","1535 PEARL ST","1535",NULL,"PEARL","ST",NULL,"BOULDER","CO","803025408","RESTAURANT 0 TO 100 SEATS","FULL SERVICE FULL MENU","INVESTIGATION INSPECTION","2014-05-23","09B","Food Protected from Contamination",0,"Non-Critical","Not Observed",20,"1535 PEARL ST
BOULDER, CO 803025408
(40.018885, -105.275207)"
"FA0000556","MOUNTAIN SUN PUB & BREWERY","1535 PEARL ST","1535",NULL,"PEARL","ST",NULL,"BOULDER","CO","803025408","RESTAURANT 0 TO 100 SEATS","FULL SERVICE FULL MENU","ACTIVE MANAGEMENT CONTROL (AMC)","2015-08-18","AM1","Certified Food Safety Manager",10,"Non-Critical","Full",35,"1535 PEARL ST
BOULDER, CO 803025408
(40.018885, -105.275207)"
"FA0000556","MOUNTAIN SUN PUB & BREWERY","1535 PEARL ST","1535",NULL,"PEARL","ST",NULL,"BOULDER","CO","803025408","RESTAURANT 0 TO 100 SEATS","FULL SERVICE FULL MENU","FOLLOW-UP INSPECTION","2015-09-29","01C","Cross Contamination",0,"Critical","In",0,"1535 PEARL ST
BOULDER, CO 803025408
(40.018885, -105.275207)"
"FA0000556","MOUNTAIN SUN PUB & BREWERY","1535 PEARL ST","1535",NULL,"PEARL","ST",NULL,"BOULDER","CO","803025408","RESTAURANT 0 TO 100 SEATS","FULL SERVICE FULL MENU","FOLLOW-UP INSPECTION","2015-09-29","13B","Single Service Articles Stored Dispensed Used",0,"Non-Critical","Not Observed",0,"1535 PEARL ST
BOULDER, CO 803025408
(40.018885, -105.275207)"
"FA0000556","MOUNTAIN SUN PUB & BREWERY","1535 PEARL ST","1535",NULL,"PEARL","ST",NULL,"BOULDER","CO","803025408","RESTAURANT 0 TO 100 SEATS","FULL SERVICE FULL MENU","FOLLOW-UP INSPECTION","2015-09-29","03D","Required Cooking Temperature",0,"Critical","Not Observed",0,"1535 PEARL ST
BOULDER, CO 803025408
(40.018885, -105.275207)"
"FA0000556","MOUNTAIN SUN PUB & BREWERY","1535 PEARL ST","1535",NULL,"PEARL","ST",NULL,"BOULDER","CO","803025408","RESTAURANT 0 TO 100 SEATS","FULL SERVICE FULL MENU","INVESTIGATION INSPECTION","2014-05-23","03A","Cooling Methods",0,"Critical","In",20,"1535 PEARL ST
BOULDER, CO 803025408
(40.018885, -105.275207)"
"FA0000556","MOUNTAIN SUN PUB & BREWERY","1535 PEARL ST","1535",NULL,"PEARL","ST",NULL,"BOULDER","CO","803025408","RESTAURANT 0 TO 100 SEATS","FULL SERVICE FULL MENU","ACTIVE MANAGEMENT CONTROL (AMC)","2015-08-18","AM3","All Staff Receive Formal Food Safety Training",10,"Non-Critical","In",35,"1535 PEARL ST
BOULDER, CO 803025408
(40.018885, -105.275207)"
"FA0000556","MOUNTAIN SUN PUB & BREWERY","1535 PEARL ST","1535",NULL,"PEARL","ST",NULL,"BOULDER","CO","803025408","RESTAURANT 0 TO 100 SEATS","FULL SERVICE FULL MENU","INVESTIGATION INSPECTION","2014-05-23","08A","Properly Stored",0,"Critical","In",20,"1535 PEARL ST
BOULDER, CO 803025408
(40.018885, -105.275207)"
"FA0000556","MOUNTAIN SUN PUB & BREWERY","1535 PEARL ST","1535",NULL,"PEARL","ST",NULL,"BOULDER","CO","803025408","RESTAURANT 0 TO 100 SEATS","FULL SERVICE FULL MENU","ACTIVE MANAGEMENT CONTROL (AMC)","2017-03-27","AM18","Document Sanitizer Concentrations and Usage",10,"Non-Critical","Half",55,"1535 PEARL ST
BOULDER, CO 803025408
(40.018885, -105.275207)"
"FA0000556","MOUNTAIN SUN PUB & BREWERY","1535 PEARL ST","1535",NULL,"PEARL","ST",NULL,"BOULDER","CO","803025408","RESTAURANT 0 TO 100 SEATS","FULL SERVICE FULL MENU","FOLLOW-UP INSPECTION","2015-09-29","12A","Food Contact Surfaces Cleaning",0,"Non-Critical","Not Observed",0,"1535 PEARL ST
BOULDER, CO 803025408
(40.018885, -105.275207)"
"FA0000556","MOUNTAIN SUN PUB & BREWERY","1535 PEARL ST","1535",NULL,"PEARL","ST",NULL,"BOULDER","CO","803025408","RESTAURANT 0 TO 100 SEATS","FULL SERVICE FULL MENU","INVESTIGATION INSPECTION","2014-05-23","03C","Hot Hold at 135 Degrees Farenheit or Greater",0,"Critical","In",20,"1535 PEARL ST
BOULDER, CO 803025408
(40.018885, -105.275207)"
"FA0000556","MOUNTAIN SUN PUB & BREWERY","1535 PEARL ST","1535",NULL,"PEARL","ST",NULL,"BOULDER","CO","803025408","RESTAURANT 0 TO 100 SEATS","FULL SERVICE FULL MENU","FOLLOW-UP INSPECTION","2015-09-29","01E","Date Marking",0,"Critical","Not Observed",0,"1535 PEARL ST
BOULDER, CO 803025408
(40.018885, -105.275207)"
"FA0000556","MOUNTAIN SUN PUB & BREWERY","1535 PEARL ST","1535",NULL,"PEARL","ST",NULL,"BOULDER","CO","803025408","RESTAURANT 0 TO 100 SEATS","FULL SERVICE FULL MENU","INVESTIGATION INSPECTION","2014-05-23","12B","Non-Food Contact Surfaces Cleaning",0,"Non-Critical","Not Observed",20,"1535 PEARL ST
BOULDER, CO 803025408
(40.018885, -105.275207)"
"FA0000556","MOUNTAIN SUN PUB & BREWERY","1535 PEARL ST","1535",NULL,"PEARL","ST",NULL,"BOULDER","CO","803025408","RESTAURANT 0 TO 100 SEATS","FULL SERVICE FULL MENU","ACTIVE MANAGEMENT CONTROL (AMC)","2017-03-27","AM5","Conduct Daily Food Safety Inspections",10,"Non-Critical","Half",55,"1535 PEARL ST
BOULDER, CO 803025408
(40.018885, -105.275207)"
"FA0000556","MOUNTAIN SUN PUB & BREWERY","1535 PEARL ST","1535",NULL,"PEARL","ST",NULL,"BOULDER","CO","803025408","RESTAURANT 0 TO 100 SEATS","FULL SERVICE FULL MENU","FOLLOW-UP INSPECTION","2015-09-29","06C","Soap and Drying Devices",0,"Critical","In",0,"1535 PEARL ST
BOULDER, CO 803025408
(40.018885, -105.275207)"
"FA0000556","MOUNTAIN SUN PUB & BREWERY","1535 PEARL ST","1535",NULL,"PEARL","ST",NULL,"BOULDER","CO","803025408","RESTAURANT 0 TO 100 SEATS","FULL SERVICE FULL MENU","FOLLOW-UP INSPECTION","2015-09-29","13C","No Reuse of Single Service Articles",0,"Non-Critical","Not Observed",0,"1535 PEARL ST
BOULDER, CO 803025408
(40.018885, -105.275207)"
"FA0000556","MOUNTAIN SUN PUB & BREWERY","1535 PEARL ST","1535",NULL,"PEARL","ST",NULL,"BOULDER","CO","803025408","RESTAURANT 0 TO 100 SEATS","FULL SERVICE FULL MENU","FOLLOW-UP INSPECTION","2015-09-29","05D","Sewage Disposal",0,"Critical","Not Observed",0,"1535 PEARL ST
BOULDER, CO 803025408
(40.018885, -105.275207)"
"FA0000556","MOUNTAIN SUN PUB & BREWERY","1535 PEARL ST","1535",NULL,"PEARL","ST",NULL,"BOULDER","CO","803025408","RESTAURANT 0 TO 100 SEATS","FULL SERVICE FULL MENU","INVESTIGATION INSPECTION","2014-05-23","14A","Plumbing Installed Maintained",0,"Non-Critical","Not Observed",20,"1535 PEARL ST
BOULDER, CO 803025408
(40.018885, -105.275207)"
"FA0000556","MOUNTAIN SUN PUB & BREWERY","1535 PEARL ST","1535",NULL,"PEARL","ST",NULL,"BOULDER","CO","803025408","RESTAURANT 0 TO 100 SEATS","FULL SERVICE FULL MENU","INVESTIGATION INSPECTION","2014-05-23","09A","Original Container Properly Labeled",0,"Non-Critical","Not Observed",20,"1535 PEARL ST
BOULDER, CO 803025408
(40.018885, -105.275207)"
"FA0000556","MOUNTAIN SUN PUB & BREWERY","1535 PEARL ST","1535",NULL,"PEARL","ST",NULL,"BOULDER","CO","803025408","RESTAURANT 0 TO 100 SEATS","FULL SERVICE FULL MENU","FOLLOW-UP INSPECTION","2015-09-29","01A","Approved Source",0,"Critical","In",0,"1535 PEARL ST
BOULDER, CO 803025408
(40.018885, -105.275207)"
"FA0000556","MOUNTAIN SUN PUB & BREWERY","1535 PEARL ST","1535",NULL,"PEARL","ST",NULL,"BOULDER","CO","803025408","RESTAURANT 0 TO 100 SEATS","FULL SERVICE FULL MENU","FOLLOW-UP INSPECTION","2015-09-29","07A","Evidence of Insects or Rodents",0,"Critical","Not Observed",0,"1535 PEARL ST
BOULDER, CO 803025408
(40.018885, -105.275207)"
"FA0000556","MOUNTAIN SUN PUB & BREWERY","1535 PEARL ST","1535",NULL,"PEARL","ST",NULL,"BOULDER","CO","803025408","RESTAURANT 0 TO 100 SEATS","FULL SERVICE FULL MENU","FOLLOW-UP INSPECTION","2015-09-29","02A","Personnel With Infections Restricted",0,"Critical","In",0,"1535 PEARL ST
BOULDER, CO 803025408
(40.018885, -105.275207)"
"FA0000556","MOUNTAIN SUN PUB & BREWERY","1535 PEARL ST","1535",NULL,"PEARL","ST",NULL,"BOULDER","CO","803025408","RESTAURANT 0 TO 100 SEATS","FULL SERVICE FULL MENU","INVESTIGATION INSPECTION","2014-05-23","01A","Approved Source",0,"Critical","In",20,"1535 PEARL ST
BOULDER, CO 803025408
(40.018885, -105.275207)"
"FA0000556","MOUNTAIN SUN PUB & BREWERY","1535 PEARL ST","1535",NULL,"PEARL","ST",NULL,"BOULDER","CO","803025408","RESTAURANT 0 TO 100 SEATS","FULL SERVICE FULL MENU","ACTIVE MANAGEMENT CONTROL (AMC)","2017-03-27","AM3","All Staff Receive Formal Food Safety Training",10,"Non-Critical","Full",55,"1535 PEARL ST
BOULDER, CO 803025408
(40.018885, -105.275207)"
"FA0000556","MOUNTAIN SUN PUB & BREWERY","1535 PEARL ST","1535",NULL,"PEARL","ST",NULL,"BOULDER","CO","803025408","RESTAURANT 0 TO 100 SEATS","FULL SERVICE FULL MENU","FOLLOW-UP INSPECTION","2015-09-29","09B","Food Protected from Contamination",0,"Non-Critical","Not Observed",0,"1535 PEARL ST
BOULDER, CO 803025408
(40.018885, -105.275207)"
"FA0000556","MOUNTAIN SUN PUB & BREWERY","1535 PEARL ST","1535",NULL,"PEARL","ST",NULL,"BOULDER","CO","803025408","RESTAURANT 0 TO 100 SEATS","FULL SERVICE FULL MENU","FOLLOW-UP INSPECTION","2015-09-29","03B","Rapidly Reheat to 165 Degrees or Greater",0,"Critical","Not Observed",0,"1535 PEARL ST
BOULDER, CO 803025408
(40.018885, -105.275207)"
"FA0000556","MOUNTAIN SUN PUB & BREWERY","1535 PEARL ST","1535",NULL,"PEARL","ST",NULL,"BOULDER","CO","803025408","RESTAURANT 0 TO 100 SEATS","FULL SERVICE FULL MENU","INVESTIGATION INSPECTION","2014-05-23","02C","Hands Washed As Needed",0,"Critical","In",20,"1535 PEARL ST
BOULDER, CO 803025408
(40.018885, -105.275207)"
"FA0000556","MOUNTAIN SUN PUB & BREWERY","1535 PEARL ST","1535",NULL,"PEARL","ST",NULL,"BOULDER","CO","803025408","RESTAURANT 0 TO 100 SEATS","FULL SERVICE FULL MENU","ACTIVE MANAGEMENT CONTROL (AMC)","2015-08-18","AM7","Private Corporate Food Safety Inspections",10,"Non-Critical","In",35,"1535 PEARL ST
BOULDER, CO 803025408
(40.018885, -105.275207)"
"FA0000556","MOUNTAIN SUN PUB & BREWERY","1535 PEARL ST","1535",NULL,"PEARL","ST",NULL,"BOULDER","CO","803025408","RESTAURANT 0 TO 100 SEATS","FULL SERVICE FULL MENU","ACTIVE MANAGEMENT CONTROL (AMC)","2015-08-18","AM24","Document Food Temperatures Frequently Cooling Initial Cook Receiving & Reheating",5,"Non-Critical","In",35,"1535 PEARL ST
BOULDER, CO 803025408
(40.018885, -105.275207)"
"FA0000556","MOUNTAIN SUN PUB & BREWERY","1535 PEARL ST","1535",NULL,"PEARL","ST",NULL,"BOULDER","CO","803025408","RESTAURANT 0 TO 100 SEATS","FULL SERVICE FULL MENU","INVESTIGATION INSPECTION","2014-05-23","15B","Linen Properly Stored",0,"Non-Critical","Not Observed",20,"1535 PEARL ST
BOULDER, CO 803025408
(40.018885, -105.275207)"
"FA0000556","MOUNTAIN SUN PUB & BREWERY","1535 PEARL ST","1535",NULL,"PEARL","ST",NULL,"BOULDER","CO","803025408","RESTAURANT 0 TO 100 SEATS","FULL SERVICE FULL MENU","FOLLOW-UP INSPECTION","2015-09-29","10B","Non-Food Contact Surfaces Construction",0,"Non-Critical","Not Observed",0,"1535 PEARL ST
BOULDER, CO 803025408
(40.018885, -105.275207)"
"FA0000556","MOUNTAIN SUN PUB & BREWERY","1535 PEARL ST","1535",NULL,"PEARL","ST",NULL,"BOULDER","CO","803025408","RESTAURANT 0 TO 100 SEATS","FULL SERVICE FULL MENU","INVESTIGATION INSPECTION","2014-05-23","02G","No Bare Hand Contact",0,"Critical","In",20,"1535 PEARL ST
BOULDER, CO 803025408
(40.018885, -105.275207)"
"FA0000556","MOUNTAIN SUN PUB & BREWERY","1535 PEARL ST","1535",NULL,"PEARL","ST",NULL,"BOULDER","CO","803025408","RESTAURANT 0 TO 100 SEATS","FULL SERVICE FULL MENU","FOLLOW-UP INSPECTION","2015-09-29","12D","Wiping Cloths",0,"Non-Critical","Not Observed",0,"1535 PEARL ST
BOULDER, CO 803025408
(40.018885, -105.275207)"
"FA0000556","MOUNTAIN SUN PUB & BREWERY","1535 PEARL ST","1535",NULL,"PEARL","ST",NULL,"BOULDER","CO","803025408","RESTAURANT 0 TO 100 SEATS","FULL SERVICE FULL MENU","FOLLOW-UP INSPECTION","2015-09-29","11C","Chemical Test Kits Provided Accessible",0,"Non-Critical","Not Observed",0,"1535 PEARL ST
BOULDER, CO 803025408
(40.018885, -105.275207)"
"FA0000556","MOUNTAIN SUN PUB & BREWERY","1535 PEARL ST","1535",NULL,"PEARL","ST",NULL,"BOULDER","CO","803025408","RESTAURANT 0 TO 100 SEATS","FULL SERVICE FULL MENU","FOLLOW-UP INSPECTION","2015-09-29","11B","Dishmachine With Accurate Thermometer & Gauge Cock",0,"Non-Critical","Not Observed",0,"1535 PEARL ST
BOULDER, CO 803025408
(40.018885, -105.275207)"
"FA0000556","MOUNTAIN SUN PUB & BREWERY","1535 PEARL ST","1535",NULL,"PEARL","ST",NULL,"BOULDER","CO","803025408","RESTAURANT 0 TO 100 SEATS","FULL SERVICE FULL MENU","INVESTIGATION INSPECTION","2014-05-23","02D","Hygienic Practices",5,"Critical","Out",20,"1535 PEARL ST
BOULDER, CO 803025408
(40.018885, -105.275207)"
"FA0000556","MOUNTAIN SUN PUB & BREWERY","1535 PEARL ST","1535",NULL,"PEARL","ST",NULL,"BOULDER","CO","803025408","RESTAURANT 0 TO 100 SEATS","FULL SERVICE FULL MENU","FOLLOW-UP INSPECTION","2015-09-29","01F","Consumer Advisory",0,"Critical","Not Observed",0,"1535 PEARL ST
BOULDER, CO 803025408
(40.018885, -105.275207)"
"FA0000556","MOUNTAIN SUN PUB & BREWERY","1535 PEARL ST","1535",NULL,"PEARL","ST",NULL,"BOULDER","CO","803025408","RESTAURANT 0 TO 100 SEATS","FULL SERVICE FULL MENU","ACTIVE MANAGEMENT CONTROL (AMC)","2017-03-27","AM22","Do You Have a Dial Thermometer",0,"Non-Critical","Full",55,"1535 PEARL ST
BOULDER, CO 803025408
(40.018885, -105.275207)"
"FA0000556","MOUNTAIN SUN PUB & BREWERY","1535 PEARL ST","1535",NULL,"PEARL","ST",NULL,"BOULDER","CO","803025408","RESTAURANT 0 TO 100 SEATS","FULL SERVICE FULL MENU","INVESTIGATION INSPECTION","2014-05-23","02A","Personnel With Infections Restricted",0,"Critical","Not Observed",20,"1535 PEARL ST
BOULDER, CO 803025408
(40.018885, -105.275207)"
"FA0000556","MOUNTAIN SUN PUB & BREWERY","1535 PEARL ST","1535",NULL,"PEARL","ST",NULL,"BOULDER","CO","803025408","RESTAURANT 0 TO 100 SEATS","FULL SERVICE FULL MENU","INVESTIGATION INSPECTION","2014-05-23","13A","Equipment Utensils Provided Used, Stored",0,"Non-Critical","Not Observed",20,"1535 PEARL ST
BOULDER, CO 803025408
(40.018885, -105.275207)"
"FA0000556","MOUNTAIN SUN PUB & BREWERY","1535 PEARL ST","1535",NULL,"PEARL","ST",NULL,"BOULDER","CO","803025408","RESTAURANT 0 TO 100 SEATS","FULL SERVICE FULL MENU","FOLLOW-UP INSPECTION","2015-09-29","14B","Garbage and Refuse",0,"Non-Critical","Not Observed",0,"1535 PEARL ST
BOULDER, CO 803025408
(40.018885, -105.275207)"
"FA0000556","MOUNTAIN SUN PUB & BREWERY","1535 PEARL ST","1535",NULL,"PEARL","ST",NULL,"BOULDER","CO","803025408","RESTAURANT 0 TO 100 SEATS","FULL SERVICE FULL MENU","INVESTIGATION INSPECTION","2014-05-23","11A","Refrigeration Units With Accurate Thermometers",0,"Non-Critical","Not Observed",20,"1535 PEARL ST
BOULDER, CO 803025408
(40.018885, -105.275207)"
"FA0000556","MOUNTAIN SUN PUB & BREWERY","1535 PEARL ST","1535",NULL,"PEARL","ST",NULL,"BOULDER","CO","803025408","RESTAURANT 0 TO 100 SEATS","FULL SERVICE FULL MENU","INVESTIGATION INSPECTION","2014-05-23","10A","Food-Contact Surfaces Construction",0,"Non-Critical","Not Observed",20,"1535 PEARL ST
BOULDER, CO 803025408
(40.018885, -105.275207)"
"FA0000556","MOUNTAIN SUN PUB & BREWERY","1535 PEARL ST","1535",NULL,"PEARL","ST",NULL,"BOULDER","CO","803025408","RESTAURANT 0 TO 100 SEATS","FULL SERVICE FULL MENU","INVESTIGATION INSPECTION","2014-05-23","13C","No Reuse of Single Service Articles",0,"Non-Critical","Not Observed",20,"1535 PEARL ST
BOULDER, CO 803025408
(40.018885, -105.275207)"
"FA0000556","MOUNTAIN SUN PUB & BREWERY","1535 PEARL ST","1535",NULL,"PEARL","ST",NULL,"BOULDER","CO","803025408","RESTAURANT 0 TO 100 SEATS","FULL SERVICE FULL MENU","FOLLOW-UP INSPECTION","2015-09-29","05A","Safe Water Source",0,"Critical","Not Observed",0,"1535 PEARL ST
BOULDER, CO 803025408
(40.018885, -105.275207)"
"FA0000556","MOUNTAIN SUN PUB & BREWERY","1535 PEARL ST","1535",NULL,"PEARL","ST",NULL,"BOULDER","CO","803025408","RESTAURANT 0 TO 100 SEATS","FULL SERVICE FULL MENU","FOLLOW-UP INSPECTION","2015-09-29","04A","Manual",0,"Critical","Not Observed",0,"1535 PEARL ST
BOULDER, CO 803025408
(40.018885, -105.275207)"
"FA0000556","MOUNTAIN SUN PUB & BREWERY","1535 PEARL ST","1535",NULL,"PEARL","ST",NULL,"BOULDER","CO","803025408","RESTAURANT 0 TO 100 SEATS","FULL SERVICE FULL MENU","INVESTIGATION INSPECTION","2014-05-23","04C","In Place",0,"Critical","In",20,"1535 PEARL ST
BOULDER, CO 803025408
(40.018885, -105.275207)"
"FA0000556","MOUNTAIN SUN PUB & BREWERY","1535 PEARL ST","1535",NULL,"PEARL","ST",NULL,"BOULDER","CO","803025408","RESTAURANT 0 TO 100 SEATS","FULL SERVICE FULL MENU","ACTIVE MANAGEMENT CONTROL (AMC)","2017-03-27","AM19","Written Employee Illness Policy",5,"Non-Critical","Full",55,"1535 PEARL ST
BOULDER, CO 803025408
(40.018885, -105.275207)"
"FA0000556","MOUNTAIN SUN PUB & BREWERY","1535 PEARL ST","1535",NULL,"PEARL","ST",NULL,"BOULDER","CO","803025408","RESTAURANT 0 TO 100 SEATS","FULL SERVICE FULL MENU","INVESTIGATION INSPECTION","2014-05-23","02B","Wounds Properly Covered",0,"Critical","Not Observed",20,"1535 PEARL ST
BOULDER, CO 803025408
(40.018885, -105.275207)"
"FA0000556","MOUNTAIN SUN PUB & BREWERY","1535 PEARL ST","1535",NULL,"PEARL","ST",NULL,"BOULDER","CO","803025408","RESTAURANT 0 TO 100 SEATS","FULL SERVICE FULL MENU","ACTIVE MANAGEMENT CONTROL (AMC)","2017-03-27","AM10","Document Handwashing Glove Use",10,"Non-Critical","In",55,"1535 PEARL ST
BOULDER, CO 803025408
(40.018885, -105.275207)"
"FA0000556","MOUNTAIN SUN PUB & BREWERY","1535 PEARL ST","1535",NULL,"PEARL","ST",NULL,"BOULDER","CO","803025408","RESTAURANT 0 TO 100 SEATS","FULL SERVICE FULL MENU","INVESTIGATION INSPECTION","2014-05-23","03D","Required Cooking Temperature",0,"Critical","In",20,"1535 PEARL ST
BOULDER, CO 803025408
(40.018885, -105.275207)"
"FA0000556","MOUNTAIN SUN PUB & BREWERY","1535 PEARL ST","1535",NULL,"PEARL","ST",NULL,"BOULDER","CO","803025408","RESTAURANT 0 TO 100 SEATS","FULL SERVICE FULL MENU","ACTIVE MANAGEMENT CONTROL (AMC)","2017-03-27","AM1","Certified Food Safety Manager",10,"Non-Critical","Full",55,"1535 PEARL ST
BOULDER, CO 803025408
(40.018885, -105.275207)"
"FA0000556","MOUNTAIN SUN PUB & BREWERY","1535 PEARL ST","1535",NULL,"PEARL","ST",NULL,"BOULDER","CO","803025408","RESTAURANT 0 TO 100 SEATS","FULL SERVICE FULL MENU","INVESTIGATION INSPECTION","2014-05-23","02F","Training Needed",0,"Critical","In",20,"1535 PEARL ST
BOULDER, CO 803025408
(40.018885, -105.275207)"
"FA0000556","MOUNTAIN SUN PUB & BREWERY","1535 PEARL ST","1535",NULL,"PEARL","ST",NULL,"BOULDER","CO","803025408","RESTAURANT 0 TO 100 SEATS","FULL SERVICE FULL MENU","INVESTIGATION INSPECTION","2014-05-23","10C","Dishwashing Facilities",0,"Non-Critical","Not Observed",20,"1535 PEARL ST
BOULDER, CO 803025408
(40.018885, -105.275207)"
"FA0000556","MOUNTAIN SUN PUB & BREWERY","1535 PEARL ST","1535",NULL,"PEARL","ST",NULL,"BOULDER","CO","803025408","RESTAURANT 0 TO 100 SEATS","FULL SERVICE FULL MENU","FOLLOW-UP INSPECTION","2015-09-29","13A","Equipment Utensils Provided Used, Stored",0,"Non-Critical","Not Observed",0,"1535 PEARL ST
BOULDER, CO 803025408
(40.018885, -105.275207)"
"FA0000556","MOUNTAIN SUN PUB & BREWERY","1535 PEARL ST","1535",NULL,"PEARL","ST",NULL,"BOULDER","CO","803025408","RESTAURANT 0 TO 100 SEATS","FULL SERVICE FULL MENU","INVESTIGATION INSPECTION","2014-05-23","14G","Premises Maintained",0,"Non-Critical","Not Observed",20,"1535 PEARL ST
BOULDER, CO 803025408
(40.018885, -105.275207)"
"FA0000556","MOUNTAIN SUN PUB & BREWERY","1535 PEARL ST","1535",NULL,"PEARL","ST",NULL,"BOULDER","CO","803025408","RESTAURANT 0 TO 100 SEATS","FULL SERVICE FULL MENU","FOLLOW-UP INSPECTION","2015-09-29","14G","Premises Maintained",0,"Non-Critical","Not Observed",0,"1535 PEARL ST
BOULDER, CO 803025408
(40.018885, -105.275207)"
"FA0000556","MOUNTAIN SUN PUB & BREWERY","1535 PEARL ST","1535",NULL,"PEARL","ST",NULL,"BOULDER","CO","803025408","RESTAURANT 0 TO 100 SEATS","FULL SERVICE FULL MENU","INVESTIGATION INSPECTION","2014-05-23","01E","Date Marking",0,"Critical","Not Applicable",20,"1535 PEARL ST
BOULDER, CO 803025408
(40.018885, -105.275207)"
"FA0000556","MOUNTAIN SUN PUB & BREWERY","1535 PEARL ST","1535",NULL,"PEARL","ST",NULL,"BOULDER","CO","803025408","RESTAURANT 0 TO 100 SEATS","FULL SERVICE FULL MENU","INVESTIGATION INSPECTION","2014-05-23","14C","Floors Walls Ceilings",0,"Non-Critical","Not Observed",20,"1535 PEARL ST
BOULDER, CO 803025408
(40.018885, -105.275207)"
"FA0000556","MOUNTAIN SUN PUB & BREWERY","1535 PEARL ST","1535",NULL,"PEARL","ST",NULL,"BOULDER","CO","803025408","RESTAURANT 0 TO 100 SEATS","FULL SERVICE FULL MENU","INVESTIGATION INSPECTION","2014-05-23","03G","Adequate Equipment to Maintain Food Temperatures",0,"Critical","In",20,"1535 PEARL ST
BOULDER, CO 803025408
(40.018885, -105.275207)"
"FA0000556","MOUNTAIN SUN PUB & BREWERY","1535 PEARL ST","1535",NULL,"PEARL","ST",NULL,"BOULDER","CO","803025408","RESTAURANT 0 TO 100 SEATS","FULL SERVICE FULL MENU","INVESTIGATION INSPECTION","2014-05-23","13B","Single Service Articles Stored Dispensed Used",0,"Non-Critical","Not Observed",20,"1535 PEARL ST
BOULDER, CO 803025408
(40.018885, -105.275207)"
"FA0000556","MOUNTAIN SUN PUB & BREWERY","1535 PEARL ST","1535",NULL,"PEARL","ST",NULL,"BOULDER","CO","803025408","RESTAURANT 0 TO 100 SEATS","FULL SERVICE FULL MENU","INVESTIGATION INSPECTION","2014-05-23","12A","Food Contact Surfaces Cleaning",0,"Non-Critical","Not Observed",20,"1535 PEARL ST
BOULDER, CO 803025408
(40.018885, -105.275207)"
"FA0000556","MOUNTAIN SUN PUB & BREWERY","1535 PEARL ST","1535",NULL,"PEARL","ST",NULL,"BOULDER","CO","803025408","RESTAURANT 0 TO 100 SEATS","FULL SERVICE FULL MENU","FOLLOW-UP INSPECTION","2015-09-29","12B","Non-Food Contact Surfaces Cleaning",0,"Non-Critical","Not Observed",0,"1535 PEARL ST
BOULDER, CO 803025408
(40.018885, -105.275207)"
"FA0000556","MOUNTAIN SUN PUB & BREWERY","1535 PEARL ST","1535",NULL,"PEARL","ST",NULL,"BOULDER","CO","803025408","RESTAURANT 0 TO 100 SEATS","FULL SERVICE FULL MENU","FOLLOW-UP INSPECTION","2015-09-29","05B","Hot and Cold Water Under Pressure",0,"Critical","Not Observed",0,"1535 PEARL ST
BOULDER, CO 803025408
(40.018885, -105.275207)"
"FA0000556","MOUNTAIN SUN PUB & BREWERY","1535 PEARL ST","1535",NULL,"PEARL","ST",NULL,"BOULDER","CO","803025408","RESTAURANT 0 TO 100 SEATS","FULL SERVICE FULL MENU","FOLLOW-UP INSPECTION","2015-09-29","02G","No Bare Hand Contact",0,"Critical","In",0,"1535 PEARL ST
BOULDER, CO 803025408
(40.018885, -105.275207)"
"FA0000556","MOUNTAIN SUN PUB & BREWERY","1535 PEARL ST","1535",NULL,"PEARL","ST",NULL,"BOULDER","CO","803025408","RESTAURANT 0 TO 100 SEATS","FULL SERVICE FULL MENU","FOLLOW-UP INSPECTION","2015-09-29","06A","Adequate Number Location Design",0,"Critical","In",0,"1535 PEARL ST
BOULDER, CO 803025408
(40.018885, -105.275207)"
"FA0000556","MOUNTAIN SUN PUB & BREWERY","1535 PEARL ST","1535",NULL,"PEARL","ST",NULL,"BOULDER","CO","803025408","RESTAURANT 0 TO 100 SEATS","FULL SERVICE FULL MENU","INVESTIGATION INSPECTION","2014-05-23","01D","HACCP Plan",0,"Critical","Not Applicable",20,"1535 PEARL ST
BOULDER, CO 803025408
(40.018885, -105.275207)"
"FA0000556","MOUNTAIN SUN PUB & BREWERY","1535 PEARL ST","1535",NULL,"PEARL","ST",NULL,"BOULDER","CO","803025408","RESTAURANT 0 TO 100 SEATS","FULL SERVICE FULL MENU","FOLLOW-UP INSPECTION","2015-09-29","02C","Hands Washed As Needed",0,"Critical","In",0,"1535 PEARL ST
BOULDER, CO 803025408
(40.018885, -105.275207)"
"FA0000556","MOUNTAIN SUN PUB & BREWERY","1535 PEARL ST","1535",NULL,"PEARL","ST",NULL,"BOULDER","CO","803025408","RESTAURANT 0 TO 100 SEATS","FULL SERVICE FULL MENU","FOLLOW-UP INSPECTION","2015-09-29","07B","Pesticide Application",0,"Critical","Not Observed",0,"1535 PEARL ST
BOULDER, CO 803025408
(40.018885, -105.275207)"
"FA0000556","MOUNTAIN SUN PUB & BREWERY","1535 PEARL ST","1535",NULL,"PEARL","ST",NULL,"BOULDER","CO","803025408","RESTAURANT 0 TO 100 SEATS","FULL SERVICE FULL MENU","FOLLOW-UP INSPECTION","2015-09-29","14F","Locker Rooms",0,"Non-Critical","Not Observed",0,"1535 PEARL ST
BOULDER, CO 803025408
(40.018885, -105.275207)"
"FA0000556","MOUNTAIN SUN PUB & BREWERY","1535 PEARL ST","1535",NULL,"PEARL","ST",NULL,"BOULDER","CO","803025408","RESTAURANT 0 TO 100 SEATS","FULL SERVICE FULL MENU","FOLLOW-UP INSPECTION","2015-09-29","14C","Floors Walls Ceilings",0,"Non-Critical","Not Observed",0,"1535 PEARL ST
BOULDER, CO 803025408
(40.018885, -105.275207)"
"FA0000556","MOUNTAIN SUN PUB & BREWERY","1535 PEARL ST","1535",NULL,"PEARL","ST",NULL,"BOULDER","CO","803025408","RESTAURANT 0 TO 100 SEATS","FULL SERVICE FULL MENU","FOLLOW-UP INSPECTION","2015-09-29","14D","Lighting",0,"Non-Critical","Not Observed",0,"1535 PEARL ST
BOULDER, CO 803025408
(40.018885, -105.275207)"
"FA0000556","MOUNTAIN SUN PUB & BREWERY","1535 PEARL ST","1535",NULL,"PEARL","ST",NULL,"BOULDER","CO","803025408","RESTAURANT 0 TO 100 SEATS","FULL SERVICE FULL MENU","FOLLOW-UP INSPECTION","2015-09-29","08A","Properly Stored",0,"Critical","Not Observed",0,"1535 PEARL ST
BOULDER, CO 803025408
(40.018885, -105.275207)"
"FA0000556","MOUNTAIN SUN PUB & BREWERY","1535 PEARL ST","1535",NULL,"PEARL","ST",NULL,"BOULDER","CO","803025408","RESTAURANT 0 TO 100 SEATS","FULL SERVICE FULL MENU","INVESTIGATION INSPECTION","2014-05-23","01B","Wholesome Free of Spoilage",0,"Critical","In",20,"1535 PEARL ST
BOULDER, CO 803025408
(40.018885, -105.275207)"
"FA0000556","MOUNTAIN SUN PUB & BREWERY","1535 PEARL ST","1535",NULL,"PEARL","ST",NULL,"BOULDER","CO","803025408","RESTAURANT 0 TO 100 SEATS","FULL SERVICE FULL MENU","FOLLOW-UP INSPECTION","2015-09-29","14E","Ventilation",0,"Non-Critical","Not Observed",0,"1535 PEARL ST
BOULDER, CO 803025408
(40.018885, -105.275207)"
"FA0000556","MOUNTAIN SUN PUB & BREWERY","1535 PEARL ST","1535",NULL,"PEARL","ST",NULL,"BOULDER","CO","803025408","RESTAURANT 0 TO 100 SEATS","FULL SERVICE FULL MENU","INVESTIGATION INSPECTION","2014-05-23","03B","Rapidly Reheat to 165 Degrees or Greater",0,"Critical","In",20,"1535 PEARL ST
BOULDER, CO 803025408
(40.018885, -105.275207)"
"FA0000556","MOUNTAIN SUN PUB & BREWERY","1535 PEARL ST","1535",NULL,"PEARL","ST",NULL,"BOULDER","CO","803025408","RESTAURANT 0 TO 100 SEATS","FULL SERVICE FULL MENU","INVESTIGATION INSPECTION","2014-05-23","14E","Ventilation",0,"Non-Critical","Not Observed",20,"1535 PEARL ST
BOULDER, CO 803025408
(40.018885, -105.275207)"
"FA0000556","MOUNTAIN SUN PUB & BREWERY","1535 PEARL ST","1535",NULL,"PEARL","ST",NULL,"BOULDER","CO","803025408","RESTAURANT 0 TO 100 SEATS","FULL SERVICE FULL MENU","ACTIVE MANAGEMENT CONTROL (AMC)","2017-03-27","AM20","Paid Sick Leave",5,"Non-Critical","In",55,"1535 PEARL ST
BOULDER, CO 803025408
(40.018885, -105.275207)"
"FA0000556","MOUNTAIN SUN PUB & BREWERY","1535 PEARL ST","1535",NULL,"PEARL","ST",NULL,"BOULDER","CO","803025408","RESTAURANT 0 TO 100 SEATS","FULL SERVICE FULL MENU","INVESTIGATION INSPECTION","2014-05-23","05A","Safe Water Source",0,"Critical","In",20,"1535 PEARL ST
BOULDER, CO 803025408
(40.018885, -105.275207)"
"FA0000556","MOUNTAIN SUN PUB & BREWERY","1535 PEARL ST","1535",NULL,"PEARL","ST",NULL,"BOULDER","CO","803025408","RESTAURANT 0 TO 100 SEATS","FULL SERVICE FULL MENU","FOLLOW-UP INSPECTION","2015-09-29","04C","In Place",0,"Critical","Not Observed",0,"1535 PEARL ST
BOULDER, CO 803025408
(40.018885, -105.275207)"
"FA0000556","MOUNTAIN SUN PUB & BREWERY","1535 PEARL ST","1535",NULL,"PEARL","ST",NULL,"BOULDER","CO","803025408","RESTAURANT 0 TO 100 SEATS","FULL SERVICE FULL MENU","INVESTIGATION INSPECTION","2014-05-23","05C","Backflow Back Siphonage",0,"Critical","In",20,"1535 PEARL ST
BOULDER, CO 803025408
(40.018885, -105.275207)"
"FA0000556","MOUNTAIN SUN PUB & BREWERY","1535 PEARL ST","1535",NULL,"PEARL","ST",NULL,"BOULDER","CO","803025408","RESTAURANT 0 TO 100 SEATS","FULL SERVICE FULL MENU","FOLLOW-UP INSPECTION","2015-09-29","08C","Properly Used",0,"Critical","Not Observed",0,"1535 PEARL ST
BOULDER, CO 803025408
(40.018885, -105.275207)"
"FA0000556","MOUNTAIN SUN PUB & BREWERY","1535 PEARL ST","1535",NULL,"PEARL","ST",NULL,"BOULDER","CO","803025408","RESTAURANT 0 TO 100 SEATS","FULL SERVICE FULL MENU","FOLLOW-UP INSPECTION","2015-09-29","15B","Linen Properly Stored",0,"Non-Critical","Not Observed",0,"1535 PEARL ST
BOULDER, CO 803025408
(40.018885, -105.275207)"
"FA0000556","MOUNTAIN SUN PUB & BREWERY","1535 PEARL ST","1535",NULL,"PEARL","ST",NULL,"BOULDER","CO","803025408","RESTAURANT 0 TO 100 SEATS","FULL SERVICE FULL MENU","INVESTIGATION INSPECTION","2014-05-23","01C","Cross Contamination",0,"Critical","In",20,"1535 PEARL ST
BOULDER, CO 803025408
(40.018885, -105.275207)"
"FA0000556","MOUNTAIN SUN PUB & BREWERY","1535 PEARL ST","1535",NULL,"PEARL","ST",NULL,"BOULDER","CO","803025408","RESTAURANT 0 TO 100 SEATS","FULL SERVICE FULL MENU","INVESTIGATION INSPECTION","2014-05-23","01F","Consumer Advisory",0,"Critical","Not Applicable",20,"1535 PEARL ST
BOULDER, CO 803025408
(40.018885, -105.275207)"
"FA0000556","MOUNTAIN SUN PUB & BREWERY","1535 PEARL ST","1535",NULL,"PEARL","ST",NULL,"BOULDER","CO","803025408","RESTAURANT 0 TO 100 SEATS","FULL SERVICE FULL MENU","ACTIVE MANAGEMENT CONTROL (AMC)","2017-03-27","AM23","Thin Probe Available",5,"Non-Critical","Full",55,"1535 PEARL ST
BOULDER, CO 803025408
(40.018885, -105.275207)"
"FA0000556","MOUNTAIN SUN PUB & BREWERY","1535 PEARL ST","1535",NULL,"PEARL","ST",NULL,"BOULDER","CO","803025408","RESTAURANT 0 TO 100 SEATS","FULL SERVICE FULL MENU","ACTIVE MANAGEMENT CONTROL (AMC)","2015-08-18","AM20","Paid Sick Leave",5,"Non-Critical","In",35,"1535 PEARL ST
BOULDER, CO 803025408
(40.018885, -105.275207)"
"FA0000556","MOUNTAIN SUN PUB & BREWERY","1535 PEARL ST","1535",NULL,"PEARL","ST",NULL,"BOULDER","CO","803025408","RESTAURANT 0 TO 100 SEATS","FULL SERVICE FULL MENU","INVESTIGATION INSPECTION","2014-05-23","07B","Pesticide Application",0,"Critical","In",20,"1535 PEARL ST
BOULDER, CO 803025408
(40.018885, -105.275207)"
"FA0000556","MOUNTAIN SUN PUB & BREWERY","1535 PEARL ST","1535",NULL,"PEARL","ST",NULL,"BOULDER","CO","803025408","RESTAURANT 0 TO 100 SEATS","FULL SERVICE FULL MENU","ACTIVE MANAGEMENT CONTROL (AMC)","2017-03-27","AM26","Contracts for Preventative Maintenance Full For All 3 Half For 1 OR 2 NO For None",10,"Non-Critical","Full",55,"1535 PEARL ST
BOULDER, CO 803025408
(40.018885, -105.275207)"
"FA0000556","MOUNTAIN SUN PUB & BREWERY","1535 PEARL ST","1535",NULL,"PEARL","ST",NULL,"BOULDER","CO","803025408","RESTAURANT 0 TO 100 SEATS","FULL SERVICE FULL MENU","FOLLOW-UP INSPECTION","2015-09-29","04B","Mechanical",0,"Critical","In",0,"1535 PEARL ST
BOULDER, CO 803025408
(40.018885, -105.275207)"
"FA0000556","MOUNTAIN SUN PUB & BREWERY","1535 PEARL ST","1535",NULL,"PEARL","ST",NULL,"BOULDER","CO","803025408","RESTAURANT 0 TO 100 SEATS","FULL SERVICE FULL MENU","INVESTIGATION INSPECTION","2014-05-23","11B","Dishmachine With Accurate Thermometer & Gauge Cock",0,"Non-Critical","Not Observed",20,"1535 PEARL ST
BOULDER, CO 803025408
(40.018885, -105.275207)"
"FA0000556","MOUNTAIN SUN PUB & BREWERY","1535 PEARL ST","1535",NULL,"PEARL","ST",NULL,"BOULDER","CO","803025408","RESTAURANT 0 TO 100 SEATS","FULL SERVICE FULL MENU","FOLLOW-UP INSPECTION","2015-09-29","02D","Hygienic Practices",0,"Critical","In",0,"1535 PEARL ST
BOULDER, CO 803025408
(40.018885, -105.275207)"
"FA0000556","MOUNTAIN SUN PUB & BREWERY","1535 PEARL ST","1535",NULL,"PEARL","ST",NULL,"BOULDER","CO","803025408","RESTAURANT 0 TO 100 SEATS","FULL SERVICE FULL MENU","FOLLOW-UP INSPECTION","2015-09-29","02B","Wounds Properly Covered",0,"Critical","Not Observed",0,"1535 PEARL ST
BOULDER, CO 803025408
(40.018885, -105.275207)"
"FA0000556","MOUNTAIN SUN PUB & BREWERY","1535 PEARL ST","1535",NULL,"PEARL","ST",NULL,"BOULDER","CO","803025408","RESTAURANT 0 TO 100 SEATS","FULL SERVICE FULL MENU","INVESTIGATION INSPECTION","2014-05-23","06A","Adequate Number Location Design",0,"Critical","In",20,"1535 PEARL ST
BOULDER, CO 803025408
(40.018885, -105.275207)"
"FA0000556","MOUNTAIN SUN PUB & BREWERY","1535 PEARL ST","1535",NULL,"PEARL","ST",NULL,"BOULDER","CO","803025408","RESTAURANT 0 TO 100 SEATS","FULL SERVICE FULL MENU","FOLLOW-UP INSPECTION","2015-09-29","03F","Food Thermometer",0,"Critical","Not Observed",0,"1535 PEARL ST
BOULDER, CO 803025408
(40.018885, -105.275207)"
"FA0000556","MOUNTAIN SUN PUB & BREWERY","1535 PEARL ST","1535",NULL,"PEARL","ST",NULL,"BOULDER","CO","803025408","RESTAURANT 0 TO 100 SEATS","FULL SERVICE FULL MENU","ACTIVE MANAGEMENT CONTROL (AMC)","2015-08-18","AM26","Contracts for Preventative Maintenance Full For All 3 Half For 1 OR 2 NO For None",10,"Non-Critical","Full",35,"1535 PEARL ST
BOULDER, CO 803025408
(40.018885, -105.275207)"
"FA0000556","MOUNTAIN SUN PUB & BREWERY","1535 PEARL ST","1535",NULL,"PEARL","ST",NULL,"BOULDER","CO","803025408","RESTAURANT 0 TO 100 SEATS","FULL SERVICE FULL MENU","FOLLOW-UP INSPECTION","2015-09-29","03A","Cooling Methods",0,"Critical","Not Observed",0,"1535 PEARL ST
BOULDER, CO 803025408
(40.018885, -105.275207)"
"FA0000556","MOUNTAIN SUN PUB & BREWERY","1535 PEARL ST","1535",NULL,"PEARL","ST",NULL,"BOULDER","CO","803025408","RESTAURANT 0 TO 100 SEATS","FULL SERVICE FULL MENU","FOLLOW-UP INSPECTION","2015-09-29","01D","HACCP Plan",0,"Critical","Not Observed",0,"1535 PEARL ST
BOULDER, CO 803025408
(40.018885, -105.275207)"
"FA0000556","MOUNTAIN SUN PUB & BREWERY","1535 PEARL ST","1535",NULL,"PEARL","ST",NULL,"BOULDER","CO","803025408","RESTAURANT 0 TO 100 SEATS","FULL SERVICE FULL MENU","ACTIVE MANAGEMENT CONTROL (AMC)","2015-08-18","AM5","Conduct Daily Food Safety Inspections",10,"Non-Critical","In",35,"1535 PEARL ST
BOULDER, CO 803025408
(40.018885, -105.275207)"
"FA0000556","MOUNTAIN SUN PUB & BREWERY","1535 PEARL ST","1535",NULL,"PEARL","ST",NULL,"BOULDER","CO","803025408","RESTAURANT 0 TO 100 SEATS","FULL SERVICE FULL MENU","ACTIVE MANAGEMENT CONTROL (AMC)","2015-08-18","AM25","Document Thermometer Calibration",5,"Non-Critical","In",35,"1535 PEARL ST
BOULDER, CO 803025408
(40.018885, -105.275207)"
"FA0000556","MOUNTAIN SUN PUB & BREWERY","1535 PEARL ST","1535",NULL,"PEARL","ST",NULL,"BOULDER","CO","803025408","RESTAURANT 0 TO 100 SEATS","FULL SERVICE FULL MENU","INVESTIGATION INSPECTION","2014-05-23","08C","Properly Used",15,"Critical","Out",20,"1535 PEARL ST
BOULDER, CO 803025408
(40.018885, -105.275207)"
"FA0000556","MOUNTAIN SUN PUB & BREWERY","1535 PEARL ST","1535",NULL,"PEARL","ST",NULL,"BOULDER","CO","803025408","RESTAURANT 0 TO 100 SEATS","FULL SERVICE FULL MENU","FOLLOW-UP INSPECTION","2015-09-29","07C","Animals Prohibited",0,"Critical","Not Observed",0,"1535 PEARL ST
BOULDER, CO 803025408
(40.018885, -105.275207)"
"FA0000556","MOUNTAIN SUN PUB & BREWERY","1535 PEARL ST","1535",NULL,"PEARL","ST",NULL,"BOULDER","CO","803025408","RESTAURANT 0 TO 100 SEATS","FULL SERVICE FULL MENU","ACTIVE MANAGEMENT CONTROL (AMC)","2015-08-18","AM23","Thin Probe Available",5,"Non-Critical","Full",35,"1535 PEARL ST
BOULDER, CO 803025408
(40.018885, -105.275207)"
"FA0000556","MOUNTAIN SUN PUB & BREWERY","1535 PEARL ST","1535",NULL,"PEARL","ST",NULL,"BOULDER","CO","803025408","RESTAURANT 0 TO 100 SEATS","FULL SERVICE FULL MENU","INVESTIGATION INSPECTION","2014-05-23","10B","Non-Food Contact Surfaces Construction",0,"Non-Critical","Not Observed",20,"1535 PEARL ST
BOULDER, CO 803025408
(40.018885, -105.275207)"
"FA0000556","MOUNTAIN SUN PUB & BREWERY","1535 PEARL ST","1535",NULL,"PEARL","ST",NULL,"BOULDER","CO","803025408","RESTAURANT 0 TO 100 SEATS","FULL SERVICE FULL MENU","FOLLOW-UP INSPECTION","2015-09-29","03C","Hot Hold at 135 Degrees Farenheit or Greater",0,"Critical","Not Observed",0,"1535 PEARL ST
BOULDER, CO 803025408
(40.018885, -105.275207)"
"FA0000556","MOUNTAIN SUN PUB & BREWERY","1535 PEARL ST","1535",NULL,"PEARL","ST",NULL,"BOULDER","CO","803025408","RESTAURANT 0 TO 100 SEATS","FULL SERVICE FULL MENU","FOLLOW-UP INSPECTION","2015-09-29","10A","Food-Contact Surfaces Construction",0,"Non-Critical","Not Observed",0,"1535 PEARL ST
BOULDER, CO 803025408
(40.018885, -105.275207)"
"FA0000556","MOUNTAIN SUN PUB & BREWERY","1535 PEARL ST","1535",NULL,"PEARL","ST",NULL,"BOULDER","CO","803025408","RESTAURANT 0 TO 100 SEATS","FULL SERVICE FULL MENU","INVESTIGATION INSPECTION","2014-05-23","03E","Cold Hold at 41 Degrees or Less",0,"Critical","In",20,"1535 PEARL ST
BOULDER, CO 803025408
(40.018885, -105.275207)"
"FA0000556","MOUNTAIN SUN PUB & BREWERY","1535 PEARL ST","1535",NULL,"PEARL","ST",NULL,"BOULDER","CO","803025408","RESTAURANT 0 TO 100 SEATS","FULL SERVICE FULL MENU","INVESTIGATION INSPECTION","2014-05-23","14F","Locker Rooms",0,"Non-Critical","Not Observed",20,"1535 PEARL ST
BOULDER, CO 803025408
(40.018885, -105.275207)"
"FA0000556","MOUNTAIN SUN PUB & BREWERY","1535 PEARL ST","1535",NULL,"PEARL","ST",NULL,"BOULDER","CO","803025408","RESTAURANT 0 TO 100 SEATS","FULL SERVICE FULL MENU","INVESTIGATION INSPECTION","2014-05-23","12C","Dishwashing Operations",0,"Non-Critical","Not Observed",20,"1535 PEARL ST
BOULDER, CO 803025408
(40.018885, -105.275207)"
"FA0000556","MOUNTAIN SUN PUB & BREWERY","1535 PEARL ST","1535",NULL,"PEARL","ST",NULL,"BOULDER","CO","803025408","RESTAURANT 0 TO 100 SEATS","FULL SERVICE FULL MENU","INVESTIGATION INSPECTION","2014-05-23","14D","Lighting",0,"Non-Critical","Not Observed",20,"1535 PEARL ST
BOULDER, CO 803025408
(40.018885, -105.275207)"
"FA0000556","MOUNTAIN SUN PUB & BREWERY","1535 PEARL ST","1535",NULL,"PEARL","ST",NULL,"BOULDER","CO","803025408","RESTAURANT 0 TO 100 SEATS","FULL SERVICE FULL MENU","INVESTIGATION INSPECTION","2014-05-23","02E","Smoking Eating Drinking",0,"Critical","In",20,"1535 PEARL ST
BOULDER, CO 803025408
(40.018885, -105.275207)"
"FA0000556","MOUNTAIN SUN PUB & BREWERY","1535 PEARL ST","1535",NULL,"PEARL","ST",NULL,"BOULDER","CO","803025408","RESTAURANT 0 TO 100 SEATS","FULL SERVICE FULL MENU","INVESTIGATION INSPECTION","2014-05-23","14H","Separation of Living Laundry",0,"Non-Critical","Not Observed",20,"1535 PEARL ST
BOULDER, CO 803025408
(40.018885, -105.275207)"
"FA0000556","MOUNTAIN SUN PUB & BREWERY","1535 PEARL ST","1535",NULL,"PEARL","ST",NULL,"BOULDER","CO","803025408","RESTAURANT 0 TO 100 SEATS","FULL SERVICE FULL MENU","ACTIVE MANAGEMENT CONTROL (AMC)","2017-03-27","AM7","Private Corporate Food Safety Inspections",10,"Non-Critical","In",55,"1535 PEARL ST
BOULDER, CO 803025408
(40.018885, -105.275207)"
"FA0000556","MOUNTAIN SUN PUB & BREWERY","1535 PEARL ST","1535",NULL,"PEARL","ST",NULL,"BOULDER","CO","803025408","RESTAURANT 0 TO 100 SEATS","FULL SERVICE FULL MENU","INVESTIGATION INSPECTION","2014-05-23","14I","Physical Facilities Adequate Toilet Facilities",0,"Non-Critical","Not Observed",20,"1535 PEARL ST
BOULDER, CO 803025408
(40.018885, -105.275207)"
"FA0000556","MOUNTAIN SUN PUB & BREWERY","1535 PEARL ST","1535",NULL,"PEARL","ST",NULL,"BOULDER","CO","803025408","RESTAURANT 0 TO 100 SEATS","FULL SERVICE FULL MENU","ACTIVE MANAGEMENT CONTROL (AMC)","2015-08-18","AM18","Document Sanitizer Concentrations and Usage",10,"Non-Critical","In",35,"1535 PEARL ST
BOULDER, CO 803025408
(40.018885, -105.275207)"
"FA0000556","MOUNTAIN SUN PUB & BREWERY","1535 PEARL ST","1535",NULL,"PEARL","ST",NULL,"BOULDER","CO","803025408","RESTAURANT 0 TO 100 SEATS","FULL SERVICE FULL MENU","ACTIVE MANAGEMENT CONTROL (AMC)","2017-03-27","AM21","Do Your Have a Thermocouple or Digital Thermometer",5,"Non-Critical","Full",55,"1535 PEARL ST
BOULDER, CO 803025408
(40.018885, -105.275207)"
"FA0000556","MOUNTAIN SUN PUB & BREWERY","1535 PEARL ST","1535",NULL,"PEARL","ST",NULL,"BOULDER","CO","803025408","RESTAURANT 0 TO 100 SEATS","FULL SERVICE FULL MENU","ACTIVE MANAGEMENT CONTROL (AMC)","2017-03-27","AM25","Document Thermometer Calibration",5,"Non-Critical","In",55,"1535 PEARL ST
BOULDER, CO 803025408
(40.018885, -105.275207)"
"FA0000556","MOUNTAIN SUN PUB & BREWERY","1535 PEARL ST","1535",NULL,"PEARL","ST",NULL,"BOULDER","CO","803025408","RESTAURANT 0 TO 100 SEATS","FULL SERVICE FULL MENU","INVESTIGATION INSPECTION","2014-05-23","11C","Chemical Test Kits Provided Accessible",0,"Non-Critical","Not Observed",20,"1535 PEARL ST
BOULDER, CO 803025408
(40.018885, -105.275207)"
"FA0000556","MOUNTAIN SUN PUB & BREWERY","1535 PEARL ST","1535",NULL,"PEARL","ST",NULL,"BOULDER","CO","803025408","RESTAURANT 0 TO 100 SEATS","FULL SERVICE FULL MENU","ACTIVE MANAGEMENT CONTROL (AMC)","2015-08-18","AM21","Do Your Have a Thermocouple or Digital Thermometer",5,"Non-Critical","Full",35,"1535 PEARL ST
BOULDER, CO 803025408
(40.018885, -105.275207)"
"FA0000556","MOUNTAIN SUN PUB & BREWERY","1535 PEARL ST","1535",NULL,"PEARL","ST",NULL,"BOULDER","CO","803025408","RESTAURANT 0 TO 100 SEATS","FULL SERVICE FULL MENU","INVESTIGATION INSPECTION","2014-05-23","06B","Accessible",0,"Critical","In",20,"1535 PEARL ST
BOULDER, CO 803025408
(40.018885, -105.275207)"
"FA0000556","MOUNTAIN SUN PUB & BREWERY","1535 PEARL ST","1535",NULL,"PEARL","ST",NULL,"BOULDER","CO","803025408","RESTAURANT 0 TO 100 SEATS","FULL SERVICE FULL MENU","FOLLOW-UP INSPECTION","2015-09-29","01B","Wholesome Free of Spoilage",0,"Critical","Not Observed",0,"1535 PEARL ST
BOULDER, CO 803025408
(40.018885, -105.275207)"
"FA0000556","MOUNTAIN SUN PUB & BREWERY","1535 PEARL ST","1535",NULL,"PEARL","ST",NULL,"BOULDER","CO","803025408","RESTAURANT 0 TO 100 SEATS","FULL SERVICE FULL MENU","ACTIVE MANAGEMENT CONTROL (AMC)","2015-08-18","AM10","Document Handwashing Glove Use",10,"Non-Critical","In",35,"1535 PEARL ST
BOULDER, CO 803025408
(40.018885, -105.275207)"
"FA0000556","MOUNTAIN SUN PUB & BREWERY","1535 PEARL ST","1535",NULL,"PEARL","ST",NULL,"BOULDER","CO","803025408","RESTAURANT 0 TO 100 SEATS","FULL SERVICE FULL MENU","FOLLOW-UP INSPECTION","2015-09-29","03E","Cold Hold at 41 Degrees or Less",0,"Critical","In",0,"1535 PEARL ST
BOULDER, CO 803025408
(40.018885, -105.275207)"
"FA0000556","MOUNTAIN SUN PUB & BREWERY","1535 PEARL ST","1535",NULL,"PEARL","ST",NULL,"BOULDER","CO","803025408","RESTAURANT 0 TO 100 SEATS","FULL SERVICE FULL MENU","FOLLOW-UP INSPECTION","2015-09-29","02F","Training Needed",0,"Critical","Not Observed",0,"1535 PEARL ST
BOULDER, CO 803025408
(40.018885, -105.275207)"
"FA0000556","MOUNTAIN SUN PUB & BREWERY","1535 PEARL ST","1535",NULL,"PEARL","ST",NULL,"BOULDER","CO","803025408","RESTAURANT 0 TO 100 SEATS","FULL SERVICE FULL MENU","ROUTINE INSPECTION","2015-08-18","09A","Original Container Properly Labeled",0,"Non-Critical","Not Observed",45,"1535 PEARL ST
BOULDER, CO 803025408
(40.018885, -105.275207)"
"FA0000556","MOUNTAIN SUN PUB & BREWERY","1535 PEARL ST","1535",NULL,"PEARL","ST",NULL,"BOULDER","CO","803025408","RESTAURANT 0 TO 100 SEATS","FULL SERVICE FULL MENU","FOLLOW-UP INSPECTION","2015-09-29","09A","Original Container Properly Labeled",0,"Non-Critical","Not Observed",0,"1535 PEARL ST
BOULDER, CO 803025408
(40.018885, -105.275207)"
"FA0000556","MOUNTAIN SUN PUB & BREWERY","1535 PEARL ST","1535",NULL,"PEARL","ST",NULL,"BOULDER","CO","803025408","RESTAURANT 0 TO 100 SEATS","FULL SERVICE FULL MENU","INVESTIGATION INSPECTION","2014-05-23","07A","Evidence of Insects or Rodents",0,"Critical","In",20,"1535 PEARL ST
BOULDER, CO 803025408
(40.018885, -105.275207)"
"FA0000556","MOUNTAIN SUN PUB & BREWERY","1535 PEARL ST","1535",NULL,"PEARL","ST",NULL,"BOULDER","CO","803025408","RESTAURANT 0 TO 100 SEATS","FULL SERVICE FULL MENU","FOLLOW-UP INSPECTION","2015-09-29","02E","Smoking Eating Drinking",0,"Critical","Not Observed",0,"1535 PEARL ST
BOULDER, CO 803025408
(40.018885, -105.275207)"
"FA0000556","MOUNTAIN SUN PUB & BREWERY","1535 PEARL ST","1535",NULL,"PEARL","ST",NULL,"BOULDER","CO","803025408","RESTAURANT 0 TO 100 SEATS","FULL SERVICE FULL MENU","ROUTINE INSPECTION","2015-08-18","01A","Approved Source",0,"Critical","In",45,"1535 PEARL ST
BOULDER, CO 803025408
(40.018885, -105.275207)"
"FA0000556","MOUNTAIN SUN PUB & BREWERY","1535 PEARL ST","1535",NULL,"PEARL","ST",NULL,"BOULDER","CO","803025408","RESTAURANT 0 TO 100 SEATS","FULL SERVICE FULL MENU","INVESTIGATION INSPECTION","2014-05-23","04A","Manual",0,"Critical","In",20,"1535 PEARL ST
BOULDER, CO 803025408
(40.018885, -105.275207)"
"FA0000556","MOUNTAIN SUN PUB & BREWERY","1535 PEARL ST","1535",NULL,"PEARL","ST",NULL,"BOULDER","CO","803025408","RESTAURANT 0 TO 100 SEATS","FULL SERVICE FULL MENU","INVESTIGATION INSPECTION","2014-05-23","07C","Animals Prohibited",0,"Critical","In",20,"1535 PEARL ST
BOULDER, CO 803025408
(40.018885, -105.275207)"
"FA0000556","MOUNTAIN SUN PUB & BREWERY","1535 PEARL ST","1535",NULL,"PEARL","ST",NULL,"BOULDER","CO","803025408","RESTAURANT 0 TO 100 SEATS","FULL SERVICE FULL MENU","INVESTIGATION INSPECTION","2014-05-23","05B","Hot and Cold Water Under Pressure",0,"Critical","In",20,"1535 PEARL ST
BOULDER, CO 803025408
(40.018885, -105.275207)"
"FA0000556","MOUNTAIN SUN PUB & BREWERY","1535 PEARL ST","1535",NULL,"PEARL","ST",NULL,"BOULDER","CO","803025408","RESTAURANT 0 TO 100 SEATS","FULL SERVICE FULL MENU","FOLLOW-UP INSPECTION","2015-09-29","06B","Accessible",0,"Critical","In",0,"1535 PEARL ST
BOULDER, CO 803025408
(40.018885, -105.275207)"
"FA0000556","MOUNTAIN SUN PUB & BREWERY","1535 PEARL ST","1535",NULL,"PEARL","ST",NULL,"BOULDER","CO","803025408","RESTAURANT 0 TO 100 SEATS","FULL SERVICE FULL MENU","INVESTIGATION INSPECTION","2014-05-23","14B","Garbage and Refuse",0,"Non-Critical","Not Observed",20,"1535 PEARL ST
BOULDER, CO 803025408
(40.018885, -105.275207)"
"FA0000556","MOUNTAIN SUN PUB & BREWERY","1535 PEARL ST","1535",NULL,"PEARL","ST",NULL,"BOULDER","CO","803025408","RESTAURANT 0 TO 100 SEATS","FULL SERVICE FULL MENU","FOLLOW-UP INSPECTION","2015-09-29","15A","Personnel: Clean Clothes Hair Restraints Authorizat",0,"Non-Critical","Not Observed",0,"1535 PEARL ST
BOULDER, CO 803025408
(40.018885, -105.275207)"
"FA0000556","MOUNTAIN SUN PUB & BREWERY","1535 PEARL ST","1535",NULL,"PEARL","ST",NULL,"BOULDER","CO","803025408","RESTAURANT 0 TO 100 SEATS","FULL SERVICE FULL MENU","INVESTIGATION INSPECTION","2014-05-23","04B","Mechanical",0,"Critical","In",20,"1535 PEARL ST
BOULDER, CO 803025408
(40.018885, -105.275207)"
"FA0000556","MOUNTAIN SUN PUB & BREWERY","1535 PEARL ST","1535",NULL,"PEARL","ST",NULL,"BOULDER","CO","803025408","RESTAURANT 0 TO 100 SEATS","FULL SERVICE FULL MENU","ACTIVE MANAGEMENT CONTROL (AMC)","2015-08-18","AM22","Do You Have a Dial Thermometer",0,"Non-Critical","Full",35,"1535 PEARL ST
BOULDER, CO 803025408
(40.018885, -105.275207)"
"FA0000556","MOUNTAIN SUN PUB & BREWERY","1535 PEARL ST","1535",NULL,"PEARL","ST",NULL,"BOULDER","CO","803025408","RESTAURANT 0 TO 100 SEATS","FULL SERVICE FULL MENU","INVESTIGATION INSPECTION","2014-05-23","15A","Personnel: Clean Clothes Hair Restraints Authorizat",0,"Non-Critical","Not Observed",20,"1535 PEARL ST
BOULDER, CO 803025408
(40.018885, -105.275207)"
"FA0000556","MOUNTAIN SUN PUB & BREWERY","1535 PEARL ST","1535",NULL,"PEARL","ST",NULL,"BOULDER","CO","803025408","RESTAURANT 0 TO 100 SEATS","FULL SERVICE FULL MENU","ROUTINE INSPECTION","2017-03-27","15B","Linen Properly Stored",0,"Non-Critical","Not Observed",20,"1535 PEARL ST
BOULDER, CO 803025408
(40.018885, -105.275207)"
"FA0000556","MOUNTAIN SUN PUB & BREWERY","1535 PEARL ST","1535",NULL,"PEARL","ST",NULL,"BOULDER","CO","803025408","RESTAURANT 0 TO 100 SEATS","FULL SERVICE FULL MENU","INVESTIGATION INSPECTION","2014-05-23","03F","Food Thermometer",0,"Critical","In",20,"1535 PEARL ST
BOULDER, CO 803025408
(40.018885, -105.275207)"
"FA0000556","MOUNTAIN SUN PUB & BREWERY","1535 PEARL ST","1535",NULL,"PEARL","ST",NULL,"BOULDER","CO","803025408","RESTAURANT 0 TO 100 SEATS","FULL SERVICE FULL MENU","FOLLOW-UP INSPECTION","2015-09-29","11A","Refrigeration Units With Accurate Thermometers",0,"Non-Critical","Not Observed",0,"1535 PEARL ST
BOULDER, CO 803025408
(40.018885, -105.275207)"
"FA0000556","MOUNTAIN SUN PUB & BREWERY","1535 PEARL ST","1535",NULL,"PEARL","ST",NULL,"BOULDER","CO","803025408","RESTAURANT 0 TO 100 SEATS","FULL SERVICE FULL MENU","FOLLOW-UP INSPECTION","2015-09-29","12C","Dishwashing Operations",0,"Non-Critical","Not Observed",0,"1535 PEARL ST
BOULDER, CO 803025408
(40.018885, -105.275207)"
"FA0000556","MOUNTAIN SUN PUB & BREWERY","1535 PEARL ST","1535",NULL,"PEARL","ST",NULL,"BOULDER","CO","803025408","RESTAURANT 0 TO 100 SEATS","FULL SERVICE FULL MENU","INVESTIGATION INSPECTION","2014-05-23","05D","Sewage Disposal",0,"Critical","In",20,"1535 PEARL ST
BOULDER, CO 803025408
(40.018885, -105.275207)"
"FA0000556","MOUNTAIN SUN PUB & BREWERY","1535 PEARL ST","1535",NULL,"PEARL","ST",NULL,"BOULDER","CO","803025408","RESTAURANT 0 TO 100 SEATS","FULL SERVICE FULL MENU","ROUTINE INSPECTION","2017-03-27","06A","Adequate Number Location Design",0,"Critical","In",20,"1535 PEARL ST
BOULDER, CO 803025408
(40.018885, -105.275207)"
"FA0000556","MOUNTAIN SUN PUB & BREWERY","1535 PEARL ST","1535",NULL,"PEARL","ST",NULL,"BOULDER","CO","803025408","RESTAURANT 0 TO 100 SEATS","FULL SERVICE FULL MENU","INVESTIGATION INSPECTION","2014-05-23","08B","Properly Labeled",0,"Critical","In",20,"1535 PEARL ST
BOULDER, CO 803025408
(40.018885, -105.275207)"
"FA0000556","MOUNTAIN SUN PUB & BREWERY","1535 PEARL ST","1535",NULL,"PEARL","ST",NULL,"BOULDER","CO","803025408","RESTAURANT 0 TO 100 SEATS","FULL SERVICE FULL MENU","FOLLOW-UP INSPECTION","2015-09-29","05C","Backflow Back Siphonage",0,"Critical","Not Observed",0,"1535 PEARL ST
BOULDER, CO 803025408
(40.018885, -105.275207)"
"FA0000556","MOUNTAIN SUN PUB & BREWERY","1535 PEARL ST","1535",NULL,"PEARL","ST",NULL,"BOULDER","CO","803025408","RESTAURANT 0 TO 100 SEATS","FULL SERVICE FULL MENU","ROUTINE INSPECTION","2017-03-27","02B","Wounds Properly Covered",0,"Critical","Not Observed",20,"1535 PEARL ST
BOULDER, CO 803025408
(40.018885, -105.275207)"
"FA0000556","MOUNTAIN SUN PUB & BREWERY","1535 PEARL ST","1535",NULL,"PEARL","ST",NULL,"BOULDER","CO","803025408","RESTAURANT 0 TO 100 SEATS","FULL SERVICE FULL MENU","INVESTIGATION INSPECTION","2014-05-23","12D","Wiping Cloths",0,"Non-Critical","Not Observed",20,"1535 PEARL ST
BOULDER, CO 803025408
(40.018885, -105.275207)"
"FA0000556","MOUNTAIN SUN PUB & BREWERY","1535 PEARL ST","1535",NULL,"PEARL","ST",NULL,"BOULDER","CO","803025408","RESTAURANT 0 TO 100 SEATS","FULL SERVICE FULL MENU","FOLLOW-UP INSPECTION","2015-09-29","08B","Properly Labeled",0,"Critical","Not Observed",0,"1535 PEARL ST
BOULDER, CO 803025408
(40.018885, -105.275207)"
"FA0000556","MOUNTAIN SUN PUB & BREWERY","1535 PEARL ST","1535",NULL,"PEARL","ST",NULL,"BOULDER","CO","803025408","RESTAURANT 0 TO 100 SEATS","FULL SERVICE FULL MENU","FOLLOW-UP INSPECTION","2015-09-29","14A","Plumbing Installed Maintained",0,"Non-Critical","Not Observed",0,"1535 PEARL ST
BOULDER, CO 803025408
(40.018885, -105.275207)"
"FA0000556","MOUNTAIN SUN PUB & BREWERY","1535 PEARL ST","1535",NULL,"PEARL","ST",NULL,"BOULDER","CO","803025408","RESTAURANT 0 TO 100 SEATS","FULL SERVICE FULL MENU","ROUTINE INSPECTION","2017-03-27","06C","Soap and Drying Devices",5,"Critical","Out",20,"1535 PEARL ST
BOULDER, CO 803025408
(40.018885, -105.275207)"
"FA0000556","MOUNTAIN SUN PUB & BREWERY","1535 PEARL ST","1535",NULL,"PEARL","ST",NULL,"BOULDER","CO","803025408","RESTAURANT 0 TO 100 SEATS","FULL SERVICE FULL MENU","INVESTIGATION INSPECTION","2014-05-23","06C","Soap and Drying Devices",0,"Critical","In",20,"1535 PEARL ST
BOULDER, CO 803025408
(40.018885, -105.275207)"
"FA0000556","MOUNTAIN SUN PUB & BREWERY","1535 PEARL ST","1535",NULL,"PEARL","ST",NULL,"BOULDER","CO","803025408","RESTAURANT 0 TO 100 SEATS","FULL SERVICE FULL MENU","ACTIVE MANAGEMENT CONTROL (AMC)","2017-03-27","AM24","Document Food Temperatures Frequently Cooling Initial Cook Receiving & Reheating",5,"Non-Critical","In",55,"1535 PEARL ST
BOULDER, CO 803025408
(40.018885, -105.275207)"
"FA0000556","MOUNTAIN SUN PUB & BREWERY","1535 PEARL ST","1535",NULL,"PEARL","ST",NULL,"BOULDER","CO","803025408","RESTAURANT 0 TO 100 SEATS","FULL SERVICE FULL MENU","ACTIVE MANAGEMENT CONTROL (AMC)","2015-08-18","AM19","Written Employee Illness Policy",5,"Non-Critical","Full",35,"1535 PEARL ST
BOULDER, CO 803025408
(40.018885, -105.275207)"
"FA0000556","MOUNTAIN SUN PUB & BREWERY","1535 PEARL ST","1535",NULL,"PEARL","ST",NULL,"BOULDER","CO","803025408","RESTAURANT 0 TO 100 SEATS","FULL SERVICE FULL MENU","FOLLOW-UP INSPECTION","2015-09-29","14H","Separation of Living Laundry",0,"Non-Critical","Not Observed",0,"1535 PEARL ST
BOULDER, CO 803025408
(40.018885, -105.275207)"
"FA0000556","MOUNTAIN SUN PUB & BREWERY","1535 PEARL ST","1535",NULL,"PEARL","ST",NULL,"BOULDER","CO","803025408","RESTAURANT 0 TO 100 SEATS","FULL SERVICE FULL MENU","FOLLOW-UP INSPECTION","2015-09-29","14I","Physical Facilities Adequate Toilet Facilities",0,"Non-Critical","Not Observed",0,"1535 PEARL ST
BOULDER, CO 803025408
(40.018885, -105.275207)"
"FA0000556","MOUNTAIN SUN PUB & BREWERY","1535 PEARL ST","1535",NULL,"PEARL","ST",NULL,"BOULDER","CO","803025408","RESTAURANT 0 TO 100 SEATS","FULL SERVICE FULL MENU","FOLLOW-UP INSPECTION","2015-09-29","10C","Dishwashing Facilities",0,"Non-Critical","Not Observed",0,"1535 PEARL ST
BOULDER, CO 803025408
(40.018885, -105.275207)"
"FA0000556","MOUNTAIN SUN PUB & BREWERY","1535 PEARL ST","1535",NULL,"PEARL","ST",NULL,"BOULDER","CO","803025408","RESTAURANT 0 TO 100 SEATS","FULL SERVICE FULL MENU","FOLLOW-UP INSPECTION","2015-09-29","03G","Adequate Equipment to Maintain Food Temperatures",0,"Critical","In",0,"1535 PEARL ST
BOULDER, CO 803025408
(40.018885, -105.275207)"
"FA0000556","MOUNTAIN SUN PUB & BREWERY","1535 PEARL ST","1535",NULL,"PEARL","ST",NULL,"BOULDER","CO","803025408","RESTAURANT 0 TO 100 SEATS","FULL SERVICE FULL MENU","ROUTINE INSPECTION","2015-08-18","02E","Smoking Eating Drinking",0,"Critical","In",45,"1535 PEARL ST
BOULDER, CO 803025408
(40.018885, -105.275207)"
"FA0000556","MOUNTAIN SUN PUB & BREWERY","1535 PEARL ST","1535",NULL,"PEARL","ST",NULL,"BOULDER","CO","803025408","RESTAURANT 0 TO 100 SEATS","FULL SERVICE FULL MENU","ROUTINE INSPECTION","2017-03-27","02C","Hands Washed As Needed",0,"Critical","Not Observed",20,"1535 PEARL ST
BOULDER, CO 803025408
(40.018885, -105.275207)"
"FA0000556","MOUNTAIN SUN PUB & BREWERY","1535 PEARL ST","1535",NULL,"PEARL","ST",NULL,"BOULDER","CO","803025408","RESTAURANT 0 TO 100 SEATS","FULL SERVICE FULL MENU","ROUTINE INSPECTION","2015-08-18","06B","Accessible",0,"Critical","In",45,"1535 PEARL ST
BOULDER, CO 803025408
(40.018885, -105.275207)"
"FA0000556","MOUNTAIN SUN PUB & BREWERY","1535 PEARL ST","1535",NULL,"PEARL","ST",NULL,"BOULDER","CO","803025408","RESTAURANT 0 TO 100 SEATS","FULL SERVICE FULL MENU","ROUTINE INSPECTION","2017-03-27","04B","Mechanical",0,"Critical","In",20,"1535 PEARL ST
BOULDER, CO 803025408
(40.018885, -105.275207)"
"FA0000556","MOUNTAIN SUN PUB & BREWERY","1535 PEARL ST","1535",NULL,"PEARL","ST",NULL,"BOULDER","CO","803025408","RESTAURANT 0 TO 100 SEATS","FULL SERVICE FULL MENU","ROUTINE INSPECTION","2015-08-18","04B","Mechanical",10,"Critical","Out",45,"1535 PEARL ST
BOULDER, CO 803025408
(40.018885, -105.275207)"
"FA0000556","MOUNTAIN SUN PUB & BREWERY","1535 PEARL ST","1535",NULL,"PEARL","ST",NULL,"BOULDER","CO","803025408","RESTAURANT 0 TO 100 SEATS","FULL SERVICE FULL MENU","ROUTINE INSPECTION","2017-03-27","04C","In Place",0,"Critical","Not Applicable",20,"1535 PEARL ST
BOULDER, CO 803025408
(40.018885, -105.275207)"
"FA0000556","MOUNTAIN SUN PUB & BREWERY","1535 PEARL ST","1535",NULL,"PEARL","ST",NULL,"BOULDER","CO","803025408","RESTAURANT 0 TO 100 SEATS","FULL SERVICE FULL MENU","ROUTINE INSPECTION","2017-03-27","07A","Evidence of Insects or Rodents",0,"Critical","Not Observed",20,"1535 PEARL ST
BOULDER, CO 803025408
(40.018885, -105.275207)"
"FA0000556","MOUNTAIN SUN PUB & BREWERY","1535 PEARL ST","1535",NULL,"PEARL","ST",NULL,"BOULDER","CO","803025408","RESTAURANT 0 TO 100 SEATS","FULL SERVICE FULL MENU","ROUTINE INSPECTION","2017-03-27","02D","Hygienic Practices",0,"Critical","In",20,"1535 PEARL ST
BOULDER, CO 803025408
(40.018885, -105.275207)"
"FA0000556","MOUNTAIN SUN PUB & BREWERY","1535 PEARL ST","1535",NULL,"PEARL","ST",NULL,"BOULDER","CO","803025408","RESTAURANT 0 TO 100 SEATS","FULL SERVICE FULL MENU","ROUTINE INSPECTION","2017-03-27","05C","Backflow Back Siphonage",0,"Critical","In",20,"1535 PEARL ST
BOULDER, CO 803025408
(40.018885, -105.275207)"
"FA0000556","MOUNTAIN SUN PUB & BREWERY","1535 PEARL ST","1535",NULL,"PEARL","ST",NULL,"BOULDER","CO","803025408","RESTAURANT 0 TO 100 SEATS","FULL SERVICE FULL MENU","ROUTINE INSPECTION","2015-08-18","10C","Dishwashing Facilities",0,"Non-Critical","Not Observed",45,"1535 PEARL ST
BOULDER, CO 803025408
(40.018885, -105.275207)"
"FA0000556","MOUNTAIN SUN PUB & BREWERY","1535 PEARL ST","1535",NULL,"PEARL","ST",NULL,"BOULDER","CO","803025408","RESTAURANT 0 TO 100 SEATS","FULL SERVICE FULL MENU","ROUTINE INSPECTION","2015-08-18","09B","Food Protected from Contamination",0,"Non-Critical","Not Observed",45,"1535 PEARL ST
BOULDER, CO 803025408
(40.018885, -105.275207)"
"FA0000556","MOUNTAIN SUN PUB & BREWERY","1535 PEARL ST","1535",NULL,"PEARL","ST",NULL,"BOULDER","CO","803025408","RESTAURANT 0 TO 100 SEATS","FULL SERVICE FULL MENU","ROUTINE INSPECTION","2015-08-18","01C","Cross Contamination",0,"Critical","In",45,"1535 PEARL ST
BOULDER, CO 803025408
(40.018885, -105.275207)"
"FA0000556","MOUNTAIN SUN PUB & BREWERY","1535 PEARL ST","1535",NULL,"PEARL","ST",NULL,"BOULDER","CO","803025408","RESTAURANT 0 TO 100 SEATS","FULL SERVICE FULL MENU","ROUTINE INSPECTION","2017-03-27","10B","Non-Food Contact Surfaces Construction",0,"Non-Critical","Not Observed",20,"1535 PEARL ST
BOULDER, CO 803025408
(40.018885, -105.275207)"
"FA0000556","MOUNTAIN SUN PUB & BREWERY","1535 PEARL ST","1535",NULL,"PEARL","ST",NULL,"BOULDER","CO","803025408","RESTAURANT 0 TO 100 SEATS","FULL SERVICE FULL MENU","ROUTINE INSPECTION","2015-08-18","14F","Locker Rooms",0,"Non-Critical","Not Observed",45,"1535 PEARL ST
BOULDER, CO 803025408
(40.018885, -105.275207)"
"FA0000556","MOUNTAIN SUN PUB & BREWERY","1535 PEARL ST","1535",NULL,"PEARL","ST",NULL,"BOULDER","CO","803025408","RESTAURANT 0 TO 100 SEATS","FULL SERVICE FULL MENU","ROUTINE INSPECTION","2015-08-18","11A","Refrigeration Units With Accurate Thermometers",0,"Non-Critical","Not Observed",45,"1535 PEARL ST
BOULDER, CO 803025408
(40.018885, -105.275207)"
"FA0000556","MOUNTAIN SUN PUB & BREWERY","1535 PEARL ST","1535",NULL,"PEARL","ST",NULL,"BOULDER","CO","803025408","RESTAURANT 0 TO 100 SEATS","FULL SERVICE FULL MENU","ROUTINE INSPECTION","2015-08-18","14A","Plumbing Installed Maintained",0,"Non-Critical","Not Observed",45,"1535 PEARL ST
BOULDER, CO 803025408
(40.018885, -105.275207)"
"FA0000556","MOUNTAIN SUN PUB & BREWERY","1535 PEARL ST","1535",NULL,"PEARL","ST",NULL,"BOULDER","CO","803025408","RESTAURANT 0 TO 100 SEATS","FULL SERVICE FULL MENU","ROUTINE INSPECTION","2017-03-27","11C","Chemical Test Kits Provided Accessible",0,"Non-Critical","Not Observed",20,"1535 PEARL ST
BOULDER, CO 803025408
(40.018885, -105.275207)"
"FA0000556","MOUNTAIN SUN PUB & BREWERY","1535 PEARL ST","1535",NULL,"PEARL","ST",NULL,"BOULDER","CO","803025408","RESTAURANT 0 TO 100 SEATS","FULL SERVICE FULL MENU","ROUTINE INSPECTION","2017-03-27","08C","Properly Used",0,"Critical","Not Observed",20,"1535 PEARL ST
BOULDER, CO 803025408
(40.018885, -105.275207)"
"FA0000556","MOUNTAIN SUN PUB & BREWERY","1535 PEARL ST","1535",NULL,"PEARL","ST",NULL,"BOULDER","CO","803025408","RESTAURANT 0 TO 100 SEATS","FULL SERVICE FULL MENU","ROUTINE INSPECTION","2015-08-18","03B","Rapidly Reheat to 165 Degrees or Greater",0,"Critical","Not Observed",45,"1535 PEARL ST
BOULDER, CO 803025408
(40.018885, -105.275207)"
"FA0000556","MOUNTAIN SUN PUB & BREWERY","1535 PEARL ST","1535",NULL,"PEARL","ST",NULL,"BOULDER","CO","803025408","RESTAURANT 0 TO 100 SEATS","FULL SERVICE FULL MENU","ROUTINE INSPECTION","2015-08-18","10B","Non-Food Contact Surfaces Construction",0,"Non-Critical","Not Observed",45,"1535 PEARL ST
BOULDER, CO 803025408
(40.018885, -105.275207)"
"FA0000556","MOUNTAIN SUN PUB & BREWERY","1535 PEARL ST","1535",NULL,"PEARL","ST",NULL,"BOULDER","CO","803025408","RESTAURANT 0 TO 100 SEATS","FULL SERVICE FULL MENU","ROUTINE INSPECTION","2017-03-27","12B","Non-Food Contact Surfaces Cleaning",0,"Non-Critical","Not Observed",20,"1535 PEARL ST
BOULDER, CO 803025408
(40.018885, -105.275207)"
"FA0000556","MOUNTAIN SUN PUB & BREWERY","1535 PEARL ST","1535",NULL,"PEARL","ST",NULL,"BOULDER","CO","803025408","RESTAURANT 0 TO 100 SEATS","FULL SERVICE FULL MENU","ROUTINE INSPECTION","2015-08-18","03A","Cooling Methods",0,"Critical","Not Observed",45,"1535 PEARL ST
BOULDER, CO 803025408
(40.018885, -105.275207)"
"FA0000556","MOUNTAIN SUN PUB & BREWERY","1535 PEARL ST","1535",NULL,"PEARL","ST",NULL,"BOULDER","CO","803025408","RESTAURANT 0 TO 100 SEATS","FULL SERVICE FULL MENU","ROUTINE INSPECTION","2017-03-27","14E","Ventilation",0,"Non-Critical","Not Observed",20,"1535 PEARL ST
BOULDER, CO 803025408
(40.018885, -105.275207)"
"FA0000556","MOUNTAIN SUN PUB & BREWERY","1535 PEARL ST","1535",NULL,"PEARL","ST",NULL,"BOULDER","CO","803025408","RESTAURANT 0 TO 100 SEATS","FULL SERVICE FULL MENU","ROUTINE INSPECTION","2015-08-18","03C","Hot Hold at 135 Degrees Farenheit or Greater",0,"Critical","In",45,"1535 PEARL ST
BOULDER, CO 803025408
(40.018885, -105.275207)"
"FA0000556","MOUNTAIN SUN PUB & BREWERY","1535 PEARL ST","1535",NULL,"PEARL","ST",NULL,"BOULDER","CO","803025408","RESTAURANT 0 TO 100 SEATS","FULL SERVICE FULL MENU","ROUTINE INSPECTION","2017-03-27","14B","Garbage and Refuse",0,"Non-Critical","Not Observed",20,"1535 PEARL ST
BOULDER, CO 803025408
(40.018885, -105.275207)"
"FA0000556","MOUNTAIN SUN PUB & BREWERY","1535 PEARL ST","1535",NULL,"PEARL","ST",NULL,"BOULDER","CO","803025408","RESTAURANT 0 TO 100 SEATS","FULL SERVICE FULL MENU","ROUTINE INSPECTION","2017-03-27","03G","Adequate Equipment to Maintain Food Temperatures",0,"Critical","In",20,"1535 PEARL ST
BOULDER, CO 803025408
(40.018885, -105.275207)"
"FA0000556","MOUNTAIN SUN PUB & BREWERY","1535 PEARL ST","1535",NULL,"PEARL","ST",NULL,"BOULDER","CO","803025408","RESTAURANT 0 TO 100 SEATS","FULL SERVICE FULL MENU","ROUTINE INSPECTION","2015-08-18","15B","Linen Properly Stored",0,"Non-Critical","Not Observed",45,"1535 PEARL ST
BOULDER, CO 803025408
(40.018885, -105.275207)"
"FA0000556","MOUNTAIN SUN PUB & BREWERY","1535 PEARL ST","1535",NULL,"PEARL","ST",NULL,"BOULDER","CO","803025408","RESTAURANT 0 TO 100 SEATS","FULL SERVICE FULL MENU","ROUTINE INSPECTION","2015-08-18","04C","In Place",0,"Critical","In",45,"1535 PEARL ST
BOULDER, CO 803025408
(40.018885, -105.275207)"
"FA0000556","MOUNTAIN SUN PUB & BREWERY","1535 PEARL ST","1535",NULL,"PEARL","ST",NULL,"BOULDER","CO","803025408","RESTAURANT 0 TO 100 SEATS","FULL SERVICE FULL MENU","ROUTINE INSPECTION","2017-03-27","07B","Pesticide Application",0,"Critical","Not Observed",20,"1535 PEARL ST
BOULDER, CO 803025408
(40.018885, -105.275207)"
"FA0000556","MOUNTAIN SUN PUB & BREWERY","1535 PEARL ST","1535",NULL,"PEARL","ST",NULL,"BOULDER","CO","803025408","RESTAURANT 0 TO 100 SEATS","FULL SERVICE FULL MENU","ROUTINE INSPECTION","2017-03-27","14G","Premises Maintained",0,"Non-Critical","Not Observed",20,"1535 PEARL ST
BOULDER, CO 803025408
(40.018885, -105.275207)"
"FA0000556","MOUNTAIN SUN PUB & BREWERY","1535 PEARL ST","1535",NULL,"PEARL","ST",NULL,"BOULDER","CO","803025408","RESTAURANT 0 TO 100 SEATS","FULL SERVICE FULL MENU","ROUTINE INSPECTION","2017-03-27","02F","Training Needed",0,"Critical","In",20,"1535 PEARL ST
BOULDER, CO 803025408
(40.018885, -105.275207)"
"FA0000556","MOUNTAIN SUN PUB & BREWERY","1535 PEARL ST","1535",NULL,"PEARL","ST",NULL,"BOULDER","CO","803025408","RESTAURANT 0 TO 100 SEATS","FULL SERVICE FULL MENU","ROUTINE INSPECTION","2015-08-18","14E","Ventilation",0,"Non-Critical","Not Observed",45,"1535 PEARL ST
BOULDER, CO 803025408
(40.018885, -105.275207)"
"FA0000556","MOUNTAIN SUN PUB & BREWERY","1535 PEARL ST","1535",NULL,"PEARL","ST",NULL,"BOULDER","CO","803025408","RESTAURANT 0 TO 100 SEATS","FULL SERVICE FULL MENU","ROUTINE INSPECTION","2015-08-18","06A","Adequate Number Location Design",0,"Critical","In",45,"1535 PEARL ST
BOULDER, CO 803025408
(40.018885, -105.275207)"
"FA0000556","MOUNTAIN SUN PUB & BREWERY","1535 PEARL ST","1535",NULL,"PEARL","ST",NULL,"BOULDER","CO","803025408","RESTAURANT 0 TO 100 SEATS","FULL SERVICE FULL MENU","ROUTINE INSPECTION","2015-08-18","05A","Safe Water Source",0,"Critical","In",45,"1535 PEARL ST
BOULDER, CO 803025408
(40.018885, -105.275207)"
"FA0000556","MOUNTAIN SUN PUB & BREWERY","1535 PEARL ST","1535",NULL,"PEARL","ST",NULL,"BOULDER","CO","803025408","RESTAURANT 0 TO 100 SEATS","FULL SERVICE FULL MENU","ROUTINE INSPECTION","2017-03-27","09A","Original Container Properly Labeled",0,"Non-Critical","Not Observed",20,"1535 PEARL ST
BOULDER, CO 803025408
(40.018885, -105.275207)"
"FA0000556","MOUNTAIN SUN PUB & BREWERY","1535 PEARL ST","1535",NULL,"PEARL","ST",NULL,"BOULDER","CO","803025408","RESTAURANT 0 TO 100 SEATS","FULL SERVICE FULL MENU","ROUTINE INSPECTION","2015-08-18","03E","Cold Hold at 41 Degrees or Less",15,"Critical","Out",45,"1535 PEARL ST
BOULDER, CO 803025408
(40.018885, -105.275207)"
"FA0000556","MOUNTAIN SUN PUB & BREWERY","1535 PEARL ST","1535",NULL,"PEARL","ST",NULL,"BOULDER","CO","803025408","RESTAURANT 0 TO 100 SEATS","FULL SERVICE FULL MENU","ROUTINE INSPECTION","2017-03-27","03D","Required Cooking Temperature",0,"Critical","In",20,"1535 PEARL ST
BOULDER, CO 803025408
(40.018885, -105.275207)"
"FA0000556","MOUNTAIN SUN PUB & BREWERY","1535 PEARL ST","1535",NULL,"PEARL","ST",NULL,"BOULDER","CO","803025408","RESTAURANT 0 TO 100 SEATS","FULL SERVICE FULL MENU","ROUTINE INSPECTION","2017-03-27","14D","Lighting",0,"Non-Critical","Not Observed",20,"1535 PEARL ST
BOULDER, CO 803025408
(40.018885, -105.275207)"
"FA0000556","MOUNTAIN SUN PUB & BREWERY","1535 PEARL ST","1535",NULL,"PEARL","ST",NULL,"BOULDER","CO","803025408","RESTAURANT 0 TO 100 SEATS","FULL SERVICE FULL MENU","ROUTINE INSPECTION","2015-08-18","10A","Food-Contact Surfaces Construction",0,"Non-Critical","Not Observed",45,"1535 PEARL ST
BOULDER, CO 803025408
(40.018885, -105.275207)"
"FA0000556","MOUNTAIN SUN PUB & BREWERY","1535 PEARL ST","1535",NULL,"PEARL","ST",NULL,"BOULDER","CO","803025408","RESTAURANT 0 TO 100 SEATS","FULL SERVICE FULL MENU","ROUTINE INSPECTION","2015-08-18","13B","Single Service Articles Stored Dispensed Used",0,"Non-Critical","Not Observed",45,"1535 PEARL ST
BOULDER, CO 803025408
(40.018885, -105.275207)"
"FA0000556","MOUNTAIN SUN PUB & BREWERY","1535 PEARL ST","1535",NULL,"PEARL","ST",NULL,"BOULDER","CO","803025408","RESTAURANT 0 TO 100 SEATS","FULL SERVICE FULL MENU","ROUTINE INSPECTION","2015-08-18","08C","Properly Used",0,"Critical","In",45,"1535 PEARL ST
BOULDER, CO 803025408
(40.018885, -105.275207)"
"FA0000556","MOUNTAIN SUN PUB & BREWERY","1535 PEARL ST","1535",NULL,"PEARL","ST",NULL,"BOULDER","CO","803025408","RESTAURANT 0 TO 100 SEATS","FULL SERVICE FULL MENU","ROUTINE INSPECTION","2017-03-27","12A","Food Contact Surfaces Cleaning",0,"Non-Critical","Not Observed",20,"1535 PEARL ST
BOULDER, CO 803025408
(40.018885, -105.275207)"
"FA0000556","MOUNTAIN SUN PUB & BREWERY","1535 PEARL ST","1535",NULL,"PEARL","ST",NULL,"BOULDER","CO","803025408","RESTAURANT 0 TO 100 SEATS","FULL SERVICE FULL MENU","ROUTINE INSPECTION","2017-03-27","14H","Separation of Living Laundry",0,"Non-Critical","Not Observed",20,"1535 PEARL ST
BOULDER, CO 803025408
(40.018885, -105.275207)"
"FA0000556","MOUNTAIN SUN PUB & BREWERY","1535 PEARL ST","1535",NULL,"PEARL","ST",NULL,"BOULDER","CO","803025408","RESTAURANT 0 TO 100 SEATS","FULL SERVICE FULL MENU","ROUTINE INSPECTION","2015-08-18","12D","Wiping Cloths",0,"Non-Critical","Not Observed",45,"1535 PEARL ST
BOULDER, CO 803025408
(40.018885, -105.275207)"
"FA0000556","MOUNTAIN SUN PUB & BREWERY","1535 PEARL ST","1535",NULL,"PEARL","ST",NULL,"BOULDER","CO","803025408","RESTAURANT 0 TO 100 SEATS","FULL SERVICE FULL MENU","ROUTINE INSPECTION","2015-08-18","03G","Adequate Equipment to Maintain Food Temperatures",20,"Critical","Out",45,"1535 PEARL ST
BOULDER, CO 803025408
(40.018885, -105.275207)"
"FA0000556","MOUNTAIN SUN PUB & BREWERY","1535 PEARL ST","1535",NULL,"PEARL","ST",NULL,"BOULDER","CO","803025408","RESTAURANT 0 TO 100 SEATS","FULL SERVICE FULL MENU","ROUTINE INSPECTION","2015-08-18","01F","Consumer Advisory",0,"Critical","Not Applicable",45,"1535 PEARL ST
BOULDER, CO 803025408
(40.018885, -105.275207)"
"FA0000556","MOUNTAIN SUN PUB & BREWERY","1535 PEARL ST","1535",NULL,"PEARL","ST",NULL,"BOULDER","CO","803025408","RESTAURANT 0 TO 100 SEATS","FULL SERVICE FULL MENU","ROUTINE INSPECTION","2015-08-18","13C","No Reuse of Single Service Articles",0,"Non-Critical","Not Observed",45,"1535 PEARL ST
BOULDER, CO 803025408
(40.018885, -105.275207)"
"FA0000556","MOUNTAIN SUN PUB & BREWERY","1535 PEARL ST","1535",NULL,"PEARL","ST",NULL,"BOULDER","CO","803025408","RESTAURANT 0 TO 100 SEATS","FULL SERVICE FULL MENU","ROUTINE INSPECTION","2015-08-18","02F","Training Needed",0,"Critical","In",45,"1535 PEARL ST
BOULDER, CO 803025408
(40.018885, -105.275207)"
"FA0000556","MOUNTAIN SUN PUB & BREWERY","1535 PEARL ST","1535",NULL,"PEARL","ST",NULL,"BOULDER","CO","803025408","RESTAURANT 0 TO 100 SEATS","FULL SERVICE FULL MENU","ROUTINE INSPECTION","2017-03-27","05B","Hot and Cold Water Under Pressure",0,"Critical","In",20,"1535 PEARL ST
BOULDER, CO 803025408
(40.018885, -105.275207)"
"FA0000556","MOUNTAIN SUN PUB & BREWERY","1535 PEARL ST","1535",NULL,"PEARL","ST",NULL,"BOULDER","CO","803025408","RESTAURANT 0 TO 100 SEATS","FULL SERVICE FULL MENU","ROUTINE INSPECTION","2015-08-18","12A","Food Contact Surfaces Cleaning",0,"Non-Critical","Not Observed",45,"1535 PEARL ST
BOULDER, CO 803025408
(40.018885, -105.275207)"
"FA0000556","MOUNTAIN SUN PUB & BREWERY","1535 PEARL ST","1535",NULL,"PEARL","ST",NULL,"BOULDER","CO","803025408","RESTAURANT 0 TO 100 SEATS","FULL SERVICE FULL MENU","ROUTINE INSPECTION","2015-08-18","03F","Food Thermometer",0,"Critical","In",45,"1535 PEARL ST
BOULDER, CO 803025408
(40.018885, -105.275207)"
"FA0000556","MOUNTAIN SUN PUB & BREWERY","1535 PEARL ST","1535",NULL,"PEARL","ST",NULL,"BOULDER","CO","803025408","RESTAURANT 0 TO 100 SEATS","FULL SERVICE FULL MENU","ROUTINE INSPECTION","2017-03-27","11A","Refrigeration Units With Accurate Thermometers",0,"Non-Critical","Not Observed",20,"1535 PEARL ST
BOULDER, CO 803025408
(40.018885, -105.275207)"
"FA0000556","MOUNTAIN SUN PUB & BREWERY","1535 PEARL ST","1535",NULL,"PEARL","ST",NULL,"BOULDER","CO","803025408","RESTAURANT 0 TO 100 SEATS","FULL SERVICE FULL MENU","ROUTINE INSPECTION","2015-08-18","14B","Garbage and Refuse",0,"Non-Critical","Not Observed",45,"1535 PEARL ST
BOULDER, CO 803025408
(40.018885, -105.275207)"
"FA0000556","MOUNTAIN SUN PUB & BREWERY","1535 PEARL ST","1535",NULL,"PEARL","ST",NULL,"BOULDER","CO","803025408","RESTAURANT 0 TO 100 SEATS","FULL SERVICE FULL MENU","ROUTINE INSPECTION","2015-08-18","02C","Hands Washed As Needed",0,"Critical","In",45,"1535 PEARL ST
BOULDER, CO 803025408
(40.018885, -105.275207)"
"FA0000556","MOUNTAIN SUN PUB & BREWERY","1535 PEARL ST","1535",NULL,"PEARL","ST",NULL,"BOULDER","CO","803025408","RESTAURANT 0 TO 100 SEATS","FULL SERVICE FULL MENU","ROUTINE INSPECTION","2017-03-27","09B","Food Protected from Contamination",0,"Non-Critical","Not Observed",20,"1535 PEARL ST
BOULDER, CO 803025408
(40.018885, -105.275207)"
"FA0000556","MOUNTAIN SUN PUB & BREWERY","1535 PEARL ST","1535",NULL,"PEARL","ST",NULL,"BOULDER","CO","803025408","RESTAURANT 0 TO 100 SEATS","FULL SERVICE FULL MENU","ROUTINE INSPECTION","2015-08-18","14G","Premises Maintained",0,"Non-Critical","Not Observed",45,"1535 PEARL ST
BOULDER, CO 803025408
(40.018885, -105.275207)"
"FA0000556","MOUNTAIN SUN PUB & BREWERY","1535 PEARL ST","1535",NULL,"PEARL","ST",NULL,"BOULDER","CO","803025408","RESTAURANT 0 TO 100 SEATS","FULL SERVICE FULL MENU","ROUTINE INSPECTION","2017-03-27","14I","Physical Facilities Adequate Toilet Facilities",0,"Non-Critical","Not Observed",20,"1535 PEARL ST
BOULDER, CO 803025408
(40.018885, -105.275207)"
"FA0000556","MOUNTAIN SUN PUB & BREWERY","1535 PEARL ST","1535",NULL,"PEARL","ST",NULL,"BOULDER","CO","803025408","RESTAURANT 0 TO 100 SEATS","FULL SERVICE FULL MENU","ROUTINE INSPECTION","2017-03-27","03E","Cold Hold at 41 Degrees or Less",15,"Critical","Out",20,"1535 PEARL ST
BOULDER, CO 803025408
(40.018885, -105.275207)"
"FA0000556","MOUNTAIN SUN PUB & BREWERY","1535 PEARL ST","1535",NULL,"PEARL","ST",NULL,"BOULDER","CO","803025408","RESTAURANT 0 TO 100 SEATS","FULL SERVICE FULL MENU","ROUTINE INSPECTION","2017-03-27","03B","Rapidly Reheat to 165 Degrees or Greater",0,"Critical","Not Observed",20,"1535 PEARL ST
BOULDER, CO 803025408
(40.018885, -105.275207)"
"FA0000556","MOUNTAIN SUN PUB & BREWERY","1535 PEARL ST","1535",NULL,"PEARL","ST",NULL,"BOULDER","CO","803025408","RESTAURANT 0 TO 100 SEATS","FULL SERVICE FULL MENU","ROUTINE INSPECTION","2015-08-18","08B","Properly Labeled",0,"Critical","In",45,"1535 PEARL ST
BOULDER, CO 803025408
(40.018885, -105.275207)"
"FA0000556","MOUNTAIN SUN PUB & BREWERY","1535 PEARL ST","1535",NULL,"PEARL","ST",NULL,"BOULDER","CO","803025408","RESTAURANT 0 TO 100 SEATS","FULL SERVICE FULL MENU","ROUTINE INSPECTION","2017-03-27","01D","HACCP Plan",0,"Critical","Not Applicable",20,"1535 PEARL ST
BOULDER, CO 803025408
(40.018885, -105.275207)"
"FA0000556","MOUNTAIN SUN PUB & BREWERY","1535 PEARL ST","1535",NULL,"PEARL","ST",NULL,"BOULDER","CO","803025408","RESTAURANT 0 TO 100 SEATS","FULL SERVICE FULL MENU","ROUTINE INSPECTION","2017-03-27","12C","Dishwashing Operations",0,"Non-Critical","Not Observed",20,"1535 PEARL ST
BOULDER, CO 803025408
(40.018885, -105.275207)"
"FA0000556","MOUNTAIN SUN PUB & BREWERY","1535 PEARL ST","1535",NULL,"PEARL","ST",NULL,"BOULDER","CO","803025408","RESTAURANT 0 TO 100 SEATS","FULL SERVICE FULL MENU","ROUTINE INSPECTION","2017-03-27","08A","Properly Stored",0,"Critical","Not Observed",20,"1535 PEARL ST
BOULDER, CO 803025408
(40.018885, -105.275207)"
"FA0000556","MOUNTAIN SUN PUB & BREWERY","1535 PEARL ST","1535",NULL,"PEARL","ST",NULL,"BOULDER","CO","803025408","RESTAURANT 0 TO 100 SEATS","FULL SERVICE FULL MENU","ROUTINE INSPECTION","2017-03-27","03C","Hot Hold at 135 Degrees Farenheit or Greater",0,"Critical","In",20,"1535 PEARL ST
BOULDER, CO 803025408
(40.018885, -105.275207)"
"FA0000556","MOUNTAIN SUN PUB & BREWERY","1535 PEARL ST","1535",NULL,"PEARL","ST",NULL,"BOULDER","CO","803025408","RESTAURANT 0 TO 100 SEATS","FULL SERVICE FULL MENU","ROUTINE INSPECTION","2017-03-27","14A","Plumbing Installed Maintained",0,"Non-Critical","Not Observed",20,"1535 PEARL ST
BOULDER, CO 803025408
(40.018885, -105.275207)"
"FA0000556","MOUNTAIN SUN PUB & BREWERY","1535 PEARL ST","1535",NULL,"PEARL","ST",NULL,"BOULDER","CO","803025408","RESTAURANT 0 TO 100 SEATS","FULL SERVICE FULL MENU","ROUTINE INSPECTION","2015-08-18","05D","Sewage Disposal",0,"Critical","In",45,"1535 PEARL ST
BOULDER, CO 803025408
(40.018885, -105.275207)"
"FA0000556","MOUNTAIN SUN PUB & BREWERY","1535 PEARL ST","1535",NULL,"PEARL","ST",NULL,"BOULDER","CO","803025408","RESTAURANT 0 TO 100 SEATS","FULL SERVICE FULL MENU","ROUTINE INSPECTION","2015-08-18","15A","Personnel: Clean Clothes Hair Restraints Authorizat",0,"Non-Critical","Not Observed",45,"1535 PEARL ST
BOULDER, CO 803025408
(40.018885, -105.275207)"
"FA0000556","MOUNTAIN SUN PUB & BREWERY","1535 PEARL ST","1535",NULL,"PEARL","ST",NULL,"BOULDER","CO","803025408","RESTAURANT 0 TO 100 SEATS","FULL SERVICE FULL MENU","ROUTINE INSPECTION","2015-08-18","01D","HACCP Plan",0,"Critical","Not Applicable",45,"1535 PEARL ST
BOULDER, CO 803025408
(40.018885, -105.275207)"
"FA0000556","MOUNTAIN SUN PUB & BREWERY","1535 PEARL ST","1535",NULL,"PEARL","ST",NULL,"BOULDER","CO","803025408","RESTAURANT 0 TO 100 SEATS","FULL SERVICE FULL MENU","ROUTINE INSPECTION","2015-08-18","04A","Manual",0,"Critical","Not Applicable",45,"1535 PEARL ST
BOULDER, CO 803025408
(40.018885, -105.275207)"
"FA0000556","MOUNTAIN SUN PUB & BREWERY","1535 PEARL ST","1535",NULL,"PEARL","ST",NULL,"BOULDER","CO","803025408","RESTAURANT 0 TO 100 SEATS","FULL SERVICE FULL MENU","ROUTINE INSPECTION","2017-03-27","01E","Date Marking",0,"Critical","Not Applicable",20,"1535 PEARL ST
BOULDER, CO 803025408
(40.018885, -105.275207)"
"FA0000556","MOUNTAIN SUN PUB & BREWERY","1535 PEARL ST","1535",NULL,"PEARL","ST",NULL,"BOULDER","CO","803025408","RESTAURANT 0 TO 100 SEATS","FULL SERVICE FULL MENU","ROUTINE INSPECTION","2015-08-18","11C","Chemical Test Kits Provided Accessible",0,"Non-Critical","Not Observed",45,"1535 PEARL ST
BOULDER, CO 803025408
(40.018885, -105.275207)"
"FA0000556","MOUNTAIN SUN PUB & BREWERY","1535 PEARL ST","1535",NULL,"PEARL","ST",NULL,"BOULDER","CO","803025408","RESTAURANT 0 TO 100 SEATS","FULL SERVICE FULL MENU","ROUTINE INSPECTION","2015-08-18","14C","Floors Walls Ceilings",0,"Non-Critical","Not Observed",45,"1535 PEARL ST
BOULDER, CO 803025408
(40.018885, -105.275207)"
"FA0000556","MOUNTAIN SUN PUB & BREWERY","1535 PEARL ST","1535",NULL,"PEARL","ST",NULL,"BOULDER","CO","803025408","RESTAURANT 0 TO 100 SEATS","FULL SERVICE FULL MENU","ROUTINE INSPECTION","2017-03-27","12D","Wiping Cloths",0,"Non-Critical","Not Observed",20,"1535 PEARL ST
BOULDER, CO 803025408
(40.018885, -105.275207)"
"FA0000556","MOUNTAIN SUN PUB & BREWERY","1535 PEARL ST","1535",NULL,"PEARL","ST",NULL,"BOULDER","CO","803025408","RESTAURANT 0 TO 100 SEATS","FULL SERVICE FULL MENU","ROUTINE INSPECTION","2015-08-18","13A","Equipment Utensils Provided Used, Stored",0,"Non-Critical","Not Observed",45,"1535 PEARL ST
BOULDER, CO 803025408
(40.018885, -105.275207)"
"FA0000556","MOUNTAIN SUN PUB & BREWERY","1535 PEARL ST","1535",NULL,"PEARL","ST",NULL,"BOULDER","CO","803025408","RESTAURANT 0 TO 100 SEATS","FULL SERVICE FULL MENU","ROUTINE INSPECTION","2015-08-18","14D","Lighting",0,"Non-Critical","Not Observed",45,"1535 PEARL ST
BOULDER, CO 803025408
(40.018885, -105.275207)"
"FA0000556","MOUNTAIN SUN PUB & BREWERY","1535 PEARL ST","1535",NULL,"PEARL","ST",NULL,"BOULDER","CO","803025408","RESTAURANT 0 TO 100 SEATS","FULL SERVICE FULL MENU","ROUTINE INSPECTION","2015-08-18","05C","Backflow Back Siphonage",0,"Critical","In",45,"1535 PEARL ST
BOULDER, CO 803025408
(40.018885, -105.275207)"
"FA0000556","MOUNTAIN SUN PUB & BREWERY","1535 PEARL ST","1535",NULL,"PEARL","ST",NULL,"BOULDER","CO","803025408","RESTAURANT 0 TO 100 SEATS","FULL SERVICE FULL MENU","ROUTINE INSPECTION","2015-08-18","03D","Required Cooking Temperature",0,"Critical","In",45,"1535 PEARL ST
BOULDER, CO 803025408
(40.018885, -105.275207)"
"FA0000556","MOUNTAIN SUN PUB & BREWERY","1535 PEARL ST","1535",NULL,"PEARL","ST",NULL,"BOULDER","CO","803025408","RESTAURANT 0 TO 100 SEATS","FULL SERVICE FULL MENU","ROUTINE INSPECTION","2015-08-18","02B","Wounds Properly Covered",0,"Critical","Not Observed",45,"1535 PEARL ST
BOULDER, CO 803025408
(40.018885, -105.275207)"
"FA0000556","MOUNTAIN SUN PUB & BREWERY","1535 PEARL ST","1535",NULL,"PEARL","ST",NULL,"BOULDER","CO","803025408","RESTAURANT 0 TO 100 SEATS","FULL SERVICE FULL MENU","ROUTINE INSPECTION","2017-03-27","02G","No Bare Hand Contact",0,"Critical","In",20,"1535 PEARL ST
BOULDER, CO 803025408
(40.018885, -105.275207)"
"FA0000556","MOUNTAIN SUN PUB & BREWERY","1535 PEARL ST","1535",NULL,"PEARL","ST",NULL,"BOULDER","CO","803025408","RESTAURANT 0 TO 100 SEATS","FULL SERVICE FULL MENU","ROUTINE INSPECTION","2017-03-27","13C","No Reuse of Single Service Articles",0,"Non-Critical","Not Observed",20,"1535 PEARL ST
BOULDER, CO 803025408
(40.018885, -105.275207)"
"FA0000556","MOUNTAIN SUN PUB & BREWERY","1535 PEARL ST","1535",NULL,"PEARL","ST",NULL,"BOULDER","CO","803025408","RESTAURANT 0 TO 100 SEATS","FULL SERVICE FULL MENU","ROUTINE INSPECTION","2017-03-27","05A","Safe Water Source",0,"Critical","In",20,"1535 PEARL ST
BOULDER, CO 803025408
(40.018885, -105.275207)"
"FA0000556","MOUNTAIN SUN PUB & BREWERY","1535 PEARL ST","1535",NULL,"PEARL","ST",NULL,"BOULDER","CO","803025408","RESTAURANT 0 TO 100 SEATS","FULL SERVICE FULL MENU","ROUTINE INSPECTION","2015-08-18","12B","Non-Food Contact Surfaces Cleaning",0,"Non-Critical","Not Observed",45,"1535 PEARL ST
BOULDER, CO 803025408
(40.018885, -105.275207)"
"FA0000556","MOUNTAIN SUN PUB & BREWERY","1535 PEARL ST","1535",NULL,"PEARL","ST",NULL,"BOULDER","CO","803025408","RESTAURANT 0 TO 100 SEATS","FULL SERVICE FULL MENU","ROUTINE INSPECTION","2017-03-27","01C","Cross Contamination",0,"Critical","In",20,"1535 PEARL ST
BOULDER, CO 803025408
(40.018885, -105.275207)"
"FA0000556","MOUNTAIN SUN PUB & BREWERY","1535 PEARL ST","1535",NULL,"PEARL","ST",NULL,"BOULDER","CO","803025408","RESTAURANT 0 TO 100 SEATS","FULL SERVICE FULL MENU","ROUTINE INSPECTION","2017-03-27","14F","Locker Rooms",0,"Non-Critical","Not Observed",20,"1535 PEARL ST
BOULDER, CO 803025408
(40.018885, -105.275207)"
"FA0000556","MOUNTAIN SUN PUB & BREWERY","1535 PEARL ST","1535",NULL,"PEARL","ST",NULL,"BOULDER","CO","803025408","RESTAURANT 0 TO 100 SEATS","FULL SERVICE FULL MENU","ROUTINE INSPECTION","2017-03-27","13B","Single Service Articles Stored Dispensed Used",0,"Non-Critical","Not Observed",20,"1535 PEARL ST
BOULDER, CO 803025408
(40.018885, -105.275207)"
"FA0000556","MOUNTAIN SUN PUB & BREWERY","1535 PEARL ST","1535",NULL,"PEARL","ST",NULL,"BOULDER","CO","803025408","RESTAURANT 0 TO 100 SEATS","FULL SERVICE FULL MENU","ROUTINE INSPECTION","2017-03-27","01B","Wholesome Free of Spoilage",0,"Critical","Not Observed",20,"1535 PEARL ST
BOULDER, CO 803025408
(40.018885, -105.275207)"
"FA0000556","MOUNTAIN SUN PUB & BREWERY","1535 PEARL ST","1535",NULL,"PEARL","ST",NULL,"BOULDER","CO","803025408","RESTAURANT 0 TO 100 SEATS","FULL SERVICE FULL MENU","ROUTINE INSPECTION","2015-08-18","07B","Pesticide Application",0,"Critical","In",45,"1535 PEARL ST
BOULDER, CO 803025408
(40.018885, -105.275207)"
"FA0000556","MOUNTAIN SUN PUB & BREWERY","1535 PEARL ST","1535",NULL,"PEARL","ST",NULL,"BOULDER","CO","803025408","RESTAURANT 0 TO 100 SEATS","FULL SERVICE FULL MENU","ROUTINE INSPECTION","2017-03-27","15A","Personnel: Clean Clothes Hair Restraints Authorizat",0,"Non-Critical","Not Observed",20,"1535 PEARL ST
BOULDER, CO 803025408
(40.018885, -105.275207)"
"FA0000556","MOUNTAIN SUN PUB & BREWERY","1535 PEARL ST","1535",NULL,"PEARL","ST",NULL,"BOULDER","CO","803025408","RESTAURANT 0 TO 100 SEATS","FULL SERVICE FULL MENU","ROUTINE INSPECTION","2015-08-18","02G","No Bare Hand Contact",0,"Critical","In",45,"1535 PEARL ST
BOULDER, CO 803025408
(40.018885, -105.275207)"
"FA0000556","MOUNTAIN SUN PUB & BREWERY","1535 PEARL ST","1535",NULL,"PEARL","ST",NULL,"BOULDER","CO","803025408","RESTAURANT 0 TO 100 SEATS","FULL SERVICE FULL MENU","ROUTINE INSPECTION","2017-03-27","01F","Consumer Advisory",0,"Critical","In",20,"1535 PEARL ST
BOULDER, CO 803025408
(40.018885, -105.275207)"
"FA0000556","MOUNTAIN SUN PUB & BREWERY","1535 PEARL ST","1535",NULL,"PEARL","ST",NULL,"BOULDER","CO","803025408","RESTAURANT 0 TO 100 SEATS","FULL SERVICE FULL MENU","ROUTINE INSPECTION","2017-03-27","11B","Dishmachine With Accurate Thermometer & Gauge Cock",0,"Non-Critical","Not Observed",20,"1535 PEARL ST
BOULDER, CO 803025408
(40.018885, -105.275207)"
"FA0000556","MOUNTAIN SUN PUB & BREWERY","1535 PEARL ST","1535",NULL,"PEARL","ST",NULL,"BOULDER","CO","803025408","RESTAURANT 0 TO 100 SEATS","FULL SERVICE FULL MENU","ROUTINE INSPECTION","2017-03-27","06B","Accessible",0,"Critical","In",20,"1535 PEARL ST
BOULDER, CO 803025408
(40.018885, -105.275207)"
"FA0000556","MOUNTAIN SUN PUB & BREWERY","1535 PEARL ST","1535",NULL,"PEARL","ST",NULL,"BOULDER","CO","803025408","RESTAURANT 0 TO 100 SEATS","FULL SERVICE FULL MENU","ROUTINE INSPECTION","2017-03-27","02E","Smoking Eating Drinking",0,"Critical","In",20,"1535 PEARL ST
BOULDER, CO 803025408
(40.018885, -105.275207)"
"FA0000556","MOUNTAIN SUN PUB & BREWERY","1535 PEARL ST","1535",NULL,"PEARL","ST",NULL,"BOULDER","CO","803025408","RESTAURANT 0 TO 100 SEATS","FULL SERVICE FULL MENU","ROUTINE INSPECTION","2015-08-18","14H","Separation of Living Laundry",0,"Non-Critical","Not Observed",45,"1535 PEARL ST
BOULDER, CO 803025408
(40.018885, -105.275207)"
"FA0000556","MOUNTAIN SUN PUB & BREWERY","1535 PEARL ST","1535",NULL,"PEARL","ST",NULL,"BOULDER","CO","803025408","RESTAURANT 0 TO 100 SEATS","FULL SERVICE FULL MENU","ROUTINE INSPECTION","2017-03-27","10A","Food-Contact Surfaces Construction",0,"Non-Critical","Not Observed",20,"1535 PEARL ST
BOULDER, CO 803025408
(40.018885, -105.275207)"
"FA0000556","MOUNTAIN SUN PUB & BREWERY","1535 PEARL ST","1535",NULL,"PEARL","ST",NULL,"BOULDER","CO","803025408","RESTAURANT 0 TO 100 SEATS","FULL SERVICE FULL MENU","ROUTINE INSPECTION","2017-03-27","03F","Food Thermometer",0,"Critical","In",20,"1535 PEARL ST
BOULDER, CO 803025408
(40.018885, -105.275207)"
"FA0000556","MOUNTAIN SUN PUB & BREWERY","1535 PEARL ST","1535",NULL,"PEARL","ST",NULL,"BOULDER","CO","803025408","RESTAURANT 0 TO 100 SEATS","FULL SERVICE FULL MENU","ROUTINE INSPECTION","2017-03-27","13A","Equipment Utensils Provided Used, Stored",0,"Non-Critical","Not Observed",20,"1535 PEARL ST
BOULDER, CO 803025408
(40.018885, -105.275207)"
"FA0000556","MOUNTAIN SUN PUB & BREWERY","1535 PEARL ST","1535",NULL,"PEARL","ST",NULL,"BOULDER","CO","803025408","RESTAURANT 0 TO 100 SEATS","FULL SERVICE FULL MENU","ROUTINE INSPECTION","2015-08-18","01E","Date Marking",0,"Critical","Not Applicable",45,"1535 PEARL ST
BOULDER, CO 803025408
(40.018885, -105.275207)"
"FA0000556","MOUNTAIN SUN PUB & BREWERY","1535 PEARL ST","1535",NULL,"PEARL","ST",NULL,"BOULDER","CO","803025408","RESTAURANT 0 TO 100 SEATS","FULL SERVICE FULL MENU","ROUTINE INSPECTION","2015-08-18","06C","Soap and Drying Devices",0,"Critical","In",45,"1535 PEARL ST
BOULDER, CO 803025408
(40.018885, -105.275207)"
"FA0000556","MOUNTAIN SUN PUB & BREWERY","1535 PEARL ST","1535",NULL,"PEARL","ST",NULL,"BOULDER","CO","803025408","RESTAURANT 0 TO 100 SEATS","FULL SERVICE FULL MENU","ROUTINE INSPECTION","2017-03-27","08B","Properly Labeled",0,"Critical","Not Observed",20,"1535 PEARL ST
BOULDER, CO 803025408
(40.018885, -105.275207)"
"FA0000556","MOUNTAIN SUN PUB & BREWERY","1535 PEARL ST","1535",NULL,"PEARL","ST",NULL,"BOULDER","CO","803025408","RESTAURANT 0 TO 100 SEATS","FULL SERVICE FULL MENU","ROUTINE INSPECTION","2015-08-18","05B","Hot and Cold Water Under Pressure",0,"Critical","In",45,"1535 PEARL ST
BOULDER, CO 803025408
(40.018885, -105.275207)"
"FA0000556","MOUNTAIN SUN PUB & BREWERY","1535 PEARL ST","1535",NULL,"PEARL","ST",NULL,"BOULDER","CO","803025408","RESTAURANT 0 TO 100 SEATS","FULL SERVICE FULL MENU","ROUTINE INSPECTION","2017-03-27","03A","Cooling Methods",0,"Critical","In",20,"1535 PEARL ST
BOULDER, CO 803025408
(40.018885, -105.275207)"
"FA0000556","MOUNTAIN SUN PUB & BREWERY","1535 PEARL ST","1535",NULL,"PEARL","ST",NULL,"BOULDER","CO","803025408","RESTAURANT 0 TO 100 SEATS","FULL SERVICE FULL MENU","ROUTINE INSPECTION","2017-03-27","10C","Dishwashing Facilities",0,"Non-Critical","Not Observed",20,"1535 PEARL ST
BOULDER, CO 803025408
(40.018885, -105.275207)"
"FA0000556","MOUNTAIN SUN PUB & BREWERY","1535 PEARL ST","1535",NULL,"PEARL","ST",NULL,"BOULDER","CO","803025408","RESTAURANT 0 TO 100 SEATS","FULL SERVICE FULL MENU","ROUTINE INSPECTION","2017-03-27","14C","Floors Walls Ceilings",0,"Non-Critical","Not Observed",20,"1535 PEARL ST
BOULDER, CO 803025408
(40.018885, -105.275207)"
"FA0000556","MOUNTAIN SUN PUB & BREWERY","1535 PEARL ST","1535",NULL,"PEARL","ST",NULL,"BOULDER","CO","803025408","RESTAURANT 0 TO 100 SEATS","FULL SERVICE FULL MENU","ROUTINE INSPECTION","2017-03-27","02A","Personnel With Infections Restricted",0,"Critical","In",20,"1535 PEARL ST
BOULDER, CO 803025408
(40.018885, -105.275207)"
"FA0000556","MOUNTAIN SUN PUB & BREWERY","1535 PEARL ST","1535",NULL,"PEARL","ST",NULL,"BOULDER","CO","803025408","RESTAURANT 0 TO 100 SEATS","FULL SERVICE FULL MENU","ROUTINE INSPECTION","2015-08-18","12C","Dishwashing Operations",0,"Non-Critical","Not Observed",45,"1535 PEARL ST
BOULDER, CO 803025408
(40.018885, -105.275207)"
"FA0000556","MOUNTAIN SUN PUB & BREWERY","1535 PEARL ST","1535",NULL,"PEARL","ST",NULL,"BOULDER","CO","803025408","RESTAURANT 0 TO 100 SEATS","FULL SERVICE FULL MENU","ROUTINE INSPECTION","2015-08-18","08A","Properly Stored",0,"Critical","In",45,"1535 PEARL ST
BOULDER, CO 803025408
(40.018885, -105.275207)"
"FA0000556","MOUNTAIN SUN PUB & BREWERY","1535 PEARL ST","1535",NULL,"PEARL","ST",NULL,"BOULDER","CO","803025408","RESTAURANT 0 TO 100 SEATS","FULL SERVICE FULL MENU","ROUTINE INSPECTION","2017-03-27","01A","Approved Source",0,"Critical","In",20,"1535 PEARL ST
BOULDER, CO 803025408
(40.018885, -105.275207)"
"FA0000556","MOUNTAIN SUN PUB & BREWERY","1535 PEARL ST","1535",NULL,"PEARL","ST",NULL,"BOULDER","CO","803025408","RESTAURANT 0 TO 100 SEATS","FULL SERVICE FULL MENU","ROUTINE INSPECTION","2017-03-27","04A","Manual",0,"Critical","In",20,"1535 PEARL ST
BOULDER, CO 803025408
(40.018885, -105.275207)"
"FA0000556","MOUNTAIN SUN PUB & BREWERY","1535 PEARL ST","1535",NULL,"PEARL","ST",NULL,"BOULDER","CO","803025408","RESTAURANT 0 TO 100 SEATS","FULL SERVICE FULL MENU","ROUTINE INSPECTION","2015-08-18","01B","Wholesome Free of Spoilage",0,"Critical","In",45,"1535 PEARL ST
BOULDER, CO 803025408
(40.018885, -105.275207)"
"FA0000556","MOUNTAIN SUN PUB & BREWERY","1535 PEARL ST","1535",NULL,"PEARL","ST",NULL,"BOULDER","CO","803025408","RESTAURANT 0 TO 100 SEATS","FULL SERVICE FULL MENU","ROUTINE INSPECTION","2015-08-18","02D","Hygienic Practices",0,"Critical","In",45,"1535 PEARL ST
BOULDER, CO 803025408
(40.018885, -105.275207)"
"FA0000556","MOUNTAIN SUN PUB & BREWERY","1535 PEARL ST","1535",NULL,"PEARL","ST",NULL,"BOULDER","CO","803025408","RESTAURANT 0 TO 100 SEATS","FULL SERVICE FULL MENU","ROUTINE INSPECTION","2015-08-18","07C","Animals Prohibited",0,"Critical","In",45,"1535 PEARL ST
BOULDER, CO 803025408
(40.018885, -105.275207)"
"FA0000556","MOUNTAIN SUN PUB & BREWERY","1535 PEARL ST","1535",NULL,"PEARL","ST",NULL,"BOULDER","CO","803025408","RESTAURANT 0 TO 100 SEATS","FULL SERVICE FULL MENU","ROUTINE INSPECTION","2015-08-18","11B","Dishmachine With Accurate Thermometer & Gauge Cock",0,"Non-Critical","Not Observed",45,"1535 PEARL ST
BOULDER, CO 803025408
(40.018885, -105.275207)"
"FA0000556","MOUNTAIN SUN PUB & BREWERY","1535 PEARL ST","1535",NULL,"PEARL","ST",NULL,"BOULDER","CO","803025408","RESTAURANT 0 TO 100 SEATS","FULL SERVICE FULL MENU","ROUTINE INSPECTION","2017-03-27","05D","Sewage Disposal",0,"Critical","In",20,"1535 PEARL ST
BOULDER, CO 803025408
(40.018885, -105.275207)"
"FA0000556","MOUNTAIN SUN PUB & BREWERY","1535 PEARL ST","1535",NULL,"PEARL","ST",NULL,"BOULDER","CO","803025408","RESTAURANT 0 TO 100 SEATS","FULL SERVICE FULL MENU","ROUTINE INSPECTION","2015-08-18","14I","Physical Facilities Adequate Toilet Facilities",0,"Non-Critical","Not Observed",45,"1535 PEARL ST
BOULDER, CO 803025408
(40.018885, -105.275207)"
"FA0000556","MOUNTAIN SUN PUB & BREWERY","1535 PEARL ST","1535",NULL,"PEARL","ST",NULL,"BOULDER","CO","803025408","RESTAURANT 0 TO 100 SEATS","FULL SERVICE FULL MENU","ROUTINE INSPECTION","2015-08-18","02A","Personnel With Infections Restricted",0,"Critical","In",45,"1535 PEARL ST
BOULDER, CO 803025408
(40.018885, -105.275207)"
"FA0000556","MOUNTAIN SUN PUB & BREWERY","1535 PEARL ST","1535",NULL,"PEARL","ST",NULL,"BOULDER","CO","803025408","RESTAURANT 0 TO 100 SEATS","FULL SERVICE FULL MENU","ROUTINE INSPECTION","2015-08-18","07A","Evidence of Insects or Rodents",0,"Critical","In",45,"1535 PEARL ST
BOULDER, CO 803025408
(40.018885, -105.275207)"
"FA0000556","MOUNTAIN SUN PUB & BREWERY","1535 PEARL ST","1535",NULL,"PEARL","ST",NULL,"BOULDER","CO","803025408","RESTAURANT 0 TO 100 SEATS","FULL SERVICE FULL MENU","ROUTINE INSPECTION","2017-03-27","07C","Animals Prohibited",0,"Critical","Not Observed",20,"1535 PEARL ST
BOULDER, CO 803025408
(40.018885, -105.275207)"
