"facilityid","facilityname","siteaddress","streetnumber","streetdirection","streetname","streettype","streetunit","city","state","zip","typeoffacility","categoryoffacility","inspectiontype","inspectiondate","violationcode","violation","violationpoints","violationtype","violationstatus","inspectionscore","location"
"FA0000092","RIFFS URBAN FARE","1115 PEARL ST","1115",NULL,"PEARL","ST",NULL,"BOULDER","CO","803025103","RESTAURANT 0 TO 100 SEATS","FULL SERVICE FULL MENU","FOLLOW-UP INSPECTION","2016-10-07","14H","Separation of Living Laundry",0,"Non-Critical","Not Observed",0,"1115 PEARL ST
BOULDER, CO 803025103
(40.01766, -105.281147)"
"FA0000092","RIFFS URBAN FARE","1115 PEARL ST","1115",NULL,"PEARL","ST",NULL,"BOULDER","CO","803025103","RESTAURANT 0 TO 100 SEATS","FULL SERVICE FULL MENU","FOLLOW-UP INSPECTION","2016-10-07","05A","Safe Water Source",0,"Critical","Not Observed",0,"1115 PEARL ST
BOULDER, CO 803025103
(40.01766, -105.281147)"
"FA0000092","RIFFS URBAN FARE","1115 PEARL ST","1115",NULL,"PEARL","ST",NULL,"BOULDER","CO","803025103","RESTAURANT 0 TO 100 SEATS","FULL SERVICE FULL MENU","ACTIVE MANAGEMENT CONTROL (AMC)","2016-09-06","AM18","Document Sanitizer Concentrations and Usage",10,"Non-Critical","In",35,"1115 PEARL ST
BOULDER, CO 803025103
(40.01766, -105.281147)"
"FA0000092","RIFFS URBAN FARE","1115 PEARL ST","1115",NULL,"PEARL","ST",NULL,"BOULDER","CO","803025103","RESTAURANT 0 TO 100 SEATS","FULL SERVICE FULL MENU","FOLLOW-UP INSPECTION","2016-10-07","01F","Consumer Advisory",0,"Critical","In",0,"1115 PEARL ST
BOULDER, CO 803025103
(40.01766, -105.281147)"
"FA0000092","RIFFS URBAN FARE","1115 PEARL ST","1115",NULL,"PEARL","ST",NULL,"BOULDER","CO","803025103","RESTAURANT 0 TO 100 SEATS","FULL SERVICE FULL MENU","ACTIVE MANAGEMENT CONTROL (AMC)","2016-09-06","AM5","Conduct Daily Food Safety Inspections",10,"Non-Critical","In",35,"1115 PEARL ST
BOULDER, CO 803025103
(40.01766, -105.281147)"
"FA0000092","RIFFS URBAN FARE","1115 PEARL ST","1115",NULL,"PEARL","ST",NULL,"BOULDER","CO","803025103","RESTAURANT 0 TO 100 SEATS","FULL SERVICE FULL MENU","FOLLOW-UP INSPECTION","2016-10-07","07C","Animals Prohibited",0,"Critical","Not Observed",0,"1115 PEARL ST
BOULDER, CO 803025103
(40.01766, -105.281147)"
"FA0000092","RIFFS URBAN FARE","1115 PEARL ST","1115",NULL,"PEARL","ST",NULL,"BOULDER","CO","803025103","RESTAURANT 0 TO 100 SEATS","FULL SERVICE FULL MENU","FOLLOW-UP INSPECTION","2016-10-07","01B","Wholesome Free of Spoilage",0,"Critical","Not Observed",0,"1115 PEARL ST
BOULDER, CO 803025103
(40.01766, -105.281147)"
"FA0000092","RIFFS URBAN FARE","1115 PEARL ST","1115",NULL,"PEARL","ST",NULL,"BOULDER","CO","803025103","RESTAURANT 0 TO 100 SEATS","FULL SERVICE FULL MENU","ACTIVE MANAGEMENT CONTROL (AMC)","2016-09-06","AM23","Thin Probe Available",5,"Non-Critical","Full",35,"1115 PEARL ST
BOULDER, CO 803025103
(40.01766, -105.281147)"
"FA0000092","RIFFS URBAN FARE","1115 PEARL ST","1115",NULL,"PEARL","ST",NULL,"BOULDER","CO","803025103","RESTAURANT 0 TO 100 SEATS","FULL SERVICE FULL MENU","FOLLOW-UP INSPECTION","2016-10-07","01A","Approved Source",0,"Critical","In",0,"1115 PEARL ST
BOULDER, CO 803025103
(40.01766, -105.281147)"
"FA0000092","RIFFS URBAN FARE","1115 PEARL ST","1115",NULL,"PEARL","ST",NULL,"BOULDER","CO","803025103","RESTAURANT 0 TO 100 SEATS","FULL SERVICE FULL MENU","FOLLOW-UP INSPECTION","2016-10-07","03B","Rapidly Reheat to 165 Degrees or Greater",0,"Critical","Not Observed",0,"1115 PEARL ST
BOULDER, CO 803025103
(40.01766, -105.281147)"
"FA0000092","RIFFS URBAN FARE","1115 PEARL ST","1115",NULL,"PEARL","ST",NULL,"BOULDER","CO","803025103","RESTAURANT 0 TO 100 SEATS","FULL SERVICE FULL MENU","FOLLOW-UP INSPECTION","2016-10-07","03E","Cold Hold at 41 Degrees or Less",0,"Critical","Not Observed",0,"1115 PEARL ST
BOULDER, CO 803025103
(40.01766, -105.281147)"
"FA0000092","RIFFS URBAN FARE","1115 PEARL ST","1115",NULL,"PEARL","ST",NULL,"BOULDER","CO","803025103","RESTAURANT 0 TO 100 SEATS","FULL SERVICE FULL MENU","FOLLOW-UP INSPECTION","2016-10-07","04B","Mechanical",0,"Critical","Not Observed",0,"1115 PEARL ST
BOULDER, CO 803025103
(40.01766, -105.281147)"
"FA0000092","RIFFS URBAN FARE","1115 PEARL ST","1115",NULL,"PEARL","ST",NULL,"BOULDER","CO","803025103","RESTAURANT 0 TO 100 SEATS","FULL SERVICE FULL MENU","ACTIVE MANAGEMENT CONTROL (AMC)","2016-09-06","AM10","Document Handwashing Glove Use",10,"Non-Critical","In",35,"1115 PEARL ST
BOULDER, CO 803025103
(40.01766, -105.281147)"
"FA0000092","RIFFS URBAN FARE","1115 PEARL ST","1115",NULL,"PEARL","ST",NULL,"BOULDER","CO","803025103","RESTAURANT 0 TO 100 SEATS","FULL SERVICE FULL MENU","ACTIVE MANAGEMENT CONTROL (AMC)","2016-09-06","AM7","Private Corporate Food Safety Inspections",10,"Non-Critical","In",35,"1115 PEARL ST
BOULDER, CO 803025103
(40.01766, -105.281147)"
"FA0000092","RIFFS URBAN FARE","1115 PEARL ST","1115",NULL,"PEARL","ST",NULL,"BOULDER","CO","803025103","RESTAURANT 0 TO 100 SEATS","FULL SERVICE FULL MENU","FOLLOW-UP INSPECTION","2016-10-07","12C","Dishwashing Operations",0,"Non-Critical","Not Observed",0,"1115 PEARL ST
BOULDER, CO 803025103
(40.01766, -105.281147)"
"FA0000092","RIFFS URBAN FARE","1115 PEARL ST","1115",NULL,"PEARL","ST",NULL,"BOULDER","CO","803025103","RESTAURANT 0 TO 100 SEATS","FULL SERVICE FULL MENU","ACTIVE MANAGEMENT CONTROL (AMC)","2016-09-06","AM26","Contracts for Preventative Maintenance Full For All 3 Half For 1 OR 2 NO For None",10,"Non-Critical","Full",35,"1115 PEARL ST
BOULDER, CO 803025103
(40.01766, -105.281147)"
"FA0000092","RIFFS URBAN FARE","1115 PEARL ST","1115",NULL,"PEARL","ST",NULL,"BOULDER","CO","803025103","RESTAURANT 0 TO 100 SEATS","FULL SERVICE FULL MENU","FOLLOW-UP INSPECTION","2016-10-07","13A","Equipment Utensils Provided Used, Stored",0,"Non-Critical","Not Observed",0,"1115 PEARL ST
BOULDER, CO 803025103
(40.01766, -105.281147)"
"FA0000092","RIFFS URBAN FARE","1115 PEARL ST","1115",NULL,"PEARL","ST",NULL,"BOULDER","CO","803025103","RESTAURANT 0 TO 100 SEATS","FULL SERVICE FULL MENU","FOLLOW-UP INSPECTION","2016-10-07","01D","HACCP Plan",0,"Critical","Not Observed",0,"1115 PEARL ST
BOULDER, CO 803025103
(40.01766, -105.281147)"
"FA0000092","RIFFS URBAN FARE","1115 PEARL ST","1115",NULL,"PEARL","ST",NULL,"BOULDER","CO","803025103","RESTAURANT 0 TO 100 SEATS","FULL SERVICE FULL MENU","FOLLOW-UP INSPECTION","2016-10-07","08C","Properly Used",0,"Critical","Not Observed",0,"1115 PEARL ST
BOULDER, CO 803025103
(40.01766, -105.281147)"
"FA0000092","RIFFS URBAN FARE","1115 PEARL ST","1115",NULL,"PEARL","ST",NULL,"BOULDER","CO","803025103","RESTAURANT 0 TO 100 SEATS","FULL SERVICE FULL MENU","ACTIVE MANAGEMENT CONTROL (AMC)","2016-09-06","AM24","Document Food Temperatures Frequently Cooling Initial Cook Receiving & Reheating",5,"Non-Critical","In",35,"1115 PEARL ST
BOULDER, CO 803025103
(40.01766, -105.281147)"
"FA0000092","RIFFS URBAN FARE","1115 PEARL ST","1115",NULL,"PEARL","ST",NULL,"BOULDER","CO","803025103","RESTAURANT 0 TO 100 SEATS","FULL SERVICE FULL MENU","FOLLOW-UP INSPECTION","2016-10-07","14F","Locker Rooms",0,"Non-Critical","Not Observed",0,"1115 PEARL ST
BOULDER, CO 803025103
(40.01766, -105.281147)"
"FA0000092","RIFFS URBAN FARE","1115 PEARL ST","1115",NULL,"PEARL","ST",NULL,"BOULDER","CO","803025103","RESTAURANT 0 TO 100 SEATS","FULL SERVICE FULL MENU","FOLLOW-UP INSPECTION","2016-10-07","06C","Soap and Drying Devices",0,"Critical","Not Observed",0,"1115 PEARL ST
BOULDER, CO 803025103
(40.01766, -105.281147)"
"FA0000092","RIFFS URBAN FARE","1115 PEARL ST","1115",NULL,"PEARL","ST",NULL,"BOULDER","CO","803025103","RESTAURANT 0 TO 100 SEATS","FULL SERVICE FULL MENU","FOLLOW-UP INSPECTION","2016-10-07","03D","Required Cooking Temperature",0,"Critical","Not Observed",0,"1115 PEARL ST
BOULDER, CO 803025103
(40.01766, -105.281147)"
"FA0000092","RIFFS URBAN FARE","1115 PEARL ST","1115",NULL,"PEARL","ST",NULL,"BOULDER","CO","803025103","RESTAURANT 0 TO 100 SEATS","FULL SERVICE FULL MENU","FOLLOW-UP INSPECTION","2016-10-07","14E","Ventilation",0,"Non-Critical","Not Observed",0,"1115 PEARL ST
BOULDER, CO 803025103
(40.01766, -105.281147)"
"FA0000092","RIFFS URBAN FARE","1115 PEARL ST","1115",NULL,"PEARL","ST",NULL,"BOULDER","CO","803025103","RESTAURANT 0 TO 100 SEATS","FULL SERVICE FULL MENU","FOLLOW-UP INSPECTION","2016-10-07","06B","Accessible",0,"Critical","Not Observed",0,"1115 PEARL ST
BOULDER, CO 803025103
(40.01766, -105.281147)"
"FA0000092","RIFFS URBAN FARE","1115 PEARL ST","1115",NULL,"PEARL","ST",NULL,"BOULDER","CO","803025103","RESTAURANT 0 TO 100 SEATS","FULL SERVICE FULL MENU","ACTIVE MANAGEMENT CONTROL (AMC)","2016-09-06","AM3","All Staff Receive Formal Food Safety Training",10,"Non-Critical","In",35,"1115 PEARL ST
BOULDER, CO 803025103
(40.01766, -105.281147)"
"FA0000092","RIFFS URBAN FARE","1115 PEARL ST","1115",NULL,"PEARL","ST",NULL,"BOULDER","CO","803025103","RESTAURANT 0 TO 100 SEATS","FULL SERVICE FULL MENU","FOLLOW-UP INSPECTION","2016-10-07","13B","Single Service Articles Stored Dispensed Used",0,"Non-Critical","Not Observed",0,"1115 PEARL ST
BOULDER, CO 803025103
(40.01766, -105.281147)"
"FA0000092","RIFFS URBAN FARE","1115 PEARL ST","1115",NULL,"PEARL","ST",NULL,"BOULDER","CO","803025103","RESTAURANT 0 TO 100 SEATS","FULL SERVICE FULL MENU","FOLLOW-UP INSPECTION","2016-10-07","02B","Wounds Properly Covered",0,"Critical","Not Observed",0,"1115 PEARL ST
BOULDER, CO 803025103
(40.01766, -105.281147)"
"FA0000092","RIFFS URBAN FARE","1115 PEARL ST","1115",NULL,"PEARL","ST",NULL,"BOULDER","CO","803025103","RESTAURANT 0 TO 100 SEATS","FULL SERVICE FULL MENU","FOLLOW-UP INSPECTION","2016-10-07","10A","Food-Contact Surfaces Construction",0,"Non-Critical","Not Observed",0,"1115 PEARL ST
BOULDER, CO 803025103
(40.01766, -105.281147)"
"FA0000092","RIFFS URBAN FARE","1115 PEARL ST","1115",NULL,"PEARL","ST",NULL,"BOULDER","CO","803025103","RESTAURANT 0 TO 100 SEATS","FULL SERVICE FULL MENU","FOLLOW-UP INSPECTION","2016-10-07","05D","Sewage Disposal",0,"Critical","Not Observed",0,"1115 PEARL ST
BOULDER, CO 803025103
(40.01766, -105.281147)"
"FA0000092","RIFFS URBAN FARE","1115 PEARL ST","1115",NULL,"PEARL","ST",NULL,"BOULDER","CO","803025103","RESTAURANT 0 TO 100 SEATS","FULL SERVICE FULL MENU","FOLLOW-UP INSPECTION","2016-10-07","10C","Dishwashing Facilities",0,"Non-Critical","Not Observed",0,"1115 PEARL ST
BOULDER, CO 803025103
(40.01766, -105.281147)"
"FA0000092","RIFFS URBAN FARE","1115 PEARL ST","1115",NULL,"PEARL","ST",NULL,"BOULDER","CO","803025103","RESTAURANT 0 TO 100 SEATS","FULL SERVICE FULL MENU","FOLLOW-UP INSPECTION","2016-10-07","15A","Personnel: Clean Clothes Hair Restraints Authorizat",0,"Non-Critical","Not Observed",0,"1115 PEARL ST
BOULDER, CO 803025103
(40.01766, -105.281147)"
"FA0000092","RIFFS URBAN FARE","1115 PEARL ST","1115",NULL,"PEARL","ST",NULL,"BOULDER","CO","803025103","RESTAURANT 0 TO 100 SEATS","FULL SERVICE FULL MENU","FOLLOW-UP INSPECTION","2016-10-07","06A","Adequate Number Location Design",0,"Critical","Not Observed",0,"1115 PEARL ST
BOULDER, CO 803025103
(40.01766, -105.281147)"
"FA0000092","RIFFS URBAN FARE","1115 PEARL ST","1115",NULL,"PEARL","ST",NULL,"BOULDER","CO","803025103","RESTAURANT 0 TO 100 SEATS","FULL SERVICE FULL MENU","ACTIVE MANAGEMENT CONTROL (AMC)","2016-09-06","AM21","Do Your Have a Thermocouple or Digital Thermometer",5,"Non-Critical","Full",35,"1115 PEARL ST
BOULDER, CO 803025103
(40.01766, -105.281147)"
"FA0000092","RIFFS URBAN FARE","1115 PEARL ST","1115",NULL,"PEARL","ST",NULL,"BOULDER","CO","803025103","RESTAURANT 0 TO 100 SEATS","FULL SERVICE FULL MENU","FOLLOW-UP INSPECTION","2016-10-07","09A","Original Container Properly Labeled",0,"Non-Critical","Not Observed",0,"1115 PEARL ST
BOULDER, CO 803025103
(40.01766, -105.281147)"
"FA0000092","RIFFS URBAN FARE","1115 PEARL ST","1115",NULL,"PEARL","ST",NULL,"BOULDER","CO","803025103","RESTAURANT 0 TO 100 SEATS","FULL SERVICE FULL MENU","FOLLOW-UP INSPECTION","2016-10-07","04A","Manual",0,"Critical","Not Observed",0,"1115 PEARL ST
BOULDER, CO 803025103
(40.01766, -105.281147)"
"FA0000092","RIFFS URBAN FARE","1115 PEARL ST","1115",NULL,"PEARL","ST",NULL,"BOULDER","CO","803025103","RESTAURANT 0 TO 100 SEATS","FULL SERVICE FULL MENU","ACTIVE MANAGEMENT CONTROL (AMC)","2016-09-06","AM22","Do You Have a Dial Thermometer",0,"Non-Critical","In",35,"1115 PEARL ST
BOULDER, CO 803025103
(40.01766, -105.281147)"
"FA0000092","RIFFS URBAN FARE","1115 PEARL ST","1115",NULL,"PEARL","ST",NULL,"BOULDER","CO","803025103","RESTAURANT 0 TO 100 SEATS","FULL SERVICE FULL MENU","FOLLOW-UP INSPECTION","2016-10-07","07B","Pesticide Application",0,"Critical","Not Observed",0,"1115 PEARL ST
BOULDER, CO 803025103
(40.01766, -105.281147)"
"FA0000092","RIFFS URBAN FARE","1115 PEARL ST","1115",NULL,"PEARL","ST",NULL,"BOULDER","CO","803025103","RESTAURANT 0 TO 100 SEATS","FULL SERVICE FULL MENU","ACTIVE MANAGEMENT CONTROL (AMC)","2016-09-06","AM1","Certified Food Safety Manager",10,"Non-Critical","Full",35,"1115 PEARL ST
BOULDER, CO 803025103
(40.01766, -105.281147)"
"FA0000092","RIFFS URBAN FARE","1115 PEARL ST","1115",NULL,"PEARL","ST",NULL,"BOULDER","CO","803025103","RESTAURANT 0 TO 100 SEATS","FULL SERVICE FULL MENU","FOLLOW-UP INSPECTION","2016-10-07","14C","Floors Walls Ceilings",0,"Non-Critical","Not Observed",0,"1115 PEARL ST
BOULDER, CO 803025103
(40.01766, -105.281147)"
"FA0000092","RIFFS URBAN FARE","1115 PEARL ST","1115",NULL,"PEARL","ST",NULL,"BOULDER","CO","803025103","RESTAURANT 0 TO 100 SEATS","FULL SERVICE FULL MENU","FOLLOW-UP INSPECTION","2016-10-07","01C","Cross Contamination",0,"Critical","Not Observed",0,"1115 PEARL ST
BOULDER, CO 803025103
(40.01766, -105.281147)"
"FA0000092","RIFFS URBAN FARE","1115 PEARL ST","1115",NULL,"PEARL","ST",NULL,"BOULDER","CO","803025103","RESTAURANT 0 TO 100 SEATS","FULL SERVICE FULL MENU","FOLLOW-UP INSPECTION","2016-10-07","03A","Cooling Methods",0,"Critical","Not Observed",0,"1115 PEARL ST
BOULDER, CO 803025103
(40.01766, -105.281147)"
"FA0000092","RIFFS URBAN FARE","1115 PEARL ST","1115",NULL,"PEARL","ST",NULL,"BOULDER","CO","803025103","RESTAURANT 0 TO 100 SEATS","FULL SERVICE FULL MENU","FOLLOW-UP INSPECTION","2016-10-07","04C","In Place",0,"Critical","Not Observed",0,"1115 PEARL ST
BOULDER, CO 803025103
(40.01766, -105.281147)"
"FA0000092","RIFFS URBAN FARE","1115 PEARL ST","1115",NULL,"PEARL","ST",NULL,"BOULDER","CO","803025103","RESTAURANT 0 TO 100 SEATS","FULL SERVICE FULL MENU","FOLLOW-UP INSPECTION","2016-10-07","02A","Personnel With Infections Restricted",0,"Critical","Not Observed",0,"1115 PEARL ST
BOULDER, CO 803025103
(40.01766, -105.281147)"
"FA0000092","RIFFS URBAN FARE","1115 PEARL ST","1115",NULL,"PEARL","ST",NULL,"BOULDER","CO","803025103","RESTAURANT 0 TO 100 SEATS","FULL SERVICE FULL MENU","FOLLOW-UP INSPECTION","2016-10-07","12B","Non-Food Contact Surfaces Cleaning",0,"Non-Critical","Not Observed",0,"1115 PEARL ST
BOULDER, CO 803025103
(40.01766, -105.281147)"
"FA0000092","RIFFS URBAN FARE","1115 PEARL ST","1115",NULL,"PEARL","ST",NULL,"BOULDER","CO","803025103","RESTAURANT 0 TO 100 SEATS","FULL SERVICE FULL MENU","FOLLOW-UP INSPECTION","2016-10-07","03C","Hot Hold at 135 Degrees Farenheit or Greater",0,"Critical","Not Observed",0,"1115 PEARL ST
BOULDER, CO 803025103
(40.01766, -105.281147)"
"FA0000092","RIFFS URBAN FARE","1115 PEARL ST","1115",NULL,"PEARL","ST",NULL,"BOULDER","CO","803025103","RESTAURANT 0 TO 100 SEATS","FULL SERVICE FULL MENU","FOLLOW-UP INSPECTION","2016-10-07","02D","Hygienic Practices",0,"Critical","Not Observed",0,"1115 PEARL ST
BOULDER, CO 803025103
(40.01766, -105.281147)"
"FA0000092","RIFFS URBAN FARE","1115 PEARL ST","1115",NULL,"PEARL","ST",NULL,"BOULDER","CO","803025103","RESTAURANT 0 TO 100 SEATS","FULL SERVICE FULL MENU","FOLLOW-UP INSPECTION","2016-10-07","13C","No Reuse of Single Service Articles",0,"Non-Critical","Not Observed",0,"1115 PEARL ST
BOULDER, CO 803025103
(40.01766, -105.281147)"
"FA0000092","RIFFS URBAN FARE","1115 PEARL ST","1115",NULL,"PEARL","ST",NULL,"BOULDER","CO","803025103","RESTAURANT 0 TO 100 SEATS","FULL SERVICE FULL MENU","FOLLOW-UP INSPECTION","2016-10-07","05C","Backflow Back Siphonage",0,"Critical","Not Observed",0,"1115 PEARL ST
BOULDER, CO 803025103
(40.01766, -105.281147)"
"FA0000092","RIFFS URBAN FARE","1115 PEARL ST","1115",NULL,"PEARL","ST",NULL,"BOULDER","CO","803025103","RESTAURANT 0 TO 100 SEATS","FULL SERVICE FULL MENU","FOLLOW-UP INSPECTION","2016-10-07","07A","Evidence of Insects or Rodents",0,"Critical","Not Observed",0,"1115 PEARL ST
BOULDER, CO 803025103
(40.01766, -105.281147)"
"FA0000092","RIFFS URBAN FARE","1115 PEARL ST","1115",NULL,"PEARL","ST",NULL,"BOULDER","CO","803025103","RESTAURANT 0 TO 100 SEATS","FULL SERVICE FULL MENU","FOLLOW-UP INSPECTION","2016-10-07","02G","No Bare Hand Contact",0,"Critical","Not Observed",0,"1115 PEARL ST
BOULDER, CO 803025103
(40.01766, -105.281147)"
"FA0000092","RIFFS URBAN FARE","1115 PEARL ST","1115",NULL,"PEARL","ST",NULL,"BOULDER","CO","803025103","RESTAURANT 0 TO 100 SEATS","FULL SERVICE FULL MENU","FOLLOW-UP INSPECTION","2016-10-07","14D","Lighting",0,"Non-Critical","Not Observed",0,"1115 PEARL ST
BOULDER, CO 803025103
(40.01766, -105.281147)"
"FA0000092","RIFFS URBAN FARE","1115 PEARL ST","1115",NULL,"PEARL","ST",NULL,"BOULDER","CO","803025103","RESTAURANT 0 TO 100 SEATS","FULL SERVICE FULL MENU","FOLLOW-UP INSPECTION","2016-10-07","02E","Smoking Eating Drinking",0,"Critical","Not Observed",0,"1115 PEARL ST
BOULDER, CO 803025103
(40.01766, -105.281147)"
"FA0000092","RIFFS URBAN FARE","1115 PEARL ST","1115",NULL,"PEARL","ST",NULL,"BOULDER","CO","803025103","RESTAURANT 0 TO 100 SEATS","FULL SERVICE FULL MENU","FOLLOW-UP INSPECTION","2016-10-07","12D","Wiping Cloths",0,"Non-Critical","Not Observed",0,"1115 PEARL ST
BOULDER, CO 803025103
(40.01766, -105.281147)"
"FA0000092","RIFFS URBAN FARE","1115 PEARL ST","1115",NULL,"PEARL","ST",NULL,"BOULDER","CO","803025103","RESTAURANT 0 TO 100 SEATS","FULL SERVICE FULL MENU","ACTIVE MANAGEMENT CONTROL (AMC)","2016-09-06","AM19","Written Employee Illness Policy",5,"Non-Critical","Full",35,"1115 PEARL ST
BOULDER, CO 803025103
(40.01766, -105.281147)"
"FA0000092","RIFFS URBAN FARE","1115 PEARL ST","1115",NULL,"PEARL","ST",NULL,"BOULDER","CO","803025103","RESTAURANT 0 TO 100 SEATS","FULL SERVICE FULL MENU","FOLLOW-UP INSPECTION","2016-10-07","14G","Premises Maintained",0,"Non-Critical","Not Observed",0,"1115 PEARL ST
BOULDER, CO 803025103
(40.01766, -105.281147)"
"FA0000092","RIFFS URBAN FARE","1115 PEARL ST","1115",NULL,"PEARL","ST",NULL,"BOULDER","CO","803025103","RESTAURANT 0 TO 100 SEATS","FULL SERVICE FULL MENU","FOLLOW-UP INSPECTION","2016-10-07","10B","Non-Food Contact Surfaces Construction",0,"Non-Critical","Not Observed",0,"1115 PEARL ST
BOULDER, CO 803025103
(40.01766, -105.281147)"
"FA0000092","RIFFS URBAN FARE","1115 PEARL ST","1115",NULL,"PEARL","ST",NULL,"BOULDER","CO","803025103","RESTAURANT 0 TO 100 SEATS","FULL SERVICE FULL MENU","ACTIVE MANAGEMENT CONTROL (AMC)","2016-09-06","AM20","Paid Sick Leave",5,"Non-Critical","In",35,"1115 PEARL ST
BOULDER, CO 803025103
(40.01766, -105.281147)"
"FA0000092","RIFFS URBAN FARE","1115 PEARL ST","1115",NULL,"PEARL","ST",NULL,"BOULDER","CO","803025103","RESTAURANT 0 TO 100 SEATS","FULL SERVICE FULL MENU","FOLLOW-UP INSPECTION","2016-10-07","11C","Chemical Test Kits Provided Accessible",0,"Non-Critical","Not Observed",0,"1115 PEARL ST
BOULDER, CO 803025103
(40.01766, -105.281147)"
"FA0000092","RIFFS URBAN FARE","1115 PEARL ST","1115",NULL,"PEARL","ST",NULL,"BOULDER","CO","803025103","RESTAURANT 0 TO 100 SEATS","FULL SERVICE FULL MENU","FOLLOW-UP INSPECTION","2016-10-07","11B","Dishmachine With Accurate Thermometer & Gauge Cock",0,"Non-Critical","Not Observed",0,"1115 PEARL ST
BOULDER, CO 803025103
(40.01766, -105.281147)"
"FA0000092","RIFFS URBAN FARE","1115 PEARL ST","1115",NULL,"PEARL","ST",NULL,"BOULDER","CO","803025103","RESTAURANT 0 TO 100 SEATS","FULL SERVICE FULL MENU","FOLLOW-UP INSPECTION","2016-10-07","02C","Hands Washed As Needed",0,"Critical","Not Observed",0,"1115 PEARL ST
BOULDER, CO 803025103
(40.01766, -105.281147)"
"FA0000092","RIFFS URBAN FARE","1115 PEARL ST","1115",NULL,"PEARL","ST",NULL,"BOULDER","CO","803025103","RESTAURANT 0 TO 100 SEATS","FULL SERVICE FULL MENU","FOLLOW-UP INSPECTION","2016-10-07","05B","Hot and Cold Water Under Pressure",0,"Critical","Not Observed",0,"1115 PEARL ST
BOULDER, CO 803025103
(40.01766, -105.281147)"
"FA0000092","RIFFS URBAN FARE","1115 PEARL ST","1115",NULL,"PEARL","ST",NULL,"BOULDER","CO","803025103","RESTAURANT 0 TO 100 SEATS","FULL SERVICE FULL MENU","ACTIVE MANAGEMENT CONTROL (AMC)","2016-09-06","AM25","Document Thermometer Calibration",5,"Non-Critical","In",35,"1115 PEARL ST
BOULDER, CO 803025103
(40.01766, -105.281147)"
"FA0000092","RIFFS URBAN FARE","1115 PEARL ST","1115",NULL,"PEARL","ST",NULL,"BOULDER","CO","803025103","RESTAURANT 0 TO 100 SEATS","FULL SERVICE FULL MENU","FOLLOW-UP INSPECTION","2016-10-07","14B","Garbage and Refuse",0,"Non-Critical","Not Observed",0,"1115 PEARL ST
BOULDER, CO 803025103
(40.01766, -105.281147)"
"FA0000092","RIFFS URBAN FARE","1115 PEARL ST","1115",NULL,"PEARL","ST",NULL,"BOULDER","CO","803025103","RESTAURANT 0 TO 100 SEATS","FULL SERVICE FULL MENU","ROUTINE INSPECTION","2016-09-06","04C","In Place",0,"Critical","Not Observed",25,"1115 PEARL ST
BOULDER, CO 803025103
(40.017703, -105.28095)"
"FA0000092","RIFFS URBAN FARE","1115 PEARL ST","1115",NULL,"PEARL","ST",NULL,"BOULDER","CO","803025103","RESTAURANT 0 TO 100 SEATS","FULL SERVICE FULL MENU","ROUTINE INSPECTION","2016-09-06","05B","Hot and Cold Water Under Pressure",0,"Critical","In",25,"1115 PEARL ST
BOULDER, CO 803025103
(40.017703, -105.28095)"
"FA0000092","RIFFS URBAN FARE","1115 PEARL ST","1115",NULL,"PEARL","ST",NULL,"BOULDER","CO","803025103","RESTAURANT 0 TO 100 SEATS","FULL SERVICE FULL MENU","ROUTINE INSPECTION","2016-09-06","11C","Chemical Test Kits Provided Accessible",0,"Non-Critical","Not Observed",25,"1115 PEARL ST
BOULDER, CO 803025103
(40.017703, -105.28095)"
"FA0000092","RIFFS URBAN FARE","1115 PEARL ST","1115",NULL,"PEARL","ST",NULL,"BOULDER","CO","803025103","RESTAURANT 0 TO 100 SEATS","FULL SERVICE FULL MENU","FOLLOW-UP INSPECTION","2016-10-07","08A","Properly Stored",0,"Critical","Not Observed",0,"1115 PEARL ST
BOULDER, CO 803025103
(40.01766, -105.281147)"
"FA0000092","RIFFS URBAN FARE","1115 PEARL ST","1115",NULL,"PEARL","ST",NULL,"BOULDER","CO","803025103","RESTAURANT 0 TO 100 SEATS","FULL SERVICE FULL MENU","FOLLOW-UP INSPECTION","2016-10-07","08B","Properly Labeled",0,"Critical","In",0,"1115 PEARL ST
BOULDER, CO 803025103
(40.01766, -105.281147)"
"FA0000092","RIFFS URBAN FARE","1115 PEARL ST","1115",NULL,"PEARL","ST",NULL,"BOULDER","CO","803025103","RESTAURANT 0 TO 100 SEATS","FULL SERVICE FULL MENU","FOLLOW-UP INSPECTION","2016-10-07","14I","Physical Facilities Adequate Toilet Facilities",0,"Non-Critical","Not Observed",0,"1115 PEARL ST
BOULDER, CO 803025103
(40.01766, -105.281147)"
"FA0000092","RIFFS URBAN FARE","1115 PEARL ST","1115",NULL,"PEARL","ST",NULL,"BOULDER","CO","803025103","RESTAURANT 0 TO 100 SEATS","FULL SERVICE FULL MENU","FOLLOW-UP INSPECTION","2016-10-07","02F","Training Needed",0,"Critical","Not Observed",0,"1115 PEARL ST
BOULDER, CO 803025103
(40.01766, -105.281147)"
"FA0000092","RIFFS URBAN FARE","1115 PEARL ST","1115",NULL,"PEARL","ST",NULL,"BOULDER","CO","803025103","RESTAURANT 0 TO 100 SEATS","FULL SERVICE FULL MENU","FOLLOW-UP INSPECTION","2016-10-07","03G","Adequate Equipment to Maintain Food Temperatures",0,"Critical","Not Observed",0,"1115 PEARL ST
BOULDER, CO 803025103
(40.01766, -105.281147)"
"FA0000092","RIFFS URBAN FARE","1115 PEARL ST","1115",NULL,"PEARL","ST",NULL,"BOULDER","CO","803025103","RESTAURANT 0 TO 100 SEATS","FULL SERVICE FULL MENU","FOLLOW-UP INSPECTION","2016-10-07","15B","Linen Properly Stored",0,"Non-Critical","Not Observed",0,"1115 PEARL ST
BOULDER, CO 803025103
(40.01766, -105.281147)"
"FA0000092","RIFFS URBAN FARE","1115 PEARL ST","1115",NULL,"PEARL","ST",NULL,"BOULDER","CO","803025103","RESTAURANT 0 TO 100 SEATS","FULL SERVICE FULL MENU","FOLLOW-UP INSPECTION","2016-10-07","14A","Plumbing Installed Maintained",0,"Non-Critical","Not Observed",0,"1115 PEARL ST
BOULDER, CO 803025103
(40.01766, -105.281147)"
"FA0000092","RIFFS URBAN FARE","1115 PEARL ST","1115",NULL,"PEARL","ST",NULL,"BOULDER","CO","803025103","RESTAURANT 0 TO 100 SEATS","FULL SERVICE FULL MENU","FOLLOW-UP INSPECTION","2016-10-07","12A","Food Contact Surfaces Cleaning",0,"Non-Critical","Not Observed",0,"1115 PEARL ST
BOULDER, CO 803025103
(40.01766, -105.281147)"
"FA0000092","RIFFS URBAN FARE","1115 PEARL ST","1115",NULL,"PEARL","ST",NULL,"BOULDER","CO","803025103","RESTAURANT 0 TO 100 SEATS","FULL SERVICE FULL MENU","FOLLOW-UP INSPECTION","2016-10-07","09B","Food Protected from Contamination",0,"Non-Critical","Not Observed",0,"1115 PEARL ST
BOULDER, CO 803025103
(40.01766, -105.281147)"
"FA0000092","RIFFS URBAN FARE","1115 PEARL ST","1115",NULL,"PEARL","ST",NULL,"BOULDER","CO","803025103","RESTAURANT 0 TO 100 SEATS","FULL SERVICE FULL MENU","FOLLOW-UP INSPECTION","2016-10-07","11A","Refrigeration Units With Accurate Thermometers",0,"Non-Critical","Not Observed",0,"1115 PEARL ST
BOULDER, CO 803025103
(40.01766, -105.281147)"
"FA0000092","RIFFS URBAN FARE","1115 PEARL ST","1115",NULL,"PEARL","ST",NULL,"BOULDER","CO","803025103","RESTAURANT 0 TO 100 SEATS","FULL SERVICE FULL MENU","FOLLOW-UP INSPECTION","2016-10-07","01E","Date Marking",0,"Critical","Not Observed",0,"1115 PEARL ST
BOULDER, CO 803025103
(40.01766, -105.281147)"
"FA0000092","RIFFS URBAN FARE","1115 PEARL ST","1115",NULL,"PEARL","ST",NULL,"BOULDER","CO","803025103","RESTAURANT 0 TO 100 SEATS","FULL SERVICE FULL MENU","FOLLOW-UP INSPECTION","2016-10-07","03F","Food Thermometer",0,"Critical","Not Observed",0,"1115 PEARL ST
BOULDER, CO 803025103
(40.01766, -105.281147)"
"FA0000092","RIFFS URBAN FARE","1115 PEARL ST","1115",NULL,"PEARL","ST",NULL,"BOULDER","CO","803025103","RESTAURANT 0 TO 100 SEATS","FULL SERVICE FULL MENU","ROUTINE INSPECTION","2018-10-09","13B","Single Service Articles Stored Dispensed Used",0,"Non-Critical","Not Observed",30,"1115 PEARL ST
BOULDER, CO 803025103
(40.017703, -105.28095)"
"FA0000092","RIFFS URBAN FARE","1115 PEARL ST","1115",NULL,"PEARL","ST",NULL,"BOULDER","CO","803025103","RESTAURANT 0 TO 100 SEATS","FULL SERVICE FULL MENU","ROUTINE INSPECTION","2018-10-09","14E","Ventilation",0,"Non-Critical","Not Observed",30,"1115 PEARL ST
BOULDER, CO 803025103
(40.017703, -105.28095)"
"FA0000092","RIFFS URBAN FARE","1115 PEARL ST","1115",NULL,"PEARL","ST",NULL,"BOULDER","CO","803025103","RESTAURANT 0 TO 100 SEATS","FULL SERVICE FULL MENU","ROUTINE INSPECTION","2014-04-04","02B","Wounds Properly Covered",0,"Critical","In",45,"1115 PEARL ST
BOULDER, CO 803025103
(40.017703, -105.28095)"
"FA0000092","RIFFS URBAN FARE","1115 PEARL ST","1115",NULL,"PEARL","ST",NULL,"BOULDER","CO","803025103","RESTAURANT 0 TO 100 SEATS","FULL SERVICE FULL MENU","ROUTINE INSPECTION","2016-09-06","14D","Lighting",0,"Non-Critical","Not Observed",25,"1115 PEARL ST
BOULDER, CO 803025103
(40.017703, -105.28095)"
"FA0000092","RIFFS URBAN FARE","1115 PEARL ST","1115",NULL,"PEARL","ST",NULL,"BOULDER","CO","803025103","RESTAURANT 0 TO 100 SEATS","FULL SERVICE FULL MENU","ROUTINE INSPECTION","2016-09-06","02F","Training Needed",0,"Critical","In",25,"1115 PEARL ST
BOULDER, CO 803025103
(40.017703, -105.28095)"
"FA0000092","RIFFS URBAN FARE","1115 PEARL ST","1115",NULL,"PEARL","ST",NULL,"BOULDER","CO","803025103","RESTAURANT 0 TO 100 SEATS","FULL SERVICE FULL MENU","ROUTINE INSPECTION","2014-04-04","02C","Hands Washed As Needed",0,"Critical","In",45,"1115 PEARL ST
BOULDER, CO 803025103
(40.017703, -105.28095)"
"FA0000092","RIFFS URBAN FARE","1115 PEARL ST","1115",NULL,"PEARL","ST",NULL,"BOULDER","CO","803025103","RESTAURANT 0 TO 100 SEATS","FULL SERVICE FULL MENU","ROUTINE INSPECTION","2014-04-04","12C","Dishwashing Operations",0,"Non-Critical","Not Observed",45,"1115 PEARL ST
BOULDER, CO 803025103
(40.017703, -105.28095)"
"FA0000092","RIFFS URBAN FARE","1115 PEARL ST","1115",NULL,"PEARL","ST",NULL,"BOULDER","CO","803025103","RESTAURANT 0 TO 100 SEATS","FULL SERVICE FULL MENU","ROUTINE INSPECTION","2018-10-09","02G","No Bare Hand Contact",0,"Critical","In",30,"1115 PEARL ST
BOULDER, CO 803025103
(40.017703, -105.28095)"
"FA0000092","RIFFS URBAN FARE","1115 PEARL ST","1115",NULL,"PEARL","ST",NULL,"BOULDER","CO","803025103","RESTAURANT 0 TO 100 SEATS","FULL SERVICE FULL MENU","ROUTINE INSPECTION","2016-09-06","02D","Hygienic Practices",0,"Critical","In",25,"1115 PEARL ST
BOULDER, CO 803025103
(40.017703, -105.28095)"
"FA0000092","RIFFS URBAN FARE","1115 PEARL ST","1115",NULL,"PEARL","ST",NULL,"BOULDER","CO","803025103","RESTAURANT 0 TO 100 SEATS","FULL SERVICE FULL MENU","ROUTINE INSPECTION","2016-09-06","10A","Food-Contact Surfaces Construction",0,"Non-Critical","Not Observed",25,"1115 PEARL ST
BOULDER, CO 803025103
(40.017703, -105.28095)"
"FA0000092","RIFFS URBAN FARE","1115 PEARL ST","1115",NULL,"PEARL","ST",NULL,"BOULDER","CO","803025103","RESTAURANT 0 TO 100 SEATS","FULL SERVICE FULL MENU","ROUTINE INSPECTION","2016-09-06","15B","Linen Properly Stored",0,"Non-Critical","Not Observed",25,"1115 PEARL ST
BOULDER, CO 803025103
(40.017703, -105.28095)"
"FA0000092","RIFFS URBAN FARE","1115 PEARL ST","1115",NULL,"PEARL","ST",NULL,"BOULDER","CO","803025103","RESTAURANT 0 TO 100 SEATS","FULL SERVICE FULL MENU","ROUTINE INSPECTION","2018-10-09","01E","Date Marking",0,"Critical","Not Applicable",30,"1115 PEARL ST
BOULDER, CO 803025103
(40.017703, -105.28095)"
"FA0000092","RIFFS URBAN FARE","1115 PEARL ST","1115",NULL,"PEARL","ST",NULL,"BOULDER","CO","803025103","RESTAURANT 0 TO 100 SEATS","FULL SERVICE FULL MENU","ROUTINE INSPECTION","2016-09-06","14B","Garbage and Refuse",0,"Non-Critical","Not Observed",25,"1115 PEARL ST
BOULDER, CO 803025103
(40.017703, -105.28095)"
"FA0000092","RIFFS URBAN FARE","1115 PEARL ST","1115",NULL,"PEARL","ST",NULL,"BOULDER","CO","803025103","RESTAURANT 0 TO 100 SEATS","FULL SERVICE FULL MENU","ROUTINE INSPECTION","2014-04-04","02F","Training Needed",0,"Critical","In",45,"1115 PEARL ST
BOULDER, CO 803025103
(40.017703, -105.28095)"
"FA0000092","RIFFS URBAN FARE","1115 PEARL ST","1115",NULL,"PEARL","ST",NULL,"BOULDER","CO","803025103","RESTAURANT 0 TO 100 SEATS","FULL SERVICE FULL MENU","ROUTINE INSPECTION","2014-04-04","14A","Plumbing Installed Maintained",0,"Non-Critical","Not Observed",45,"1115 PEARL ST
BOULDER, CO 803025103
(40.017703, -105.28095)"
"FA0000092","RIFFS URBAN FARE","1115 PEARL ST","1115",NULL,"PEARL","ST",NULL,"BOULDER","CO","803025103","RESTAURANT 0 TO 100 SEATS","FULL SERVICE FULL MENU","ROUTINE INSPECTION","2016-09-06","03G","Adequate Equipment to Maintain Food Temperatures",0,"Critical","In",25,"1115 PEARL ST
BOULDER, CO 803025103
(40.017703, -105.28095)"
"FA0000092","RIFFS URBAN FARE","1115 PEARL ST","1115",NULL,"PEARL","ST",NULL,"BOULDER","CO","803025103","RESTAURANT 0 TO 100 SEATS","FULL SERVICE FULL MENU","ROUTINE INSPECTION","2016-09-06","09B","Food Protected from Contamination",0,"Non-Critical","Not Observed",25,"1115 PEARL ST
BOULDER, CO 803025103
(40.017703, -105.28095)"
"FA0000092","RIFFS URBAN FARE","1115 PEARL ST","1115",NULL,"PEARL","ST",NULL,"BOULDER","CO","803025103","RESTAURANT 0 TO 100 SEATS","FULL SERVICE FULL MENU","ROUTINE INSPECTION","2018-10-09","03F","Food Thermometer",0,"Critical","In",30,"1115 PEARL ST
BOULDER, CO 803025103
(40.017703, -105.28095)"
"FA0000092","RIFFS URBAN FARE","1115 PEARL ST","1115",NULL,"PEARL","ST",NULL,"BOULDER","CO","803025103","RESTAURANT 0 TO 100 SEATS","FULL SERVICE FULL MENU","ROUTINE INSPECTION","2016-09-06","07A","Evidence of Insects or Rodents",0,"Critical","In",25,"1115 PEARL ST
BOULDER, CO 803025103
(40.017703, -105.28095)"
"FA0000092","RIFFS URBAN FARE","1115 PEARL ST","1115",NULL,"PEARL","ST",NULL,"BOULDER","CO","803025103","RESTAURANT 0 TO 100 SEATS","FULL SERVICE FULL MENU","ROUTINE INSPECTION","2014-04-04","14G","Premises Maintained",0,"Non-Critical","Not Observed",45,"1115 PEARL ST
BOULDER, CO 803025103
(40.017703, -105.28095)"
"FA0000092","RIFFS URBAN FARE","1115 PEARL ST","1115",NULL,"PEARL","ST",NULL,"BOULDER","CO","803025103","RESTAURANT 0 TO 100 SEATS","FULL SERVICE FULL MENU","ROUTINE INSPECTION","2014-04-04","08A","Properly Stored",0,"Critical","In",45,"1115 PEARL ST
BOULDER, CO 803025103
(40.017703, -105.28095)"
"FA0000092","RIFFS URBAN FARE","1115 PEARL ST","1115",NULL,"PEARL","ST",NULL,"BOULDER","CO","803025103","RESTAURANT 0 TO 100 SEATS","FULL SERVICE FULL MENU","ROUTINE INSPECTION","2018-10-09","15B","Linen Properly Stored",0,"Non-Critical","Not Observed",30,"1115 PEARL ST
BOULDER, CO 803025103
(40.017703, -105.28095)"
"FA0000092","RIFFS URBAN FARE","1115 PEARL ST","1115",NULL,"PEARL","ST",NULL,"BOULDER","CO","803025103","RESTAURANT 0 TO 100 SEATS","FULL SERVICE FULL MENU","ROUTINE INSPECTION","2014-04-04","02A","Personnel With Infections Restricted",0,"Critical","Not Observed",45,"1115 PEARL ST
BOULDER, CO 803025103
(40.017703, -105.28095)"
"FA0000092","RIFFS URBAN FARE","1115 PEARL ST","1115",NULL,"PEARL","ST",NULL,"BOULDER","CO","803025103","RESTAURANT 0 TO 100 SEATS","FULL SERVICE FULL MENU","ROUTINE INSPECTION","2016-09-06","01B","Wholesome Free of Spoilage",0,"Critical","In",25,"1115 PEARL ST
BOULDER, CO 803025103
(40.017703, -105.28095)"
"FA0000092","RIFFS URBAN FARE","1115 PEARL ST","1115",NULL,"PEARL","ST",NULL,"BOULDER","CO","803025103","RESTAURANT 0 TO 100 SEATS","FULL SERVICE FULL MENU","ROUTINE INSPECTION","2014-04-04","15B","Linen Properly Stored",0,"Non-Critical","Not Observed",45,"1115 PEARL ST
BOULDER, CO 803025103
(40.017703, -105.28095)"
"FA0000092","RIFFS URBAN FARE","1115 PEARL ST","1115",NULL,"PEARL","ST",NULL,"BOULDER","CO","803025103","RESTAURANT 0 TO 100 SEATS","FULL SERVICE FULL MENU","ROUTINE INSPECTION","2018-10-09","07B","Pesticide Application",0,"Critical","In",30,"1115 PEARL ST
BOULDER, CO 803025103
(40.017703, -105.28095)"
"FA0000092","RIFFS URBAN FARE","1115 PEARL ST","1115",NULL,"PEARL","ST",NULL,"BOULDER","CO","803025103","RESTAURANT 0 TO 100 SEATS","FULL SERVICE FULL MENU","ROUTINE INSPECTION","2016-09-06","11A","Refrigeration Units With Accurate Thermometers",0,"Non-Critical","Not Observed",25,"1115 PEARL ST
BOULDER, CO 803025103
(40.017703, -105.28095)"
"FA0000092","RIFFS URBAN FARE","1115 PEARL ST","1115",NULL,"PEARL","ST",NULL,"BOULDER","CO","803025103","RESTAURANT 0 TO 100 SEATS","FULL SERVICE FULL MENU","ROUTINE INSPECTION","2018-10-09","05D","Sewage Disposal",0,"Critical","In",30,"1115 PEARL ST
BOULDER, CO 803025103
(40.017703, -105.28095)"
"FA0000092","RIFFS URBAN FARE","1115 PEARL ST","1115",NULL,"PEARL","ST",NULL,"BOULDER","CO","803025103","RESTAURANT 0 TO 100 SEATS","FULL SERVICE FULL MENU","ROUTINE INSPECTION","2016-09-06","08B","Properly Labeled",5,"Critical","Out",25,"1115 PEARL ST
BOULDER, CO 803025103
(40.017703, -105.28095)"
"FA0000092","RIFFS URBAN FARE","1115 PEARL ST","1115",NULL,"PEARL","ST",NULL,"BOULDER","CO","803025103","RESTAURANT 0 TO 100 SEATS","FULL SERVICE FULL MENU","ROUTINE INSPECTION","2018-10-09","12A","Food Contact Surfaces Cleaning",0,"Non-Critical","Not Observed",30,"1115 PEARL ST
BOULDER, CO 803025103
(40.017703, -105.28095)"
"FA0000092","RIFFS URBAN FARE","1115 PEARL ST","1115",NULL,"PEARL","ST",NULL,"BOULDER","CO","803025103","RESTAURANT 0 TO 100 SEATS","FULL SERVICE FULL MENU","ROUTINE INSPECTION","2018-10-09","03A","Cooling Methods",0,"Critical","In",30,"1115 PEARL ST
BOULDER, CO 803025103
(40.017703, -105.28095)"
"FA0000092","RIFFS URBAN FARE","1115 PEARL ST","1115",NULL,"PEARL","ST",NULL,"BOULDER","CO","803025103","RESTAURANT 0 TO 100 SEATS","FULL SERVICE FULL MENU","ROUTINE INSPECTION","2016-09-06","03C","Hot Hold at 135 Degrees Farenheit or Greater",0,"Critical","Not Observed",25,"1115 PEARL ST
BOULDER, CO 803025103
(40.017703, -105.28095)"
"FA0000092","RIFFS URBAN FARE","1115 PEARL ST","1115",NULL,"PEARL","ST",NULL,"BOULDER","CO","803025103","RESTAURANT 0 TO 100 SEATS","FULL SERVICE FULL MENU","ROUTINE INSPECTION","2014-04-04","14B","Garbage and Refuse",0,"Non-Critical","Not Observed",45,"1115 PEARL ST
BOULDER, CO 803025103
(40.017703, -105.28095)"
"FA0000092","RIFFS URBAN FARE","1115 PEARL ST","1115",NULL,"PEARL","ST",NULL,"BOULDER","CO","803025103","RESTAURANT 0 TO 100 SEATS","FULL SERVICE FULL MENU","ROUTINE INSPECTION","2014-04-04","01D","HACCP Plan",0,"Critical","Not Applicable",45,"1115 PEARL ST
BOULDER, CO 803025103
(40.017703, -105.28095)"
"FA0000092","RIFFS URBAN FARE","1115 PEARL ST","1115",NULL,"PEARL","ST",NULL,"BOULDER","CO","803025103","RESTAURANT 0 TO 100 SEATS","FULL SERVICE FULL MENU","ROUTINE INSPECTION","2014-04-04","03A","Cooling Methods",0,"Critical","Not Observed",45,"1115 PEARL ST
BOULDER, CO 803025103
(40.017703, -105.28095)"
"FA0000092","RIFFS URBAN FARE","1115 PEARL ST","1115",NULL,"PEARL","ST",NULL,"BOULDER","CO","803025103","RESTAURANT 0 TO 100 SEATS","FULL SERVICE FULL MENU","ROUTINE INSPECTION","2018-10-09","11A","Refrigeration Units With Accurate Thermometers",0,"Non-Critical","Not Observed",30,"1115 PEARL ST
BOULDER, CO 803025103
(40.017703, -105.28095)"
"FA0000092","RIFFS URBAN FARE","1115 PEARL ST","1115",NULL,"PEARL","ST",NULL,"BOULDER","CO","803025103","RESTAURANT 0 TO 100 SEATS","FULL SERVICE FULL MENU","ROUTINE INSPECTION","2016-09-06","12B","Non-Food Contact Surfaces Cleaning",0,"Non-Critical","Not Observed",25,"1115 PEARL ST
BOULDER, CO 803025103
(40.017703, -105.28095)"
"FA0000092","RIFFS URBAN FARE","1115 PEARL ST","1115",NULL,"PEARL","ST",NULL,"BOULDER","CO","803025103","RESTAURANT 0 TO 100 SEATS","FULL SERVICE FULL MENU","ROUTINE INSPECTION","2018-10-09","03C","Hot Hold at 135 Degrees Farenheit or Greater",0,"Critical","In",30,"1115 PEARL ST
BOULDER, CO 803025103
(40.017703, -105.28095)"
"FA0000092","RIFFS URBAN FARE","1115 PEARL ST","1115",NULL,"PEARL","ST",NULL,"BOULDER","CO","803025103","RESTAURANT 0 TO 100 SEATS","FULL SERVICE FULL MENU","ROUTINE INSPECTION","2018-10-09","14G","Premises Maintained",0,"Non-Critical","Not Observed",30,"1115 PEARL ST
BOULDER, CO 803025103
(40.017703, -105.28095)"
"FA0000092","RIFFS URBAN FARE","1115 PEARL ST","1115",NULL,"PEARL","ST",NULL,"BOULDER","CO","803025103","RESTAURANT 0 TO 100 SEATS","FULL SERVICE FULL MENU","ROUTINE INSPECTION","2014-04-04","08B","Properly Labeled",0,"Critical","In",45,"1115 PEARL ST
BOULDER, CO 803025103
(40.017703, -105.28095)"
"FA0000092","RIFFS URBAN FARE","1115 PEARL ST","1115",NULL,"PEARL","ST",NULL,"BOULDER","CO","803025103","RESTAURANT 0 TO 100 SEATS","FULL SERVICE FULL MENU","ROUTINE INSPECTION","2016-09-06","14F","Locker Rooms",0,"Non-Critical","Not Observed",25,"1115 PEARL ST
BOULDER, CO 803025103
(40.017703, -105.28095)"
"FA0000092","RIFFS URBAN FARE","1115 PEARL ST","1115",NULL,"PEARL","ST",NULL,"BOULDER","CO","803025103","RESTAURANT 0 TO 100 SEATS","FULL SERVICE FULL MENU","ROUTINE INSPECTION","2014-04-04","03D","Required Cooking Temperature",0,"Critical","In",45,"1115 PEARL ST
BOULDER, CO 803025103
(40.017703, -105.28095)"
"FA0000092","RIFFS URBAN FARE","1115 PEARL ST","1115",NULL,"PEARL","ST",NULL,"BOULDER","CO","803025103","RESTAURANT 0 TO 100 SEATS","FULL SERVICE FULL MENU","ROUTINE INSPECTION","2018-10-09","03B","Rapidly Reheat to 165 Degrees or Greater",0,"Critical","In",30,"1115 PEARL ST
BOULDER, CO 803025103
(40.017703, -105.28095)"
"FA0000092","RIFFS URBAN FARE","1115 PEARL ST","1115",NULL,"PEARL","ST",NULL,"BOULDER","CO","803025103","RESTAURANT 0 TO 100 SEATS","FULL SERVICE FULL MENU","ROUTINE INSPECTION","2014-04-04","09B","Food Protected from Contamination",0,"Non-Critical","Not Observed",45,"1115 PEARL ST
BOULDER, CO 803025103
(40.017703, -105.28095)"
"FA0000092","RIFFS URBAN FARE","1115 PEARL ST","1115",NULL,"PEARL","ST",NULL,"BOULDER","CO","803025103","RESTAURANT 0 TO 100 SEATS","FULL SERVICE FULL MENU","ROUTINE INSPECTION","2014-04-04","01F","Consumer Advisory",0,"Critical","In",45,"1115 PEARL ST
BOULDER, CO 803025103
(40.017703, -105.28095)"
"FA0000092","RIFFS URBAN FARE","1115 PEARL ST","1115",NULL,"PEARL","ST",NULL,"BOULDER","CO","803025103","RESTAURANT 0 TO 100 SEATS","FULL SERVICE FULL MENU","ROUTINE INSPECTION","2018-10-09","04B","Mechanical",0,"Critical","In",30,"1115 PEARL ST
BOULDER, CO 803025103
(40.017703, -105.28095)"
"FA0000092","RIFFS URBAN FARE","1115 PEARL ST","1115",NULL,"PEARL","ST",NULL,"BOULDER","CO","803025103","RESTAURANT 0 TO 100 SEATS","FULL SERVICE FULL MENU","ROUTINE INSPECTION","2018-10-09","06C","Soap and Drying Devices",0,"Critical","In",30,"1115 PEARL ST
BOULDER, CO 803025103
(40.017703, -105.28095)"
"FA0000092","RIFFS URBAN FARE","1115 PEARL ST","1115",NULL,"PEARL","ST",NULL,"BOULDER","CO","803025103","RESTAURANT 0 TO 100 SEATS","FULL SERVICE FULL MENU","ROUTINE INSPECTION","2016-09-06","13B","Single Service Articles Stored Dispensed Used",0,"Non-Critical","Not Observed",25,"1115 PEARL ST
BOULDER, CO 803025103
(40.017703, -105.28095)"
"FA0000092","RIFFS URBAN FARE","1115 PEARL ST","1115",NULL,"PEARL","ST",NULL,"BOULDER","CO","803025103","RESTAURANT 0 TO 100 SEATS","FULL SERVICE FULL MENU","ROUTINE INSPECTION","2016-09-06","04A","Manual",0,"Critical","Not Observed",25,"1115 PEARL ST
BOULDER, CO 803025103
(40.017703, -105.28095)"
"FA0000092","RIFFS URBAN FARE","1115 PEARL ST","1115",NULL,"PEARL","ST",NULL,"BOULDER","CO","803025103","RESTAURANT 0 TO 100 SEATS","FULL SERVICE FULL MENU","ROUTINE INSPECTION","2018-10-09","08C","Properly Used",0,"Critical","In",30,"1115 PEARL ST
BOULDER, CO 803025103
(40.017703, -105.28095)"
"FA0000092","RIFFS URBAN FARE","1115 PEARL ST","1115",NULL,"PEARL","ST",NULL,"BOULDER","CO","803025103","RESTAURANT 0 TO 100 SEATS","FULL SERVICE FULL MENU","ROUTINE INSPECTION","2016-09-06","14I","Physical Facilities Adequate Toilet Facilities",0,"Non-Critical","Not Observed",25,"1115 PEARL ST
BOULDER, CO 803025103
(40.017703, -105.28095)"
"FA0000092","RIFFS URBAN FARE","1115 PEARL ST","1115",NULL,"PEARL","ST",NULL,"BOULDER","CO","803025103","RESTAURANT 0 TO 100 SEATS","FULL SERVICE FULL MENU","ROUTINE INSPECTION","2018-10-09","12B","Non-Food Contact Surfaces Cleaning",0,"Non-Critical","Not Observed",30,"1115 PEARL ST
BOULDER, CO 803025103
(40.017703, -105.28095)"
"FA0000092","RIFFS URBAN FARE","1115 PEARL ST","1115",NULL,"PEARL","ST",NULL,"BOULDER","CO","803025103","RESTAURANT 0 TO 100 SEATS","FULL SERVICE FULL MENU","ROUTINE INSPECTION","2014-04-04","01E","Date Marking",0,"Critical","Not Applicable",45,"1115 PEARL ST
BOULDER, CO 803025103
(40.017703, -105.28095)"
"FA0000092","RIFFS URBAN FARE","1115 PEARL ST","1115",NULL,"PEARL","ST",NULL,"BOULDER","CO","803025103","RESTAURANT 0 TO 100 SEATS","FULL SERVICE FULL MENU","ROUTINE INSPECTION","2014-04-04","01A","Approved Source",0,"Critical","In",45,"1115 PEARL ST
BOULDER, CO 803025103
(40.017703, -105.28095)"
"FA0000092","RIFFS URBAN FARE","1115 PEARL ST","1115",NULL,"PEARL","ST",NULL,"BOULDER","CO","803025103","RESTAURANT 0 TO 100 SEATS","FULL SERVICE FULL MENU","ROUTINE INSPECTION","2014-04-04","01B","Wholesome Free of Spoilage",0,"Critical","In",45,"1115 PEARL ST
BOULDER, CO 803025103
(40.017703, -105.28095)"
"FA0000092","RIFFS URBAN FARE","1115 PEARL ST","1115",NULL,"PEARL","ST",NULL,"BOULDER","CO","803025103","RESTAURANT 0 TO 100 SEATS","FULL SERVICE FULL MENU","ROUTINE INSPECTION","2018-10-09","14F","Locker Rooms",0,"Non-Critical","Not Observed",30,"1115 PEARL ST
BOULDER, CO 803025103
(40.017703, -105.28095)"
"FA0000092","RIFFS URBAN FARE","1115 PEARL ST","1115",NULL,"PEARL","ST",NULL,"BOULDER","CO","803025103","RESTAURANT 0 TO 100 SEATS","FULL SERVICE FULL MENU","ROUTINE INSPECTION","2014-04-04","14E","Ventilation",0,"Non-Critical","Not Observed",45,"1115 PEARL ST
BOULDER, CO 803025103
(40.017703, -105.28095)"
"FA0000092","RIFFS URBAN FARE","1115 PEARL ST","1115",NULL,"PEARL","ST",NULL,"BOULDER","CO","803025103","RESTAURANT 0 TO 100 SEATS","FULL SERVICE FULL MENU","ROUTINE INSPECTION","2016-09-06","01F","Consumer Advisory",5,"Critical","Out",25,"1115 PEARL ST
BOULDER, CO 803025103
(40.017703, -105.28095)"
"FA0000092","RIFFS URBAN FARE","1115 PEARL ST","1115",NULL,"PEARL","ST",NULL,"BOULDER","CO","803025103","RESTAURANT 0 TO 100 SEATS","FULL SERVICE FULL MENU","ROUTINE INSPECTION","2014-04-04","14C","Floors Walls Ceilings",0,"Non-Critical","Not Observed",45,"1115 PEARL ST
BOULDER, CO 803025103
(40.017703, -105.28095)"
"FA0000092","RIFFS URBAN FARE","1115 PEARL ST","1115",NULL,"PEARL","ST",NULL,"BOULDER","CO","803025103","RESTAURANT 0 TO 100 SEATS","FULL SERVICE FULL MENU","ROUTINE INSPECTION","2014-04-04","04A","Manual",0,"Critical","In",45,"1115 PEARL ST
BOULDER, CO 803025103
(40.017703, -105.28095)"
"FA0000092","RIFFS URBAN FARE","1115 PEARL ST","1115",NULL,"PEARL","ST",NULL,"BOULDER","CO","803025103","RESTAURANT 0 TO 100 SEATS","FULL SERVICE FULL MENU","ROUTINE INSPECTION","2018-10-09","13C","No Reuse of Single Service Articles",0,"Non-Critical","Not Observed",30,"1115 PEARL ST
BOULDER, CO 803025103
(40.017703, -105.28095)"
"FA0000092","RIFFS URBAN FARE","1115 PEARL ST","1115",NULL,"PEARL","ST",NULL,"BOULDER","CO","803025103","RESTAURANT 0 TO 100 SEATS","FULL SERVICE FULL MENU","ROUTINE INSPECTION","2016-09-06","07B","Pesticide Application",0,"Critical","Not Observed",25,"1115 PEARL ST
BOULDER, CO 803025103
(40.017703, -105.28095)"
"FA0000092","RIFFS URBAN FARE","1115 PEARL ST","1115",NULL,"PEARL","ST",NULL,"BOULDER","CO","803025103","RESTAURANT 0 TO 100 SEATS","FULL SERVICE FULL MENU","ROUTINE INSPECTION","2016-09-06","09A","Original Container Properly Labeled",0,"Non-Critical","Not Observed",25,"1115 PEARL ST
BOULDER, CO 803025103
(40.017703, -105.28095)"
"FA0000092","RIFFS URBAN FARE","1115 PEARL ST","1115",NULL,"PEARL","ST",NULL,"BOULDER","CO","803025103","RESTAURANT 0 TO 100 SEATS","FULL SERVICE FULL MENU","ROUTINE INSPECTION","2016-09-06","05C","Backflow Back Siphonage",0,"Critical","In",25,"1115 PEARL ST
BOULDER, CO 803025103
(40.017703, -105.28095)"
"FA0000092","RIFFS URBAN FARE","1115 PEARL ST","1115",NULL,"PEARL","ST",NULL,"BOULDER","CO","803025103","RESTAURANT 0 TO 100 SEATS","FULL SERVICE FULL MENU","ROUTINE INSPECTION","2016-09-06","10B","Non-Food Contact Surfaces Construction",0,"Non-Critical","Not Observed",25,"1115 PEARL ST
BOULDER, CO 803025103
(40.017703, -105.28095)"
"FA0000092","RIFFS URBAN FARE","1115 PEARL ST","1115",NULL,"PEARL","ST",NULL,"BOULDER","CO","803025103","RESTAURANT 0 TO 100 SEATS","FULL SERVICE FULL MENU","ROUTINE INSPECTION","2014-04-04","02D","Hygienic Practices",0,"Critical","In",45,"1115 PEARL ST
BOULDER, CO 803025103
(40.017703, -105.28095)"
"FA0000092","RIFFS URBAN FARE","1115 PEARL ST","1115",NULL,"PEARL","ST",NULL,"BOULDER","CO","803025103","RESTAURANT 0 TO 100 SEATS","FULL SERVICE FULL MENU","ROUTINE INSPECTION","2014-04-04","06A","Adequate Number Location Design",0,"Critical","In",45,"1115 PEARL ST
BOULDER, CO 803025103
(40.017703, -105.28095)"
"FA0000092","RIFFS URBAN FARE","1115 PEARL ST","1115",NULL,"PEARL","ST",NULL,"BOULDER","CO","803025103","RESTAURANT 0 TO 100 SEATS","FULL SERVICE FULL MENU","ROUTINE INSPECTION","2016-09-06","02B","Wounds Properly Covered",0,"Critical","Not Observed",25,"1115 PEARL ST
BOULDER, CO 803025103
(40.017703, -105.28095)"
"FA0000092","RIFFS URBAN FARE","1115 PEARL ST","1115",NULL,"PEARL","ST",NULL,"BOULDER","CO","803025103","RESTAURANT 0 TO 100 SEATS","FULL SERVICE FULL MENU","ROUTINE INSPECTION","2016-09-06","02C","Hands Washed As Needed",0,"Critical","In",25,"1115 PEARL ST
BOULDER, CO 803025103
(40.017703, -105.28095)"
"FA0000092","RIFFS URBAN FARE","1115 PEARL ST","1115",NULL,"PEARL","ST",NULL,"BOULDER","CO","803025103","RESTAURANT 0 TO 100 SEATS","FULL SERVICE FULL MENU","ROUTINE INSPECTION","2016-09-06","04B","Mechanical",0,"Critical","In",25,"1115 PEARL ST
BOULDER, CO 803025103
(40.017703, -105.28095)"
"FA0000092","RIFFS URBAN FARE","1115 PEARL ST","1115",NULL,"PEARL","ST",NULL,"BOULDER","CO","803025103","RESTAURANT 0 TO 100 SEATS","FULL SERVICE FULL MENU","ROUTINE INSPECTION","2018-10-09","01A","Approved Source",15,"Critical","Out",30,"1115 PEARL ST
BOULDER, CO 803025103
(40.017703, -105.28095)"
"FA0000092","RIFFS URBAN FARE","1115 PEARL ST","1115",NULL,"PEARL","ST",NULL,"BOULDER","CO","803025103","RESTAURANT 0 TO 100 SEATS","FULL SERVICE FULL MENU","ROUTINE INSPECTION","2016-09-06","14E","Ventilation",0,"Non-Critical","Not Observed",25,"1115 PEARL ST
BOULDER, CO 803025103
(40.017703, -105.28095)"
"FA0000092","RIFFS URBAN FARE","1115 PEARL ST","1115",NULL,"PEARL","ST",NULL,"BOULDER","CO","803025103","RESTAURANT 0 TO 100 SEATS","FULL SERVICE FULL MENU","ACTIVE MANAGEMENT CONTROL (AMC)","2018-10-09","AM3","All Staff Receive Formal Food Safety Training",10,"Non-Critical","Full",45,"1115 PEARL ST
BOULDER, CO 803025103
(40.01766, -105.281147)"
"FA0000092","RIFFS URBAN FARE","1115 PEARL ST","1115",NULL,"PEARL","ST",NULL,"BOULDER","CO","803025103","RESTAURANT 0 TO 100 SEATS","FULL SERVICE FULL MENU","ACTIVE MANAGEMENT CONTROL (AMC)","2018-10-09","AM22","Do You Have a Dial Thermometer",0,"Non-Critical","In",45,"1115 PEARL ST
BOULDER, CO 803025103
(40.01766, -105.281147)"
"FA0000092","RIFFS URBAN FARE","1115 PEARL ST","1115",NULL,"PEARL","ST",NULL,"BOULDER","CO","803025103","RESTAURANT 0 TO 100 SEATS","FULL SERVICE FULL MENU","ACTIVE MANAGEMENT CONTROL (AMC)","2018-10-09","AM26","Contracts for Preventative Maintenance Full For All 3 Half For 1 OR 2 NO For None",10,"Non-Critical","Full",45,"1115 PEARL ST
BOULDER, CO 803025103
(40.01766, -105.281147)"
"FA0000092","RIFFS URBAN FARE","1115 PEARL ST","1115",NULL,"PEARL","ST",NULL,"BOULDER","CO","803025103","RESTAURANT 0 TO 100 SEATS","FULL SERVICE FULL MENU","ACTIVE MANAGEMENT CONTROL (AMC)","2018-10-09","AM23","Thin Probe Available",5,"Non-Critical","Full",45,"1115 PEARL ST
BOULDER, CO 803025103
(40.01766, -105.281147)"
"FA0000092","RIFFS URBAN FARE","1115 PEARL ST","1115",NULL,"PEARL","ST",NULL,"BOULDER","CO","803025103","RESTAURANT 0 TO 100 SEATS","FULL SERVICE FULL MENU","ACTIVE MANAGEMENT CONTROL (AMC)","2018-10-09","AM5","Conduct Daily Food Safety Inspections",10,"Non-Critical","In",45,"1115 PEARL ST
BOULDER, CO 803025103
(40.01766, -105.281147)"
"FA0000092","RIFFS URBAN FARE","1115 PEARL ST","1115",NULL,"PEARL","ST",NULL,"BOULDER","CO","803025103","RESTAURANT 0 TO 100 SEATS","FULL SERVICE FULL MENU","ACTIVE MANAGEMENT CONTROL (AMC)","2018-10-09","AM24","Document Food Temperatures Frequently Cooling Initial Cook Receiving & Reheating",5,"Non-Critical","In",45,"1115 PEARL ST
BOULDER, CO 803025103
(40.01766, -105.281147)"
"FA0000092","RIFFS URBAN FARE","1115 PEARL ST","1115",NULL,"PEARL","ST",NULL,"BOULDER","CO","803025103","RESTAURANT 0 TO 100 SEATS","FULL SERVICE FULL MENU","ACTIVE MANAGEMENT CONTROL (AMC)","2018-10-09","AM25","Document Thermometer Calibration",5,"Non-Critical","In",45,"1115 PEARL ST
BOULDER, CO 803025103
(40.01766, -105.281147)"
"FA0000092","RIFFS URBAN FARE","1115 PEARL ST","1115",NULL,"PEARL","ST",NULL,"BOULDER","CO","803025103","RESTAURANT 0 TO 100 SEATS","FULL SERVICE FULL MENU","ACTIVE MANAGEMENT CONTROL (AMC)","2018-10-09","AM21","Do Your Have a Thermocouple or Digital Thermometer",5,"Non-Critical","Full",45,"1115 PEARL ST
BOULDER, CO 803025103
(40.01766, -105.281147)"
"FA0000092","RIFFS URBAN FARE","1115 PEARL ST","1115",NULL,"PEARL","ST",NULL,"BOULDER","CO","803025103","RESTAURANT 0 TO 100 SEATS","FULL SERVICE FULL MENU","ACTIVE MANAGEMENT CONTROL (AMC)","2018-10-09","AM20","Paid Sick Leave",5,"Non-Critical","In",45,"1115 PEARL ST
BOULDER, CO 803025103
(40.01766, -105.281147)"
"FA0000092","RIFFS URBAN FARE","1115 PEARL ST","1115",NULL,"PEARL","ST",NULL,"BOULDER","CO","803025103","RESTAURANT 0 TO 100 SEATS","FULL SERVICE FULL MENU","ACTIVE MANAGEMENT CONTROL (AMC)","2018-10-09","AM18","Document Sanitizer Concentrations and Usage",10,"Non-Critical","In",45,"1115 PEARL ST
BOULDER, CO 803025103
(40.01766, -105.281147)"
"FA0000092","RIFFS URBAN FARE","1115 PEARL ST","1115",NULL,"PEARL","ST",NULL,"BOULDER","CO","803025103","RESTAURANT 0 TO 100 SEATS","FULL SERVICE FULL MENU","ACTIVE MANAGEMENT CONTROL (AMC)","2018-10-09","AM19","Written Employee Illness Policy",5,"Non-Critical","Full",45,"1115 PEARL ST
BOULDER, CO 803025103
(40.01766, -105.281147)"
"FA0000092","RIFFS URBAN FARE","1115 PEARL ST","1115",NULL,"PEARL","ST",NULL,"BOULDER","CO","803025103","RESTAURANT 0 TO 100 SEATS","FULL SERVICE FULL MENU","ACTIVE MANAGEMENT CONTROL (AMC)","2018-10-09","AM1","Certified Food Safety Manager",10,"Non-Critical","Full",45,"1115 PEARL ST
BOULDER, CO 803025103
(40.01766, -105.281147)"
"FA0000092","RIFFS URBAN FARE","1115 PEARL ST","1115",NULL,"PEARL","ST",NULL,"BOULDER","CO","803025103","RESTAURANT 0 TO 100 SEATS","FULL SERVICE FULL MENU","ACTIVE MANAGEMENT CONTROL (AMC)","2018-10-09","AM10","Document Handwashing Glove Use",10,"Non-Critical","In",45,"1115 PEARL ST
BOULDER, CO 803025103
(40.01766, -105.281147)"
"FA0000092","RIFFS URBAN FARE","1115 PEARL ST","1115",NULL,"PEARL","ST",NULL,"BOULDER","CO","803025103","RESTAURANT 0 TO 100 SEATS","FULL SERVICE FULL MENU","ACTIVE MANAGEMENT CONTROL (AMC)","2018-10-09","AM7","Private Corporate Food Safety Inspections",10,"Non-Critical","In",45,"1115 PEARL ST
BOULDER, CO 803025103
(40.01766, -105.281147)"
"FA0000092","RIFFS URBAN FARE","1115 PEARL ST","1115",NULL,"PEARL","ST",NULL,"BOULDER","CO","803025103","RESTAURANT 0 TO 100 SEATS","FULL SERVICE FULL MENU","ROUTINE INSPECTION","2014-04-04","12B","Non-Food Contact Surfaces Cleaning",0,"Non-Critical","Not Observed",45,"1115 PEARL ST
BOULDER, CO 803025103
(40.017703, -105.28095)"
"FA0000092","RIFFS URBAN FARE","1115 PEARL ST","1115",NULL,"PEARL","ST",NULL,"BOULDER","CO","803025103","RESTAURANT 0 TO 100 SEATS","FULL SERVICE FULL MENU","ROUTINE INSPECTION","2016-09-06","12D","Wiping Cloths",0,"Non-Critical","Not Observed",25,"1115 PEARL ST
BOULDER, CO 803025103
(40.017703, -105.28095)"
"FA0000092","RIFFS URBAN FARE","1115 PEARL ST","1115",NULL,"PEARL","ST",NULL,"BOULDER","CO","803025103","RESTAURANT 0 TO 100 SEATS","FULL SERVICE FULL MENU","ROUTINE INSPECTION","2014-04-04","03E","Cold Hold at 41 Degrees or Less",15,"Critical","Out",45,"1115 PEARL ST
BOULDER, CO 803025103
(40.017703, -105.28095)"
"FA0000092","RIFFS URBAN FARE","1115 PEARL ST","1115",NULL,"PEARL","ST",NULL,"BOULDER","CO","803025103","RESTAURANT 0 TO 100 SEATS","FULL SERVICE FULL MENU","ROUTINE INSPECTION","2014-04-04","05B","Hot and Cold Water Under Pressure",10,"Critical","Out",45,"1115 PEARL ST
BOULDER, CO 803025103
(40.017703, -105.28095)"
"FA0000092","RIFFS URBAN FARE","1115 PEARL ST","1115",NULL,"PEARL","ST",NULL,"BOULDER","CO","803025103","RESTAURANT 0 TO 100 SEATS","FULL SERVICE FULL MENU","ROUTINE INSPECTION","2018-10-09","09A","Original Container Properly Labeled",0,"Non-Critical","Not Observed",30,"1115 PEARL ST
BOULDER, CO 803025103
(40.017703, -105.28095)"
"FA0000092","RIFFS URBAN FARE","1115 PEARL ST","1115",NULL,"PEARL","ST",NULL,"BOULDER","CO","803025103","RESTAURANT 0 TO 100 SEATS","FULL SERVICE FULL MENU","ROUTINE INSPECTION","2016-09-06","01C","Cross Contamination",0,"Critical","In",25,"1115 PEARL ST
BOULDER, CO 803025103
(40.017703, -105.28095)"
"FA0000092","RIFFS URBAN FARE","1115 PEARL ST","1115",NULL,"PEARL","ST",NULL,"BOULDER","CO","803025103","RESTAURANT 0 TO 100 SEATS","FULL SERVICE FULL MENU","ROUTINE INSPECTION","2016-09-06","14C","Floors Walls Ceilings",0,"Non-Critical","Not Observed",25,"1115 PEARL ST
BOULDER, CO 803025103
(40.017703, -105.28095)"
"FA0000092","RIFFS URBAN FARE","1115 PEARL ST","1115",NULL,"PEARL","ST",NULL,"BOULDER","CO","803025103","RESTAURANT 0 TO 100 SEATS","FULL SERVICE FULL MENU","ROUTINE INSPECTION","2018-10-09","12D","Wiping Cloths",0,"Non-Critical","Not Observed",30,"1115 PEARL ST
BOULDER, CO 803025103
(40.017703, -105.28095)"
"FA0000092","RIFFS URBAN FARE","1115 PEARL ST","1115",NULL,"PEARL","ST",NULL,"BOULDER","CO","803025103","RESTAURANT 0 TO 100 SEATS","FULL SERVICE FULL MENU","ROUTINE INSPECTION","2018-10-09","04A","Manual",0,"Critical","Not Applicable",30,"1115 PEARL ST
BOULDER, CO 803025103
(40.017703, -105.28095)"
"FA0000092","RIFFS URBAN FARE","1115 PEARL ST","1115",NULL,"PEARL","ST",NULL,"BOULDER","CO","803025103","RESTAURANT 0 TO 100 SEATS","FULL SERVICE FULL MENU","ROUTINE INSPECTION","2014-04-04","10A","Food-Contact Surfaces Construction",0,"Non-Critical","Not Observed",45,"1115 PEARL ST
BOULDER, CO 803025103
(40.017703, -105.28095)"
"FA0000092","RIFFS URBAN FARE","1115 PEARL ST","1115",NULL,"PEARL","ST",NULL,"BOULDER","CO","803025103","RESTAURANT 0 TO 100 SEATS","FULL SERVICE FULL MENU","ROUTINE INSPECTION","2016-09-06","01E","Date Marking",0,"Critical","Not Applicable",25,"1115 PEARL ST
BOULDER, CO 803025103
(40.017703, -105.28095)"
"FA0000092","RIFFS URBAN FARE","1115 PEARL ST","1115",NULL,"PEARL","ST",NULL,"BOULDER","CO","803025103","RESTAURANT 0 TO 100 SEATS","FULL SERVICE FULL MENU","ROUTINE INSPECTION","2014-04-04","03F","Food Thermometer",0,"Critical","In",45,"1115 PEARL ST
BOULDER, CO 803025103
(40.017703, -105.28095)"
"FA0000092","RIFFS URBAN FARE","1115 PEARL ST","1115",NULL,"PEARL","ST",NULL,"BOULDER","CO","803025103","RESTAURANT 0 TO 100 SEATS","FULL SERVICE FULL MENU","ROUTINE INSPECTION","2018-10-09","11B","Dishmachine With Accurate Thermometer & Gauge Cock",0,"Non-Critical","Not Observed",30,"1115 PEARL ST
BOULDER, CO 803025103
(40.017703, -105.28095)"
"FA0000092","RIFFS URBAN FARE","1115 PEARL ST","1115",NULL,"PEARL","ST",NULL,"BOULDER","CO","803025103","RESTAURANT 0 TO 100 SEATS","FULL SERVICE FULL MENU","FOLLOW-UP INSPECTION","2018-11-05","12C","Dishwashing Operations",0,"Non-Critical","Not Observed",0,"1115 PEARL ST
BOULDER, CO 803025103
(40.01766, -105.281147)"
"FA0000092","RIFFS URBAN FARE","1115 PEARL ST","1115",NULL,"PEARL","ST",NULL,"BOULDER","CO","803025103","RESTAURANT 0 TO 100 SEATS","FULL SERVICE FULL MENU","FOLLOW-UP INSPECTION","2018-11-05","14I","Physical Facilities Adequate Toilet Facilities",0,"Non-Critical","Not Observed",0,"1115 PEARL ST
BOULDER, CO 803025103
(40.01766, -105.281147)"
"FA0000092","RIFFS URBAN FARE","1115 PEARL ST","1115",NULL,"PEARL","ST",NULL,"BOULDER","CO","803025103","RESTAURANT 0 TO 100 SEATS","FULL SERVICE FULL MENU","FOLLOW-UP INSPECTION","2018-11-05","03C","Hot Hold at 135 Degrees Farenheit or Greater",0,"Critical","Not Observed",0,"1115 PEARL ST
BOULDER, CO 803025103
(40.01766, -105.281147)"
"FA0000092","RIFFS URBAN FARE","1115 PEARL ST","1115",NULL,"PEARL","ST",NULL,"BOULDER","CO","803025103","RESTAURANT 0 TO 100 SEATS","FULL SERVICE FULL MENU","FOLLOW-UP INSPECTION","2018-11-05","04A","Manual",0,"Critical","Not Observed",0,"1115 PEARL ST
BOULDER, CO 803025103
(40.01766, -105.281147)"
"FA0000092","RIFFS URBAN FARE","1115 PEARL ST","1115",NULL,"PEARL","ST",NULL,"BOULDER","CO","803025103","RESTAURANT 0 TO 100 SEATS","FULL SERVICE FULL MENU","FOLLOW-UP INSPECTION","2018-11-05","09A","Original Container Properly Labeled",0,"Non-Critical","Not Observed",0,"1115 PEARL ST
BOULDER, CO 803025103
(40.01766, -105.281147)"
"FA0000092","RIFFS URBAN FARE","1115 PEARL ST","1115",NULL,"PEARL","ST",NULL,"BOULDER","CO","803025103","RESTAURANT 0 TO 100 SEATS","FULL SERVICE FULL MENU","FOLLOW-UP INSPECTION","2018-11-05","02A","Personnel With Infections Restricted",0,"Critical","Not Observed",0,"1115 PEARL ST
BOULDER, CO 803025103
(40.01766, -105.281147)"
"FA0000092","RIFFS URBAN FARE","1115 PEARL ST","1115",NULL,"PEARL","ST",NULL,"BOULDER","CO","803025103","RESTAURANT 0 TO 100 SEATS","FULL SERVICE FULL MENU","FOLLOW-UP INSPECTION","2018-11-05","03B","Rapidly Reheat to 165 Degrees or Greater",0,"Critical","Not Observed",0,"1115 PEARL ST
BOULDER, CO 803025103
(40.01766, -105.281147)"
"FA0000092","RIFFS URBAN FARE","1115 PEARL ST","1115",NULL,"PEARL","ST",NULL,"BOULDER","CO","803025103","RESTAURANT 0 TO 100 SEATS","FULL SERVICE FULL MENU","FOLLOW-UP INSPECTION","2018-11-05","06B","Accessible",0,"Critical","Not Observed",0,"1115 PEARL ST
BOULDER, CO 803025103
(40.01766, -105.281147)"
"FA0000092","RIFFS URBAN FARE","1115 PEARL ST","1115",NULL,"PEARL","ST",NULL,"BOULDER","CO","803025103","RESTAURANT 0 TO 100 SEATS","FULL SERVICE FULL MENU","FOLLOW-UP INSPECTION","2018-11-05","10A","Food-Contact Surfaces Construction",0,"Non-Critical","Not Observed",0,"1115 PEARL ST
BOULDER, CO 803025103
(40.01766, -105.281147)"
"FA0000092","RIFFS URBAN FARE","1115 PEARL ST","1115",NULL,"PEARL","ST",NULL,"BOULDER","CO","803025103","RESTAURANT 0 TO 100 SEATS","FULL SERVICE FULL MENU","FOLLOW-UP INSPECTION","2018-11-05","03D","Required Cooking Temperature",0,"Critical","Not Observed",0,"1115 PEARL ST
BOULDER, CO 803025103
(40.01766, -105.281147)"
"FA0000092","RIFFS URBAN FARE","1115 PEARL ST","1115",NULL,"PEARL","ST",NULL,"BOULDER","CO","803025103","RESTAURANT 0 TO 100 SEATS","FULL SERVICE FULL MENU","FOLLOW-UP INSPECTION","2018-11-05","08A","Properly Stored",0,"Critical","Not Observed",0,"1115 PEARL ST
BOULDER, CO 803025103
(40.01766, -105.281147)"
"FA0000092","RIFFS URBAN FARE","1115 PEARL ST","1115",NULL,"PEARL","ST",NULL,"BOULDER","CO","803025103","RESTAURANT 0 TO 100 SEATS","FULL SERVICE FULL MENU","FOLLOW-UP INSPECTION","2018-11-05","10C","Dishwashing Facilities",0,"Non-Critical","Not Observed",0,"1115 PEARL ST
BOULDER, CO 803025103
(40.01766, -105.281147)"
"FA0000092","RIFFS URBAN FARE","1115 PEARL ST","1115",NULL,"PEARL","ST",NULL,"BOULDER","CO","803025103","RESTAURANT 0 TO 100 SEATS","FULL SERVICE FULL MENU","FOLLOW-UP INSPECTION","2018-11-05","14D","Lighting",0,"Non-Critical","Not Observed",0,"1115 PEARL ST
BOULDER, CO 803025103
(40.01766, -105.281147)"
"FA0000092","RIFFS URBAN FARE","1115 PEARL ST","1115",NULL,"PEARL","ST",NULL,"BOULDER","CO","803025103","RESTAURANT 0 TO 100 SEATS","FULL SERVICE FULL MENU","FOLLOW-UP INSPECTION","2018-11-05","14A","Plumbing Installed Maintained",0,"Non-Critical","Not Observed",0,"1115 PEARL ST
BOULDER, CO 803025103
(40.01766, -105.281147)"
"FA0000092","RIFFS URBAN FARE","1115 PEARL ST","1115",NULL,"PEARL","ST",NULL,"BOULDER","CO","803025103","RESTAURANT 0 TO 100 SEATS","FULL SERVICE FULL MENU","FOLLOW-UP INSPECTION","2018-11-05","13B","Single Service Articles Stored Dispensed Used",0,"Non-Critical","Not Observed",0,"1115 PEARL ST
BOULDER, CO 803025103
(40.01766, -105.281147)"
"FA0000092","RIFFS URBAN FARE","1115 PEARL ST","1115",NULL,"PEARL","ST",NULL,"BOULDER","CO","803025103","RESTAURANT 0 TO 100 SEATS","FULL SERVICE FULL MENU","FOLLOW-UP INSPECTION","2018-11-05","06A","Adequate Number Location Design",0,"Critical","Not Observed",0,"1115 PEARL ST
BOULDER, CO 803025103
(40.01766, -105.281147)"
"FA0000092","RIFFS URBAN FARE","1115 PEARL ST","1115",NULL,"PEARL","ST",NULL,"BOULDER","CO","803025103","RESTAURANT 0 TO 100 SEATS","FULL SERVICE FULL MENU","FOLLOW-UP INSPECTION","2018-11-05","02E","Smoking Eating Drinking",0,"Critical","Not Observed",0,"1115 PEARL ST
BOULDER, CO 803025103
(40.01766, -105.281147)"
"FA0000092","RIFFS URBAN FARE","1115 PEARL ST","1115",NULL,"PEARL","ST",NULL,"BOULDER","CO","803025103","RESTAURANT 0 TO 100 SEATS","FULL SERVICE FULL MENU","FOLLOW-UP INSPECTION","2018-11-05","13C","No Reuse of Single Service Articles",0,"Non-Critical","Not Observed",0,"1115 PEARL ST
BOULDER, CO 803025103
(40.01766, -105.281147)"
"FA0000092","RIFFS URBAN FARE","1115 PEARL ST","1115",NULL,"PEARL","ST",NULL,"BOULDER","CO","803025103","RESTAURANT 0 TO 100 SEATS","FULL SERVICE FULL MENU","FOLLOW-UP INSPECTION","2018-11-05","05C","Backflow Back Siphonage",0,"Critical","Not Observed",0,"1115 PEARL ST
BOULDER, CO 803025103
(40.01766, -105.281147)"
"FA0000092","RIFFS URBAN FARE","1115 PEARL ST","1115",NULL,"PEARL","ST",NULL,"BOULDER","CO","803025103","RESTAURANT 0 TO 100 SEATS","FULL SERVICE FULL MENU","FOLLOW-UP INSPECTION","2018-11-05","01C","Cross Contamination",0,"Critical","Not Observed",0,"1115 PEARL ST
BOULDER, CO 803025103
(40.01766, -105.281147)"
"FA0000092","RIFFS URBAN FARE","1115 PEARL ST","1115",NULL,"PEARL","ST",NULL,"BOULDER","CO","803025103","RESTAURANT 0 TO 100 SEATS","FULL SERVICE FULL MENU","FOLLOW-UP INSPECTION","2018-11-05","01E","Date Marking",0,"Critical","Not Observed",0,"1115 PEARL ST
BOULDER, CO 803025103
(40.01766, -105.281147)"
"FA0000092","RIFFS URBAN FARE","1115 PEARL ST","1115",NULL,"PEARL","ST",NULL,"BOULDER","CO","803025103","RESTAURANT 0 TO 100 SEATS","FULL SERVICE FULL MENU","FOLLOW-UP INSPECTION","2018-11-05","12A","Food Contact Surfaces Cleaning",0,"Non-Critical","Not Observed",0,"1115 PEARL ST
BOULDER, CO 803025103
(40.01766, -105.281147)"
"FA0000092","RIFFS URBAN FARE","1115 PEARL ST","1115",NULL,"PEARL","ST",NULL,"BOULDER","CO","803025103","RESTAURANT 0 TO 100 SEATS","FULL SERVICE FULL MENU","FOLLOW-UP INSPECTION","2018-11-05","12B","Non-Food Contact Surfaces Cleaning",0,"Non-Critical","Not Observed",0,"1115 PEARL ST
BOULDER, CO 803025103
(40.01766, -105.281147)"
"FA0000092","RIFFS URBAN FARE","1115 PEARL ST","1115",NULL,"PEARL","ST",NULL,"BOULDER","CO","803025103","RESTAURANT 0 TO 100 SEATS","FULL SERVICE FULL MENU","FOLLOW-UP INSPECTION","2018-11-05","14C","Floors Walls Ceilings",0,"Non-Critical","Not Observed",0,"1115 PEARL ST
BOULDER, CO 803025103
(40.01766, -105.281147)"
"FA0000092","RIFFS URBAN FARE","1115 PEARL ST","1115",NULL,"PEARL","ST",NULL,"BOULDER","CO","803025103","RESTAURANT 0 TO 100 SEATS","FULL SERVICE FULL MENU","FOLLOW-UP INSPECTION","2018-11-05","14F","Locker Rooms",0,"Non-Critical","Not Observed",0,"1115 PEARL ST
BOULDER, CO 803025103
(40.01766, -105.281147)"
"FA0000092","RIFFS URBAN FARE","1115 PEARL ST","1115",NULL,"PEARL","ST",NULL,"BOULDER","CO","803025103","RESTAURANT 0 TO 100 SEATS","FULL SERVICE FULL MENU","FOLLOW-UP INSPECTION","2018-11-05","07A","Evidence of Insects or Rodents",0,"Critical","Not Observed",0,"1115 PEARL ST
BOULDER, CO 803025103
(40.01766, -105.281147)"
"FA0000092","RIFFS URBAN FARE","1115 PEARL ST","1115",NULL,"PEARL","ST",NULL,"BOULDER","CO","803025103","RESTAURANT 0 TO 100 SEATS","FULL SERVICE FULL MENU","FOLLOW-UP INSPECTION","2018-11-05","01B","Wholesome Free of Spoilage",0,"Critical","Not Observed",0,"1115 PEARL ST
BOULDER, CO 803025103
(40.01766, -105.281147)"
"FA0000092","RIFFS URBAN FARE","1115 PEARL ST","1115",NULL,"PEARL","ST",NULL,"BOULDER","CO","803025103","RESTAURANT 0 TO 100 SEATS","FULL SERVICE FULL MENU","FOLLOW-UP INSPECTION","2018-11-05","05B","Hot and Cold Water Under Pressure",0,"Critical","Not Observed",0,"1115 PEARL ST
BOULDER, CO 803025103
(40.01766, -105.281147)"
"FA0000092","RIFFS URBAN FARE","1115 PEARL ST","1115",NULL,"PEARL","ST",NULL,"BOULDER","CO","803025103","RESTAURANT 0 TO 100 SEATS","FULL SERVICE FULL MENU","FOLLOW-UP INSPECTION","2018-11-05","14E","Ventilation",0,"Non-Critical","Not Observed",0,"1115 PEARL ST
BOULDER, CO 803025103
(40.01766, -105.281147)"
"FA0000092","RIFFS URBAN FARE","1115 PEARL ST","1115",NULL,"PEARL","ST",NULL,"BOULDER","CO","803025103","RESTAURANT 0 TO 100 SEATS","FULL SERVICE FULL MENU","FOLLOW-UP INSPECTION","2018-11-05","13A","Equipment Utensils Provided Used, Stored",0,"Non-Critical","Not Observed",0,"1115 PEARL ST
BOULDER, CO 803025103
(40.01766, -105.281147)"
"FA0000092","RIFFS URBAN FARE","1115 PEARL ST","1115",NULL,"PEARL","ST",NULL,"BOULDER","CO","803025103","RESTAURANT 0 TO 100 SEATS","FULL SERVICE FULL MENU","FOLLOW-UP INSPECTION","2018-11-05","05A","Safe Water Source",0,"Critical","Not Observed",0,"1115 PEARL ST
BOULDER, CO 803025103
(40.01766, -105.281147)"
"FA0000092","RIFFS URBAN FARE","1115 PEARL ST","1115",NULL,"PEARL","ST",NULL,"BOULDER","CO","803025103","RESTAURANT 0 TO 100 SEATS","FULL SERVICE FULL MENU","FOLLOW-UP INSPECTION","2018-11-05","01A","Approved Source",0,"Critical","In",0,"1115 PEARL ST
BOULDER, CO 803025103
(40.01766, -105.281147)"
"FA0000092","RIFFS URBAN FARE","1115 PEARL ST","1115",NULL,"PEARL","ST",NULL,"BOULDER","CO","803025103","RESTAURANT 0 TO 100 SEATS","FULL SERVICE FULL MENU","FOLLOW-UP INSPECTION","2018-11-05","03F","Food Thermometer",0,"Critical","Not Observed",0,"1115 PEARL ST
BOULDER, CO 803025103
(40.01766, -105.281147)"
"FA0000092","RIFFS URBAN FARE","1115 PEARL ST","1115",NULL,"PEARL","ST",NULL,"BOULDER","CO","803025103","RESTAURANT 0 TO 100 SEATS","FULL SERVICE FULL MENU","FOLLOW-UP INSPECTION","2018-11-05","11A","Refrigeration Units With Accurate Thermometers",0,"Non-Critical","Not Observed",0,"1115 PEARL ST
BOULDER, CO 803025103
(40.01766, -105.281147)"
"FA0000092","RIFFS URBAN FARE","1115 PEARL ST","1115",NULL,"PEARL","ST",NULL,"BOULDER","CO","803025103","RESTAURANT 0 TO 100 SEATS","FULL SERVICE FULL MENU","FOLLOW-UP INSPECTION","2018-11-05","14H","Separation of Living Laundry",0,"Non-Critical","Not Observed",0,"1115 PEARL ST
BOULDER, CO 803025103
(40.01766, -105.281147)"
"FA0000092","RIFFS URBAN FARE","1115 PEARL ST","1115",NULL,"PEARL","ST",NULL,"BOULDER","CO","803025103","RESTAURANT 0 TO 100 SEATS","FULL SERVICE FULL MENU","FOLLOW-UP INSPECTION","2018-11-05","02F","Training Needed",0,"Critical","Not Observed",0,"1115 PEARL ST
BOULDER, CO 803025103
(40.01766, -105.281147)"
"FA0000092","RIFFS URBAN FARE","1115 PEARL ST","1115",NULL,"PEARL","ST",NULL,"BOULDER","CO","803025103","RESTAURANT 0 TO 100 SEATS","FULL SERVICE FULL MENU","FOLLOW-UP INSPECTION","2018-11-05","04C","In Place",0,"Critical","Not Observed",0,"1115 PEARL ST
BOULDER, CO 803025103
(40.01766, -105.281147)"
"FA0000092","RIFFS URBAN FARE","1115 PEARL ST","1115",NULL,"PEARL","ST",NULL,"BOULDER","CO","803025103","RESTAURANT 0 TO 100 SEATS","FULL SERVICE FULL MENU","FOLLOW-UP INSPECTION","2018-11-05","02B","Wounds Properly Covered",0,"Critical","Not Observed",0,"1115 PEARL ST
BOULDER, CO 803025103
(40.01766, -105.281147)"
"FA0000092","RIFFS URBAN FARE","1115 PEARL ST","1115",NULL,"PEARL","ST",NULL,"BOULDER","CO","803025103","RESTAURANT 0 TO 100 SEATS","FULL SERVICE FULL MENU","FOLLOW-UP INSPECTION","2018-11-05","15A","Personnel: Clean Clothes Hair Restraints Authorizat",0,"Non-Critical","Not Observed",0,"1115 PEARL ST
BOULDER, CO 803025103
(40.01766, -105.281147)"
"FA0000092","RIFFS URBAN FARE","1115 PEARL ST","1115",NULL,"PEARL","ST",NULL,"BOULDER","CO","803025103","RESTAURANT 0 TO 100 SEATS","FULL SERVICE FULL MENU","FOLLOW-UP INSPECTION","2018-11-05","08C","Properly Used",0,"Critical","Not Observed",0,"1115 PEARL ST
BOULDER, CO 803025103
(40.01766, -105.281147)"
"FA0000092","RIFFS URBAN FARE","1115 PEARL ST","1115",NULL,"PEARL","ST",NULL,"BOULDER","CO","803025103","RESTAURANT 0 TO 100 SEATS","FULL SERVICE FULL MENU","FOLLOW-UP INSPECTION","2018-11-05","07B","Pesticide Application",0,"Critical","Not Observed",0,"1115 PEARL ST
BOULDER, CO 803025103
(40.01766, -105.281147)"
"FA0000092","RIFFS URBAN FARE","1115 PEARL ST","1115",NULL,"PEARL","ST",NULL,"BOULDER","CO","803025103","RESTAURANT 0 TO 100 SEATS","FULL SERVICE FULL MENU","FOLLOW-UP INSPECTION","2018-11-05","14G","Premises Maintained",0,"Non-Critical","Not Observed",0,"1115 PEARL ST
BOULDER, CO 803025103
(40.01766, -105.281147)"
"FA0000092","RIFFS URBAN FARE","1115 PEARL ST","1115",NULL,"PEARL","ST",NULL,"BOULDER","CO","803025103","RESTAURANT 0 TO 100 SEATS","FULL SERVICE FULL MENU","FOLLOW-UP INSPECTION","2018-11-05","05D","Sewage Disposal",0,"Critical","Not Observed",0,"1115 PEARL ST
BOULDER, CO 803025103
(40.01766, -105.281147)"
"FA0000092","RIFFS URBAN FARE","1115 PEARL ST","1115",NULL,"PEARL","ST",NULL,"BOULDER","CO","803025103","RESTAURANT 0 TO 100 SEATS","FULL SERVICE FULL MENU","FOLLOW-UP INSPECTION","2018-11-05","08B","Properly Labeled",0,"Critical","Not Observed",0,"1115 PEARL ST
BOULDER, CO 803025103
(40.01766, -105.281147)"
"FA0000092","RIFFS URBAN FARE","1115 PEARL ST","1115",NULL,"PEARL","ST",NULL,"BOULDER","CO","803025103","RESTAURANT 0 TO 100 SEATS","FULL SERVICE FULL MENU","FOLLOW-UP INSPECTION","2018-11-05","03E","Cold Hold at 41 Degrees or Less",0,"Critical","In",0,"1115 PEARL ST
BOULDER, CO 803025103
(40.01766, -105.281147)"
"FA0000092","RIFFS URBAN FARE","1115 PEARL ST","1115",NULL,"PEARL","ST",NULL,"BOULDER","CO","803025103","RESTAURANT 0 TO 100 SEATS","FULL SERVICE FULL MENU","FOLLOW-UP INSPECTION","2018-11-05","07C","Animals Prohibited",0,"Critical","Not Observed",0,"1115 PEARL ST
BOULDER, CO 803025103
(40.01766, -105.281147)"
"FA0000092","RIFFS URBAN FARE","1115 PEARL ST","1115",NULL,"PEARL","ST",NULL,"BOULDER","CO","803025103","RESTAURANT 0 TO 100 SEATS","FULL SERVICE FULL MENU","FOLLOW-UP INSPECTION","2018-11-05","10B","Non-Food Contact Surfaces Construction",0,"Non-Critical","Not Observed",0,"1115 PEARL ST
BOULDER, CO 803025103
(40.01766, -105.281147)"
"FA0000092","RIFFS URBAN FARE","1115 PEARL ST","1115",NULL,"PEARL","ST",NULL,"BOULDER","CO","803025103","RESTAURANT 0 TO 100 SEATS","FULL SERVICE FULL MENU","FOLLOW-UP INSPECTION","2018-11-05","14B","Garbage and Refuse",0,"Non-Critical","Not Observed",0,"1115 PEARL ST
BOULDER, CO 803025103
(40.01766, -105.281147)"
"FA0000092","RIFFS URBAN FARE","1115 PEARL ST","1115",NULL,"PEARL","ST",NULL,"BOULDER","CO","803025103","RESTAURANT 0 TO 100 SEATS","FULL SERVICE FULL MENU","FOLLOW-UP INSPECTION","2018-11-05","11C","Chemical Test Kits Provided Accessible",0,"Non-Critical","Not Observed",0,"1115 PEARL ST
BOULDER, CO 803025103
(40.01766, -105.281147)"
"FA0000092","RIFFS URBAN FARE","1115 PEARL ST","1115",NULL,"PEARL","ST",NULL,"BOULDER","CO","803025103","RESTAURANT 0 TO 100 SEATS","FULL SERVICE FULL MENU","FOLLOW-UP INSPECTION","2018-11-05","03G","Adequate Equipment to Maintain Food Temperatures",0,"Critical","Not Observed",0,"1115 PEARL ST
BOULDER, CO 803025103
(40.01766, -105.281147)"
"FA0000092","RIFFS URBAN FARE","1115 PEARL ST","1115",NULL,"PEARL","ST",NULL,"BOULDER","CO","803025103","RESTAURANT 0 TO 100 SEATS","FULL SERVICE FULL MENU","FOLLOW-UP INSPECTION","2018-11-05","03A","Cooling Methods",0,"Critical","Not Observed",0,"1115 PEARL ST
BOULDER, CO 803025103
(40.01766, -105.281147)"
"FA0000092","RIFFS URBAN FARE","1115 PEARL ST","1115",NULL,"PEARL","ST",NULL,"BOULDER","CO","803025103","RESTAURANT 0 TO 100 SEATS","FULL SERVICE FULL MENU","FOLLOW-UP INSPECTION","2018-11-05","02C","Hands Washed As Needed",0,"Critical","Not Observed",0,"1115 PEARL ST
BOULDER, CO 803025103
(40.01766, -105.281147)"
"FA0000092","RIFFS URBAN FARE","1115 PEARL ST","1115",NULL,"PEARL","ST",NULL,"BOULDER","CO","803025103","RESTAURANT 0 TO 100 SEATS","FULL SERVICE FULL MENU","FOLLOW-UP INSPECTION","2018-11-05","06C","Soap and Drying Devices",0,"Critical","Not Observed",0,"1115 PEARL ST
BOULDER, CO 803025103
(40.01766, -105.281147)"
"FA0000092","RIFFS URBAN FARE","1115 PEARL ST","1115",NULL,"PEARL","ST",NULL,"BOULDER","CO","803025103","RESTAURANT 0 TO 100 SEATS","FULL SERVICE FULL MENU","FOLLOW-UP INSPECTION","2018-11-05","15B","Linen Properly Stored",0,"Non-Critical","Not Observed",0,"1115 PEARL ST
BOULDER, CO 803025103
(40.01766, -105.281147)"
"FA0000092","RIFFS URBAN FARE","1115 PEARL ST","1115",NULL,"PEARL","ST",NULL,"BOULDER","CO","803025103","RESTAURANT 0 TO 100 SEATS","FULL SERVICE FULL MENU","FOLLOW-UP INSPECTION","2018-11-05","02G","No Bare Hand Contact",0,"Critical","Not Observed",0,"1115 PEARL ST
BOULDER, CO 803025103
(40.01766, -105.281147)"
"FA0000092","RIFFS URBAN FARE","1115 PEARL ST","1115",NULL,"PEARL","ST",NULL,"BOULDER","CO","803025103","RESTAURANT 0 TO 100 SEATS","FULL SERVICE FULL MENU","FOLLOW-UP INSPECTION","2018-11-05","04B","Mechanical",0,"Critical","Not Observed",0,"1115 PEARL ST
BOULDER, CO 803025103
(40.01766, -105.281147)"
"FA0000092","RIFFS URBAN FARE","1115 PEARL ST","1115",NULL,"PEARL","ST",NULL,"BOULDER","CO","803025103","RESTAURANT 0 TO 100 SEATS","FULL SERVICE FULL MENU","FOLLOW-UP INSPECTION","2018-11-05","12D","Wiping Cloths",0,"Non-Critical","Not Observed",0,"1115 PEARL ST
BOULDER, CO 803025103
(40.01766, -105.281147)"
"FA0000092","RIFFS URBAN FARE","1115 PEARL ST","1115",NULL,"PEARL","ST",NULL,"BOULDER","CO","803025103","RESTAURANT 0 TO 100 SEATS","FULL SERVICE FULL MENU","FOLLOW-UP INSPECTION","2018-11-05","02D","Hygienic Practices",0,"Critical","Not Observed",0,"1115 PEARL ST
BOULDER, CO 803025103
(40.01766, -105.281147)"
"FA0000092","RIFFS URBAN FARE","1115 PEARL ST","1115",NULL,"PEARL","ST",NULL,"BOULDER","CO","803025103","RESTAURANT 0 TO 100 SEATS","FULL SERVICE FULL MENU","FOLLOW-UP INSPECTION","2018-11-05","01F","Consumer Advisory",0,"Critical","Not Observed",0,"1115 PEARL ST
BOULDER, CO 803025103
(40.01766, -105.281147)"
"FA0000092","RIFFS URBAN FARE","1115 PEARL ST","1115",NULL,"PEARL","ST",NULL,"BOULDER","CO","803025103","RESTAURANT 0 TO 100 SEATS","FULL SERVICE FULL MENU","FOLLOW-UP INSPECTION","2018-11-05","09B","Food Protected from Contamination",0,"Non-Critical","Not Observed",0,"1115 PEARL ST
BOULDER, CO 803025103
(40.01766, -105.281147)"
"FA0000092","RIFFS URBAN FARE","1115 PEARL ST","1115",NULL,"PEARL","ST",NULL,"BOULDER","CO","803025103","RESTAURANT 0 TO 100 SEATS","FULL SERVICE FULL MENU","FOLLOW-UP INSPECTION","2018-11-05","11B","Dishmachine With Accurate Thermometer & Gauge Cock",0,"Non-Critical","Not Observed",0,"1115 PEARL ST
BOULDER, CO 803025103
(40.01766, -105.281147)"
"FA0000092","RIFFS URBAN FARE","1115 PEARL ST","1115",NULL,"PEARL","ST",NULL,"BOULDER","CO","803025103","RESTAURANT 0 TO 100 SEATS","FULL SERVICE FULL MENU","FOLLOW-UP INSPECTION","2018-11-05","01D","HACCP Plan",0,"Critical","Not Observed",0,"1115 PEARL ST
BOULDER, CO 803025103
(40.01766, -105.281147)"
"FA0000092","RIFFS URBAN FARE","1115 PEARL ST","1115",NULL,"PEARL","ST",NULL,"BOULDER","CO","803025103","RESTAURANT 0 TO 100 SEATS","FULL SERVICE FULL MENU","ROUTINE INSPECTION","2016-09-06","02E","Smoking Eating Drinking",0,"Critical","In",25,"1115 PEARL ST
BOULDER, CO 803025103
(40.017703, -105.28095)"
"FA0000092","RIFFS URBAN FARE","1115 PEARL ST","1115",NULL,"PEARL","ST",NULL,"BOULDER","CO","803025103","RESTAURANT 0 TO 100 SEATS","FULL SERVICE FULL MENU","ROUTINE INSPECTION","2018-10-09","03G","Adequate Equipment to Maintain Food Temperatures",0,"Critical","In",30,"1115 PEARL ST
BOULDER, CO 803025103
(40.017703, -105.28095)"
"FA0000092","RIFFS URBAN FARE","1115 PEARL ST","1115",NULL,"PEARL","ST",NULL,"BOULDER","CO","803025103","RESTAURANT 0 TO 100 SEATS","FULL SERVICE FULL MENU","ROUTINE INSPECTION","2016-09-06","03E","Cold Hold at 41 Degrees or Less",0,"Critical","In",25,"1115 PEARL ST
BOULDER, CO 803025103
(40.017703, -105.28095)"
"FA0000092","RIFFS URBAN FARE","1115 PEARL ST","1115",NULL,"PEARL","ST",NULL,"BOULDER","CO","803025103","RESTAURANT 0 TO 100 SEATS","FULL SERVICE FULL MENU","ROUTINE INSPECTION","2014-04-04","05C","Backflow Back Siphonage",0,"Critical","In",45,"1115 PEARL ST
BOULDER, CO 803025103
(40.017703, -105.28095)"
"FA0000092","RIFFS URBAN FARE","1115 PEARL ST","1115",NULL,"PEARL","ST",NULL,"BOULDER","CO","803025103","RESTAURANT 0 TO 100 SEATS","FULL SERVICE FULL MENU","ROUTINE INSPECTION","2016-09-06","13C","No Reuse of Single Service Articles",0,"Non-Critical","Not Observed",25,"1115 PEARL ST
BOULDER, CO 803025103
(40.017703, -105.28095)"
"FA0000092","RIFFS URBAN FARE","1115 PEARL ST","1115",NULL,"PEARL","ST",NULL,"BOULDER","CO","803025103","RESTAURANT 0 TO 100 SEATS","FULL SERVICE FULL MENU","ROUTINE INSPECTION","2018-10-09","10B","Non-Food Contact Surfaces Construction",0,"Non-Critical","Not Observed",30,"1115 PEARL ST
BOULDER, CO 803025103
(40.017703, -105.28095)"
"FA0000092","RIFFS URBAN FARE","1115 PEARL ST","1115",NULL,"PEARL","ST",NULL,"BOULDER","CO","803025103","RESTAURANT 0 TO 100 SEATS","FULL SERVICE FULL MENU","ROUTINE INSPECTION","2018-10-09","10C","Dishwashing Facilities",0,"Non-Critical","Not Observed",30,"1115 PEARL ST
BOULDER, CO 803025103
(40.017703, -105.28095)"
"FA0000092","RIFFS URBAN FARE","1115 PEARL ST","1115",NULL,"PEARL","ST",NULL,"BOULDER","CO","803025103","RESTAURANT 0 TO 100 SEATS","FULL SERVICE FULL MENU","ROUTINE INSPECTION","2018-10-09","01F","Consumer Advisory",0,"Critical","In",30,"1115 PEARL ST
BOULDER, CO 803025103
(40.017703, -105.28095)"
"FA0000092","RIFFS URBAN FARE","1115 PEARL ST","1115",NULL,"PEARL","ST",NULL,"BOULDER","CO","803025103","RESTAURANT 0 TO 100 SEATS","FULL SERVICE FULL MENU","ROUTINE INSPECTION","2018-10-09","12C","Dishwashing Operations",0,"Non-Critical","Not Observed",30,"1115 PEARL ST
BOULDER, CO 803025103
(40.017703, -105.28095)"
"FA0000092","RIFFS URBAN FARE","1115 PEARL ST","1115",NULL,"PEARL","ST",NULL,"BOULDER","CO","803025103","RESTAURANT 0 TO 100 SEATS","FULL SERVICE FULL MENU","ROUTINE INSPECTION","2018-10-09","02F","Training Needed",0,"Critical","In",30,"1115 PEARL ST
BOULDER, CO 803025103
(40.017703, -105.28095)"
"FA0000092","RIFFS URBAN FARE","1115 PEARL ST","1115",NULL,"PEARL","ST",NULL,"BOULDER","CO","803025103","RESTAURANT 0 TO 100 SEATS","FULL SERVICE FULL MENU","ROUTINE INSPECTION","2016-09-06","01A","Approved Source",15,"Critical","Out",25,"1115 PEARL ST
BOULDER, CO 803025103
(40.017703, -105.28095)"
"FA0000092","RIFFS URBAN FARE","1115 PEARL ST","1115",NULL,"PEARL","ST",NULL,"BOULDER","CO","803025103","RESTAURANT 0 TO 100 SEATS","FULL SERVICE FULL MENU","ROUTINE INSPECTION","2018-10-09","02C","Hands Washed As Needed",0,"Critical","In",30,"1115 PEARL ST
BOULDER, CO 803025103
(40.017703, -105.28095)"
"FA0000092","RIFFS URBAN FARE","1115 PEARL ST","1115",NULL,"PEARL","ST",NULL,"BOULDER","CO","803025103","RESTAURANT 0 TO 100 SEATS","FULL SERVICE FULL MENU","ROUTINE INSPECTION","2014-04-04","02E","Smoking Eating Drinking",0,"Critical","In",45,"1115 PEARL ST
BOULDER, CO 803025103
(40.017703, -105.28095)"
"FA0000092","RIFFS URBAN FARE","1115 PEARL ST","1115",NULL,"PEARL","ST",NULL,"BOULDER","CO","803025103","RESTAURANT 0 TO 100 SEATS","FULL SERVICE FULL MENU","ROUTINE INSPECTION","2018-10-09","14C","Floors Walls Ceilings",0,"Non-Critical","Not Observed",30,"1115 PEARL ST
BOULDER, CO 803025103
(40.017703, -105.28095)"
"FA0000092","RIFFS URBAN FARE","1115 PEARL ST","1115",NULL,"PEARL","ST",NULL,"BOULDER","CO","803025103","RESTAURANT 0 TO 100 SEATS","FULL SERVICE FULL MENU","ROUTINE INSPECTION","2014-04-04","03C","Hot Hold at 135 Degrees Farenheit or Greater",0,"Critical","In",45,"1115 PEARL ST
BOULDER, CO 803025103
(40.017703, -105.28095)"
"FA0000092","RIFFS URBAN FARE","1115 PEARL ST","1115",NULL,"PEARL","ST",NULL,"BOULDER","CO","803025103","RESTAURANT 0 TO 100 SEATS","FULL SERVICE FULL MENU","ROUTINE INSPECTION","2014-04-04","06C","Soap and Drying Devices",0,"Critical","In",45,"1115 PEARL ST
BOULDER, CO 803025103
(40.017703, -105.28095)"
"FA0000092","RIFFS URBAN FARE","1115 PEARL ST","1115",NULL,"PEARL","ST",NULL,"BOULDER","CO","803025103","RESTAURANT 0 TO 100 SEATS","FULL SERVICE FULL MENU","ROUTINE INSPECTION","2014-04-04","05D","Sewage Disposal",0,"Critical","In",45,"1115 PEARL ST
BOULDER, CO 803025103
(40.017703, -105.28095)"
"FA0000092","RIFFS URBAN FARE","1115 PEARL ST","1115",NULL,"PEARL","ST",NULL,"BOULDER","CO","803025103","RESTAURANT 0 TO 100 SEATS","FULL SERVICE FULL MENU","ROUTINE INSPECTION","2018-10-09","01B","Wholesome Free of Spoilage",0,"Critical","In",30,"1115 PEARL ST
BOULDER, CO 803025103
(40.017703, -105.28095)"
"FA0000092","RIFFS URBAN FARE","1115 PEARL ST","1115",NULL,"PEARL","ST",NULL,"BOULDER","CO","803025103","RESTAURANT 0 TO 100 SEATS","FULL SERVICE FULL MENU","ROUTINE INSPECTION","2018-10-09","02D","Hygienic Practices",0,"Critical","In",30,"1115 PEARL ST
BOULDER, CO 803025103
(40.017703, -105.28095)"
"FA0000092","RIFFS URBAN FARE","1115 PEARL ST","1115",NULL,"PEARL","ST",NULL,"BOULDER","CO","803025103","RESTAURANT 0 TO 100 SEATS","FULL SERVICE FULL MENU","ROUTINE INSPECTION","2018-10-09","03D","Required Cooking Temperature",0,"Critical","In",30,"1115 PEARL ST
BOULDER, CO 803025103
(40.017703, -105.28095)"
"FA0000092","RIFFS URBAN FARE","1115 PEARL ST","1115",NULL,"PEARL","ST",NULL,"BOULDER","CO","803025103","RESTAURANT 0 TO 100 SEATS","FULL SERVICE FULL MENU","ROUTINE INSPECTION","2016-09-06","03B","Rapidly Reheat to 165 Degrees or Greater",0,"Critical","In",25,"1115 PEARL ST
BOULDER, CO 803025103
(40.017703, -105.28095)"
"FA0000092","RIFFS URBAN FARE","1115 PEARL ST","1115",NULL,"PEARL","ST",NULL,"BOULDER","CO","803025103","RESTAURANT 0 TO 100 SEATS","FULL SERVICE FULL MENU","ROUTINE INSPECTION","2018-10-09","14A","Plumbing Installed Maintained",0,"Non-Critical","Not Observed",30,"1115 PEARL ST
BOULDER, CO 803025103
(40.017703, -105.28095)"
"FA0000092","RIFFS URBAN FARE","1115 PEARL ST","1115",NULL,"PEARL","ST",NULL,"BOULDER","CO","803025103","RESTAURANT 0 TO 100 SEATS","FULL SERVICE FULL MENU","ROUTINE INSPECTION","2018-10-09","07C","Animals Prohibited",0,"Critical","Not Observed",30,"1115 PEARL ST
BOULDER, CO 803025103
(40.017703, -105.28095)"
"FA0000092","RIFFS URBAN FARE","1115 PEARL ST","1115",NULL,"PEARL","ST",NULL,"BOULDER","CO","803025103","RESTAURANT 0 TO 100 SEATS","FULL SERVICE FULL MENU","ROUTINE INSPECTION","2014-04-04","03B","Rapidly Reheat to 165 Degrees or Greater",0,"Critical","Not Observed",45,"1115 PEARL ST
BOULDER, CO 803025103
(40.017703, -105.28095)"
"FA0000092","RIFFS URBAN FARE","1115 PEARL ST","1115",NULL,"PEARL","ST",NULL,"BOULDER","CO","803025103","RESTAURANT 0 TO 100 SEATS","FULL SERVICE FULL MENU","ROUTINE INSPECTION","2014-04-04","13C","No Reuse of Single Service Articles",0,"Non-Critical","Not Observed",45,"1115 PEARL ST
BOULDER, CO 803025103
(40.017703, -105.28095)"
"FA0000092","RIFFS URBAN FARE","1115 PEARL ST","1115",NULL,"PEARL","ST",NULL,"BOULDER","CO","803025103","RESTAURANT 0 TO 100 SEATS","FULL SERVICE FULL MENU","ROUTINE INSPECTION","2014-04-04","01C","Cross Contamination",0,"Critical","In",45,"1115 PEARL ST
BOULDER, CO 803025103
(40.017703, -105.28095)"
"FA0000092","RIFFS URBAN FARE","1115 PEARL ST","1115",NULL,"PEARL","ST",NULL,"BOULDER","CO","803025103","RESTAURANT 0 TO 100 SEATS","FULL SERVICE FULL MENU","ROUTINE INSPECTION","2014-04-04","15A","Personnel: Clean Clothes Hair Restraints Authorizat",0,"Non-Critical","Not Observed",45,"1115 PEARL ST
BOULDER, CO 803025103
(40.017703, -105.28095)"
"FA0000092","RIFFS URBAN FARE","1115 PEARL ST","1115",NULL,"PEARL","ST",NULL,"BOULDER","CO","803025103","RESTAURANT 0 TO 100 SEATS","FULL SERVICE FULL MENU","ROUTINE INSPECTION","2014-04-04","14F","Locker Rooms",0,"Non-Critical","Not Observed",45,"1115 PEARL ST
BOULDER, CO 803025103
(40.017703, -105.28095)"
"FA0000092","RIFFS URBAN FARE","1115 PEARL ST","1115",NULL,"PEARL","ST",NULL,"BOULDER","CO","803025103","RESTAURANT 0 TO 100 SEATS","FULL SERVICE FULL MENU","ROUTINE INSPECTION","2014-04-04","09A","Original Container Properly Labeled",0,"Non-Critical","Not Observed",45,"1115 PEARL ST
BOULDER, CO 803025103
(40.017703, -105.28095)"
"FA0000092","RIFFS URBAN FARE","1115 PEARL ST","1115",NULL,"PEARL","ST",NULL,"BOULDER","CO","803025103","RESTAURANT 0 TO 100 SEATS","FULL SERVICE FULL MENU","ROUTINE INSPECTION","2014-04-04","11B","Dishmachine With Accurate Thermometer & Gauge Cock",0,"Non-Critical","Not Observed",45,"1115 PEARL ST
BOULDER, CO 803025103
(40.017703, -105.28095)"
"FA0000092","RIFFS URBAN FARE","1115 PEARL ST","1115",NULL,"PEARL","ST",NULL,"BOULDER","CO","803025103","RESTAURANT 0 TO 100 SEATS","FULL SERVICE FULL MENU","ROUTINE INSPECTION","2016-09-06","08C","Properly Used",0,"Critical","In",25,"1115 PEARL ST
BOULDER, CO 803025103
(40.017703, -105.28095)"
"FA0000092","RIFFS URBAN FARE","1115 PEARL ST","1115",NULL,"PEARL","ST",NULL,"BOULDER","CO","803025103","RESTAURANT 0 TO 100 SEATS","FULL SERVICE FULL MENU","ROUTINE INSPECTION","2018-10-09","02E","Smoking Eating Drinking",0,"Critical","In",30,"1115 PEARL ST
BOULDER, CO 803025103
(40.017703, -105.28095)"
"FA0000092","RIFFS URBAN FARE","1115 PEARL ST","1115",NULL,"PEARL","ST",NULL,"BOULDER","CO","803025103","RESTAURANT 0 TO 100 SEATS","FULL SERVICE FULL MENU","ROUTINE INSPECTION","2014-04-04","07C","Animals Prohibited",0,"Critical","In",45,"1115 PEARL ST
BOULDER, CO 803025103
(40.017703, -105.28095)"
"FA0000092","RIFFS URBAN FARE","1115 PEARL ST","1115",NULL,"PEARL","ST",NULL,"BOULDER","CO","803025103","RESTAURANT 0 TO 100 SEATS","FULL SERVICE FULL MENU","ROUTINE INSPECTION","2018-10-09","10A","Food-Contact Surfaces Construction",0,"Non-Critical","Not Observed",30,"1115 PEARL ST
BOULDER, CO 803025103
(40.017703, -105.28095)"
"FA0000092","RIFFS URBAN FARE","1115 PEARL ST","1115",NULL,"PEARL","ST",NULL,"BOULDER","CO","803025103","RESTAURANT 0 TO 100 SEATS","FULL SERVICE FULL MENU","ROUTINE INSPECTION","2018-10-09","08B","Properly Labeled",0,"Critical","In",30,"1115 PEARL ST
BOULDER, CO 803025103
(40.017703, -105.28095)"
"FA0000092","RIFFS URBAN FARE","1115 PEARL ST","1115",NULL,"PEARL","ST",NULL,"BOULDER","CO","803025103","RESTAURANT 0 TO 100 SEATS","FULL SERVICE FULL MENU","ROUTINE INSPECTION","2014-04-04","14I","Physical Facilities Adequate Toilet Facilities",0,"Non-Critical","Not Observed",45,"1115 PEARL ST
BOULDER, CO 803025103
(40.017703, -105.28095)"
"FA0000092","RIFFS URBAN FARE","1115 PEARL ST","1115",NULL,"PEARL","ST",NULL,"BOULDER","CO","803025103","RESTAURANT 0 TO 100 SEATS","FULL SERVICE FULL MENU","ROUTINE INSPECTION","2016-09-06","05A","Safe Water Source",0,"Critical","In",25,"1115 PEARL ST
BOULDER, CO 803025103
(40.017703, -105.28095)"
"FA0000092","RIFFS URBAN FARE","1115 PEARL ST","1115",NULL,"PEARL","ST",NULL,"BOULDER","CO","803025103","RESTAURANT 0 TO 100 SEATS","FULL SERVICE FULL MENU","ROUTINE INSPECTION","2018-10-09","14B","Garbage and Refuse",0,"Non-Critical","Not Observed",30,"1115 PEARL ST
BOULDER, CO 803025103
(40.017703, -105.28095)"
"FA0000092","RIFFS URBAN FARE","1115 PEARL ST","1115",NULL,"PEARL","ST",NULL,"BOULDER","CO","803025103","RESTAURANT 0 TO 100 SEATS","FULL SERVICE FULL MENU","ROUTINE INSPECTION","2016-09-06","15A","Personnel: Clean Clothes Hair Restraints Authorizat",0,"Non-Critical","Not Observed",25,"1115 PEARL ST
BOULDER, CO 803025103
(40.017703, -105.28095)"
"FA0000092","RIFFS URBAN FARE","1115 PEARL ST","1115",NULL,"PEARL","ST",NULL,"BOULDER","CO","803025103","RESTAURANT 0 TO 100 SEATS","FULL SERVICE FULL MENU","ROUTINE INSPECTION","2018-10-09","02A","Personnel With Infections Restricted",0,"Critical","In",30,"1115 PEARL ST
BOULDER, CO 803025103
(40.017703, -105.28095)"
"FA0000092","RIFFS URBAN FARE","1115 PEARL ST","1115",NULL,"PEARL","ST",NULL,"BOULDER","CO","803025103","RESTAURANT 0 TO 100 SEATS","FULL SERVICE FULL MENU","ROUTINE INSPECTION","2018-10-09","14H","Separation of Living Laundry",0,"Non-Critical","Not Observed",30,"1115 PEARL ST
BOULDER, CO 803025103
(40.017703, -105.28095)"
"FA0000092","RIFFS URBAN FARE","1115 PEARL ST","1115",NULL,"PEARL","ST",NULL,"BOULDER","CO","803025103","RESTAURANT 0 TO 100 SEATS","FULL SERVICE FULL MENU","ROUTINE INSPECTION","2014-04-04","13B","Single Service Articles Stored Dispensed Used",0,"Non-Critical","Not Observed",45,"1115 PEARL ST
BOULDER, CO 803025103
(40.017703, -105.28095)"
"FA0000092","RIFFS URBAN FARE","1115 PEARL ST","1115",NULL,"PEARL","ST",NULL,"BOULDER","CO","803025103","RESTAURANT 0 TO 100 SEATS","FULL SERVICE FULL MENU","ROUTINE INSPECTION","2016-09-06","14H","Separation of Living Laundry",0,"Non-Critical","Not Observed",25,"1115 PEARL ST
BOULDER, CO 803025103
(40.017703, -105.28095)"
"FA0000092","RIFFS URBAN FARE","1115 PEARL ST","1115",NULL,"PEARL","ST",NULL,"BOULDER","CO","803025103","RESTAURANT 0 TO 100 SEATS","FULL SERVICE FULL MENU","ROUTINE INSPECTION","2016-09-06","12A","Food Contact Surfaces Cleaning",0,"Non-Critical","Not Observed",25,"1115 PEARL ST
BOULDER, CO 803025103
(40.017703, -105.28095)"
"FA0000092","RIFFS URBAN FARE","1115 PEARL ST","1115",NULL,"PEARL","ST",NULL,"BOULDER","CO","803025103","RESTAURANT 0 TO 100 SEATS","FULL SERVICE FULL MENU","ROUTINE INSPECTION","2018-10-09","08A","Properly Stored",0,"Critical","In",30,"1115 PEARL ST
BOULDER, CO 803025103
(40.017703, -105.28095)"
"FA0000092","RIFFS URBAN FARE","1115 PEARL ST","1115",NULL,"PEARL","ST",NULL,"BOULDER","CO","803025103","RESTAURANT 0 TO 100 SEATS","FULL SERVICE FULL MENU","ROUTINE INSPECTION","2018-10-09","01C","Cross Contamination",0,"Critical","In",30,"1115 PEARL ST
BOULDER, CO 803025103
(40.017703, -105.28095)"
"FA0000092","RIFFS URBAN FARE","1115 PEARL ST","1115",NULL,"PEARL","ST",NULL,"BOULDER","CO","803025103","RESTAURANT 0 TO 100 SEATS","FULL SERVICE FULL MENU","ROUTINE INSPECTION","2018-10-09","03E","Cold Hold at 41 Degrees or Less",15,"Critical","Out",30,"1115 PEARL ST
BOULDER, CO 803025103
(40.017703, -105.28095)"
"FA0000092","RIFFS URBAN FARE","1115 PEARL ST","1115",NULL,"PEARL","ST",NULL,"BOULDER","CO","803025103","RESTAURANT 0 TO 100 SEATS","FULL SERVICE FULL MENU","ROUTINE INSPECTION","2016-09-06","13A","Equipment Utensils Provided Used, Stored",0,"Non-Critical","Not Observed",25,"1115 PEARL ST
BOULDER, CO 803025103
(40.017703, -105.28095)"
"FA0000092","RIFFS URBAN FARE","1115 PEARL ST","1115",NULL,"PEARL","ST",NULL,"BOULDER","CO","803025103","RESTAURANT 0 TO 100 SEATS","FULL SERVICE FULL MENU","ROUTINE INSPECTION","2016-09-06","08A","Properly Stored",0,"Critical","In",25,"1115 PEARL ST
BOULDER, CO 803025103
(40.017703, -105.28095)"
"FA0000092","RIFFS URBAN FARE","1115 PEARL ST","1115",NULL,"PEARL","ST",NULL,"BOULDER","CO","803025103","RESTAURANT 0 TO 100 SEATS","FULL SERVICE FULL MENU","ROUTINE INSPECTION","2016-09-06","03A","Cooling Methods",0,"Critical","In",25,"1115 PEARL ST
BOULDER, CO 803025103
(40.017703, -105.28095)"
"FA0000092","RIFFS URBAN FARE","1115 PEARL ST","1115",NULL,"PEARL","ST",NULL,"BOULDER","CO","803025103","RESTAURANT 0 TO 100 SEATS","FULL SERVICE FULL MENU","ROUTINE INSPECTION","2018-10-09","06A","Adequate Number Location Design",0,"Critical","In",30,"1115 PEARL ST
BOULDER, CO 803025103
(40.017703, -105.28095)"
"FA0000092","RIFFS URBAN FARE","1115 PEARL ST","1115",NULL,"PEARL","ST",NULL,"BOULDER","CO","803025103","RESTAURANT 0 TO 100 SEATS","FULL SERVICE FULL MENU","ROUTINE INSPECTION","2014-04-04","11A","Refrigeration Units With Accurate Thermometers",0,"Non-Critical","Not Observed",45,"1115 PEARL ST
BOULDER, CO 803025103
(40.017703, -105.28095)"
"FA0000092","RIFFS URBAN FARE","1115 PEARL ST","1115",NULL,"PEARL","ST",NULL,"BOULDER","CO","803025103","RESTAURANT 0 TO 100 SEATS","FULL SERVICE FULL MENU","ROUTINE INSPECTION","2018-10-09","15A","Personnel: Clean Clothes Hair Restraints Authorizat",0,"Non-Critical","Not Observed",30,"1115 PEARL ST
BOULDER, CO 803025103
(40.017703, -105.28095)"
"FA0000092","RIFFS URBAN FARE","1115 PEARL ST","1115",NULL,"PEARL","ST",NULL,"BOULDER","CO","803025103","RESTAURANT 0 TO 100 SEATS","FULL SERVICE FULL MENU","ROUTINE INSPECTION","2014-04-04","12A","Food Contact Surfaces Cleaning",0,"Non-Critical","Not Observed",45,"1115 PEARL ST
BOULDER, CO 803025103
(40.017703, -105.28095)"
"FA0000092","RIFFS URBAN FARE","1115 PEARL ST","1115",NULL,"PEARL","ST",NULL,"BOULDER","CO","803025103","RESTAURANT 0 TO 100 SEATS","FULL SERVICE FULL MENU","ROUTINE INSPECTION","2014-04-04","02G","No Bare Hand Contact",20,"Critical","Out",45,"1115 PEARL ST
BOULDER, CO 803025103
(40.017703, -105.28095)"
"FA0000092","RIFFS URBAN FARE","1115 PEARL ST","1115",NULL,"PEARL","ST",NULL,"BOULDER","CO","803025103","RESTAURANT 0 TO 100 SEATS","FULL SERVICE FULL MENU","ROUTINE INSPECTION","2016-09-06","07C","Animals Prohibited",0,"Critical","Not Observed",25,"1115 PEARL ST
BOULDER, CO 803025103
(40.017703, -105.28095)"
"FA0000092","RIFFS URBAN FARE","1115 PEARL ST","1115",NULL,"PEARL","ST",NULL,"BOULDER","CO","803025103","RESTAURANT 0 TO 100 SEATS","FULL SERVICE FULL MENU","ROUTINE INSPECTION","2014-04-04","08C","Properly Used",0,"Critical","In",45,"1115 PEARL ST
BOULDER, CO 803025103
(40.017703, -105.28095)"
"FA0000092","RIFFS URBAN FARE","1115 PEARL ST","1115",NULL,"PEARL","ST",NULL,"BOULDER","CO","803025103","RESTAURANT 0 TO 100 SEATS","FULL SERVICE FULL MENU","ROUTINE INSPECTION","2018-10-09","11C","Chemical Test Kits Provided Accessible",0,"Non-Critical","Not Observed",30,"1115 PEARL ST
BOULDER, CO 803025103
(40.017703, -105.28095)"
"FA0000092","RIFFS URBAN FARE","1115 PEARL ST","1115",NULL,"PEARL","ST",NULL,"BOULDER","CO","803025103","RESTAURANT 0 TO 100 SEATS","FULL SERVICE FULL MENU","ROUTINE INSPECTION","2016-09-06","12C","Dishwashing Operations",0,"Non-Critical","Not Observed",25,"1115 PEARL ST
BOULDER, CO 803025103
(40.017703, -105.28095)"
"FA0000092","RIFFS URBAN FARE","1115 PEARL ST","1115",NULL,"PEARL","ST",NULL,"BOULDER","CO","803025103","RESTAURANT 0 TO 100 SEATS","FULL SERVICE FULL MENU","ROUTINE INSPECTION","2016-09-06","14A","Plumbing Installed Maintained",0,"Non-Critical","Not Observed",25,"1115 PEARL ST
BOULDER, CO 803025103
(40.017703, -105.28095)"
"FA0000092","RIFFS URBAN FARE","1115 PEARL ST","1115",NULL,"PEARL","ST",NULL,"BOULDER","CO","803025103","RESTAURANT 0 TO 100 SEATS","FULL SERVICE FULL MENU","ROUTINE INSPECTION","2014-04-04","07A","Evidence of Insects or Rodents",0,"Critical","In",45,"1115 PEARL ST
BOULDER, CO 803025103
(40.017703, -105.28095)"
"FA0000092","RIFFS URBAN FARE","1115 PEARL ST","1115",NULL,"PEARL","ST",NULL,"BOULDER","CO","803025103","RESTAURANT 0 TO 100 SEATS","FULL SERVICE FULL MENU","ROUTINE INSPECTION","2014-04-04","14D","Lighting",0,"Non-Critical","Not Observed",45,"1115 PEARL ST
BOULDER, CO 803025103
(40.017703, -105.28095)"
"FA0000092","RIFFS URBAN FARE","1115 PEARL ST","1115",NULL,"PEARL","ST",NULL,"BOULDER","CO","803025103","RESTAURANT 0 TO 100 SEATS","FULL SERVICE FULL MENU","ROUTINE INSPECTION","2016-09-06","05D","Sewage Disposal",0,"Critical","In",25,"1115 PEARL ST
BOULDER, CO 803025103
(40.017703, -105.28095)"
"FA0000092","RIFFS URBAN FARE","1115 PEARL ST","1115",NULL,"PEARL","ST",NULL,"BOULDER","CO","803025103","RESTAURANT 0 TO 100 SEATS","FULL SERVICE FULL MENU","ROUTINE INSPECTION","2016-09-06","06C","Soap and Drying Devices",0,"Critical","In",25,"1115 PEARL ST
BOULDER, CO 803025103
(40.017703, -105.28095)"
"FA0000092","RIFFS URBAN FARE","1115 PEARL ST","1115",NULL,"PEARL","ST",NULL,"BOULDER","CO","803025103","RESTAURANT 0 TO 100 SEATS","FULL SERVICE FULL MENU","ROUTINE INSPECTION","2016-09-06","06A","Adequate Number Location Design",0,"Critical","In",25,"1115 PEARL ST
BOULDER, CO 803025103
(40.017703, -105.28095)"
"FA0000092","RIFFS URBAN FARE","1115 PEARL ST","1115",NULL,"PEARL","ST",NULL,"BOULDER","CO","803025103","RESTAURANT 0 TO 100 SEATS","FULL SERVICE FULL MENU","ROUTINE INSPECTION","2018-10-09","14I","Physical Facilities Adequate Toilet Facilities",0,"Non-Critical","Not Observed",30,"1115 PEARL ST
BOULDER, CO 803025103
(40.017703, -105.28095)"
"FA0000092","RIFFS URBAN FARE","1115 PEARL ST","1115",NULL,"PEARL","ST",NULL,"BOULDER","CO","803025103","RESTAURANT 0 TO 100 SEATS","FULL SERVICE FULL MENU","ROUTINE INSPECTION","2016-09-06","02A","Personnel With Infections Restricted",0,"Critical","In",25,"1115 PEARL ST
BOULDER, CO 803025103
(40.017703, -105.28095)"
"FA0000092","RIFFS URBAN FARE","1115 PEARL ST","1115",NULL,"PEARL","ST",NULL,"BOULDER","CO","803025103","RESTAURANT 0 TO 100 SEATS","FULL SERVICE FULL MENU","ROUTINE INSPECTION","2016-09-06","02G","No Bare Hand Contact",0,"Critical","In",25,"1115 PEARL ST
BOULDER, CO 803025103
(40.017703, -105.28095)"
"FA0000092","RIFFS URBAN FARE","1115 PEARL ST","1115",NULL,"PEARL","ST",NULL,"BOULDER","CO","803025103","RESTAURANT 0 TO 100 SEATS","FULL SERVICE FULL MENU","ROUTINE INSPECTION","2016-09-06","10C","Dishwashing Facilities",0,"Non-Critical","Not Observed",25,"1115 PEARL ST
BOULDER, CO 803025103
(40.017703, -105.28095)"
"FA0000092","RIFFS URBAN FARE","1115 PEARL ST","1115",NULL,"PEARL","ST",NULL,"BOULDER","CO","803025103","RESTAURANT 0 TO 100 SEATS","FULL SERVICE FULL MENU","ROUTINE INSPECTION","2018-10-09","05B","Hot and Cold Water Under Pressure",0,"Critical","In",30,"1115 PEARL ST
BOULDER, CO 803025103
(40.017703, -105.28095)"
"FA0000092","RIFFS URBAN FARE","1115 PEARL ST","1115",NULL,"PEARL","ST",NULL,"BOULDER","CO","803025103","RESTAURANT 0 TO 100 SEATS","FULL SERVICE FULL MENU","ROUTINE INSPECTION","2014-04-04","04C","In Place",0,"Critical","Not Applicable",45,"1115 PEARL ST
BOULDER, CO 803025103
(40.017703, -105.28095)"
"FA0000092","RIFFS URBAN FARE","1115 PEARL ST","1115",NULL,"PEARL","ST",NULL,"BOULDER","CO","803025103","RESTAURANT 0 TO 100 SEATS","FULL SERVICE FULL MENU","ROUTINE INSPECTION","2014-04-04","03G","Adequate Equipment to Maintain Food Temperatures",0,"Critical","In",45,"1115 PEARL ST
BOULDER, CO 803025103
(40.017703, -105.28095)"
"FA0000092","RIFFS URBAN FARE","1115 PEARL ST","1115",NULL,"PEARL","ST",NULL,"BOULDER","CO","803025103","RESTAURANT 0 TO 100 SEATS","FULL SERVICE FULL MENU","ROUTINE INSPECTION","2014-04-04","10B","Non-Food Contact Surfaces Construction",0,"Non-Critical","Not Observed",45,"1115 PEARL ST
BOULDER, CO 803025103
(40.017703, -105.28095)"
"FA0000092","RIFFS URBAN FARE","1115 PEARL ST","1115",NULL,"PEARL","ST",NULL,"BOULDER","CO","803025103","RESTAURANT 0 TO 100 SEATS","FULL SERVICE FULL MENU","ROUTINE INSPECTION","2018-10-09","04C","In Place",0,"Critical","In",30,"1115 PEARL ST
BOULDER, CO 803025103
(40.017703, -105.28095)"
"FA0000092","RIFFS URBAN FARE","1115 PEARL ST","1115",NULL,"PEARL","ST",NULL,"BOULDER","CO","803025103","RESTAURANT 0 TO 100 SEATS","FULL SERVICE FULL MENU","ROUTINE INSPECTION","2016-09-06","03D","Required Cooking Temperature",0,"Critical","In",25,"1115 PEARL ST
BOULDER, CO 803025103
(40.017703, -105.28095)"
"FA0000092","RIFFS URBAN FARE","1115 PEARL ST","1115",NULL,"PEARL","ST",NULL,"BOULDER","CO","803025103","RESTAURANT 0 TO 100 SEATS","FULL SERVICE FULL MENU","ROUTINE INSPECTION","2014-04-04","07B","Pesticide Application",0,"Critical","In",45,"1115 PEARL ST
BOULDER, CO 803025103
(40.017703, -105.28095)"
"FA0000092","RIFFS URBAN FARE","1115 PEARL ST","1115",NULL,"PEARL","ST",NULL,"BOULDER","CO","803025103","RESTAURANT 0 TO 100 SEATS","FULL SERVICE FULL MENU","ROUTINE INSPECTION","2014-04-04","04B","Mechanical",0,"Critical","In",45,"1115 PEARL ST
BOULDER, CO 803025103
(40.017703, -105.28095)"
"FA0000092","RIFFS URBAN FARE","1115 PEARL ST","1115",NULL,"PEARL","ST",NULL,"BOULDER","CO","803025103","RESTAURANT 0 TO 100 SEATS","FULL SERVICE FULL MENU","ROUTINE INSPECTION","2018-10-09","13A","Equipment Utensils Provided Used, Stored",0,"Non-Critical","Not Observed",30,"1115 PEARL ST
BOULDER, CO 803025103
(40.017703, -105.28095)"
"FA0000092","RIFFS URBAN FARE","1115 PEARL ST","1115",NULL,"PEARL","ST",NULL,"BOULDER","CO","803025103","RESTAURANT 0 TO 100 SEATS","FULL SERVICE FULL MENU","ROUTINE INSPECTION","2014-04-04","14H","Separation of Living Laundry",0,"Non-Critical","Not Observed",45,"1115 PEARL ST
BOULDER, CO 803025103
(40.017703, -105.28095)"
"FA0000092","RIFFS URBAN FARE","1115 PEARL ST","1115",NULL,"PEARL","ST",NULL,"BOULDER","CO","803025103","RESTAURANT 0 TO 100 SEATS","FULL SERVICE FULL MENU","ROUTINE INSPECTION","2016-09-06","14G","Premises Maintained",0,"Non-Critical","Not Observed",25,"1115 PEARL ST
BOULDER, CO 803025103
(40.017703, -105.28095)"
"FA0000092","RIFFS URBAN FARE","1115 PEARL ST","1115",NULL,"PEARL","ST",NULL,"BOULDER","CO","803025103","RESTAURANT 0 TO 100 SEATS","FULL SERVICE FULL MENU","ROUTINE INSPECTION","2014-04-04","13A","Equipment Utensils Provided Used, Stored",0,"Non-Critical","Not Observed",45,"1115 PEARL ST
BOULDER, CO 803025103
(40.017703, -105.28095)"
"FA0000092","RIFFS URBAN FARE","1115 PEARL ST","1115",NULL,"PEARL","ST",NULL,"BOULDER","CO","803025103","RESTAURANT 0 TO 100 SEATS","FULL SERVICE FULL MENU","ROUTINE INSPECTION","2016-09-06","01D","HACCP Plan",0,"Critical","Not Applicable",25,"1115 PEARL ST
BOULDER, CO 803025103
(40.017703, -105.28095)"
"FA0000092","RIFFS URBAN FARE","1115 PEARL ST","1115",NULL,"PEARL","ST",NULL,"BOULDER","CO","803025103","RESTAURANT 0 TO 100 SEATS","FULL SERVICE FULL MENU","ROUTINE INSPECTION","2018-10-09","14D","Lighting",0,"Non-Critical","Not Observed",30,"1115 PEARL ST
BOULDER, CO 803025103
(40.017703, -105.28095)"
"FA0000092","RIFFS URBAN FARE","1115 PEARL ST","1115",NULL,"PEARL","ST",NULL,"BOULDER","CO","803025103","RESTAURANT 0 TO 100 SEATS","FULL SERVICE FULL MENU","ROUTINE INSPECTION","2018-10-09","09B","Food Protected from Contamination",0,"Non-Critical","Not Observed",30,"1115 PEARL ST
BOULDER, CO 803025103
(40.017703, -105.28095)"
"FA0000092","RIFFS URBAN FARE","1115 PEARL ST","1115",NULL,"PEARL","ST",NULL,"BOULDER","CO","803025103","RESTAURANT 0 TO 100 SEATS","FULL SERVICE FULL MENU","ROUTINE INSPECTION","2014-04-04","10C","Dishwashing Facilities",0,"Non-Critical","Not Observed",45,"1115 PEARL ST
BOULDER, CO 803025103
(40.017703, -105.28095)"
"FA0000092","RIFFS URBAN FARE","1115 PEARL ST","1115",NULL,"PEARL","ST",NULL,"BOULDER","CO","803025103","RESTAURANT 0 TO 100 SEATS","FULL SERVICE FULL MENU","ROUTINE INSPECTION","2018-10-09","02B","Wounds Properly Covered",0,"Critical","In",30,"1115 PEARL ST
BOULDER, CO 803025103
(40.017703, -105.28095)"
"FA0000092","RIFFS URBAN FARE","1115 PEARL ST","1115",NULL,"PEARL","ST",NULL,"BOULDER","CO","803025103","RESTAURANT 0 TO 100 SEATS","FULL SERVICE FULL MENU","ROUTINE INSPECTION","2014-04-04","05A","Safe Water Source",0,"Critical","In",45,"1115 PEARL ST
BOULDER, CO 803025103
(40.017703, -105.28095)"
"FA0000092","RIFFS URBAN FARE","1115 PEARL ST","1115",NULL,"PEARL","ST",NULL,"BOULDER","CO","803025103","RESTAURANT 0 TO 100 SEATS","FULL SERVICE FULL MENU","ROUTINE INSPECTION","2018-10-09","01D","HACCP Plan",0,"Critical","Not Applicable",30,"1115 PEARL ST
BOULDER, CO 803025103
(40.017703, -105.28095)"
"FA0000092","RIFFS URBAN FARE","1115 PEARL ST","1115",NULL,"PEARL","ST",NULL,"BOULDER","CO","803025103","RESTAURANT 0 TO 100 SEATS","FULL SERVICE FULL MENU","ROUTINE INSPECTION","2018-10-09","06B","Accessible",0,"Critical","In",30,"1115 PEARL ST
BOULDER, CO 803025103
(40.017703, -105.28095)"
"FA0000092","RIFFS URBAN FARE","1115 PEARL ST","1115",NULL,"PEARL","ST",NULL,"BOULDER","CO","803025103","RESTAURANT 0 TO 100 SEATS","FULL SERVICE FULL MENU","ROUTINE INSPECTION","2014-04-04","12D","Wiping Cloths",0,"Non-Critical","Not Observed",45,"1115 PEARL ST
BOULDER, CO 803025103
(40.017703, -105.28095)"
"FA0000092","RIFFS URBAN FARE","1115 PEARL ST","1115",NULL,"PEARL","ST",NULL,"BOULDER","CO","803025103","RESTAURANT 0 TO 100 SEATS","FULL SERVICE FULL MENU","ROUTINE INSPECTION","2018-10-09","05C","Backflow Back Siphonage",0,"Critical","In",30,"1115 PEARL ST
BOULDER, CO 803025103
(40.017703, -105.28095)"
"FA0000092","RIFFS URBAN FARE","1115 PEARL ST","1115",NULL,"PEARL","ST",NULL,"BOULDER","CO","803025103","RESTAURANT 0 TO 100 SEATS","FULL SERVICE FULL MENU","ROUTINE INSPECTION","2016-09-06","06B","Accessible",0,"Critical","In",25,"1115 PEARL ST
BOULDER, CO 803025103
(40.017703, -105.28095)"
"FA0000092","RIFFS URBAN FARE","1115 PEARL ST","1115",NULL,"PEARL","ST",NULL,"BOULDER","CO","803025103","RESTAURANT 0 TO 100 SEATS","FULL SERVICE FULL MENU","ROUTINE INSPECTION","2018-10-09","05A","Safe Water Source",0,"Critical","In",30,"1115 PEARL ST
BOULDER, CO 803025103
(40.017703, -105.28095)"
"FA0000092","RIFFS URBAN FARE","1115 PEARL ST","1115",NULL,"PEARL","ST",NULL,"BOULDER","CO","803025103","RESTAURANT 0 TO 100 SEATS","FULL SERVICE FULL MENU","ROUTINE INSPECTION","2014-04-04","06B","Accessible",0,"Critical","In",45,"1115 PEARL ST
BOULDER, CO 803025103
(40.017703, -105.28095)"
"FA0000092","RIFFS URBAN FARE","1115 PEARL ST","1115",NULL,"PEARL","ST",NULL,"BOULDER","CO","803025103","RESTAURANT 0 TO 100 SEATS","FULL SERVICE FULL MENU","ROUTINE INSPECTION","2016-09-06","03F","Food Thermometer",0,"Critical","In",25,"1115 PEARL ST
BOULDER, CO 803025103
(40.017703, -105.28095)"
"FA0000092","RIFFS URBAN FARE","1115 PEARL ST","1115",NULL,"PEARL","ST",NULL,"BOULDER","CO","803025103","RESTAURANT 0 TO 100 SEATS","FULL SERVICE FULL MENU","ROUTINE INSPECTION","2014-04-04","11C","Chemical Test Kits Provided Accessible",0,"Non-Critical","Not Observed",45,"1115 PEARL ST
BOULDER, CO 803025103
(40.017703, -105.28095)"
"FA0000092","RIFFS URBAN FARE","1115 PEARL ST","1115",NULL,"PEARL","ST",NULL,"BOULDER","CO","803025103","RESTAURANT 0 TO 100 SEATS","FULL SERVICE FULL MENU","ROUTINE INSPECTION","2018-10-09","07A","Evidence of Insects or Rodents",0,"Critical","In",30,"1115 PEARL ST
BOULDER, CO 803025103
(40.017703, -105.28095)"
"FA0000092","RIFFS URBAN FARE","1115 PEARL ST","1115",NULL,"PEARL","ST",NULL,"BOULDER","CO","803025103","RESTAURANT 0 TO 100 SEATS","FULL SERVICE FULL MENU","ROUTINE INSPECTION","2016-09-06","11B","Dishmachine With Accurate Thermometer & Gauge Cock",0,"Non-Critical","Not Observed",25,"1115 PEARL ST
BOULDER, CO 803025103
(40.017703, -105.28095)"
